recommends,specials_url,title,url,region,coord,phone,board,address,img_url
,,咕咕鸡特色餐饮,http://www.dianping.com/shop/4531922,岳阳楼区,"113.10598500014,29.3736239999417",0730-8328008,"{'url': u'http://www.dianping.com/mylist/1573775', 'intro': u'\u4e3a\u4f60\u63a8\u8350\u672c\u57ce\u6700\u9002\u5408\u60c5\u4fa3\u665a\u9910\u7684\u597d\u53bb\u5904\uff0c\u6d6a\u6f2b\u6e29\u60c5\u7684\u70db\u5149\uff0c\u518d\u914d\u4e0a\u4e00\u4efd\u60c5\u8c03\u5927\u9910\uff0c\u5c31\u5728\u8fd9\u66fc...', 'title': u'\u3010\u5cb3\u9633\u3011\u6d6a\u6f2b\u7ea6\u4f1a\u9910\u5385\u653b\u7565'}",步行街九丰大厦3楼,http://i2.s1.dpfile.com/pc/68a2f931eba45aa604508a641c88b5b5(335c221)/thumb.jpg
,,比利迦咖啡屋,http://www.dianping.com/shop/8007753,岳阳楼区,"113.1103185,29.37244938",0730-8698383,"{'url': u'http://www.dianping.com/mylist/1573775', 'intro': u'\u4e3a\u4f60\u63a8\u8350\u672c\u57ce\u6700\u9002\u5408\u60c5\u4fa3\u665a\u9910\u7684\u597d\u53bb\u5904\uff0c\u6d6a\u6f2b\u6e29\u60c5\u7684\u70db\u5149\uff0c\u518d\u914d\u4e0a\u4e00\u4efd\u60c5\u8c03\u5927\u9910\uff0c\u5c31\u5728\u8fd9\u66fc...', 'title': u'\u3010\u5cb3\u9633\u3011\u6d6a\u6f2b\u7ea6\u4f1a\u9910\u5385\u653b\u7565'}",步行街金爵公寓706号(天虹商场对面),http://i1.s1.dpfile.com/pc/1503bced881d1c4446107d4b31bfeb4c(335c221)/thumb.jpg
"[{'dish': u'http://www.dianping.com/shop/3701878/dish-%E9%B8%AD%E9%AA%A8%E5%A4%B4', 'name': u'\u9e2d\u9aa8\u5934'}, {'dish': u'http://www.dianping.com/shop/3701878/dish-%E9%B8%AD%E7%BF%85', 'name': u'\u9e2d\u7fc5'}, {'dish': u'http://www.dianping.com/shop/3701878/dish-%E9%85%B1%E6%9D%BF%E9%B8%AD', 'name': u'\u9171\u677f\u9e2d'}, {'dish': u'http://www.dianping.com/shop/3701878/dish-%E9%AC%BC%E7%88%AA', 'name': u'\u9b3c\u722a'}, {'dish': u'http://www.dianping.com/shop/3701878/dish-%E9%B8%AD%E8%84%96%E5%AD%90', 'name': u'\u9e2d\u8116\u5b50'}, {'dish': u'http://www.dianping.com/shop/3701878/dish-%E8%BE%A3%E5%B9%B2%E5%AD%90', 'name': u'\u8fa3\u5e72\u5b50'}]",,九哥百味鸭,http://www.dianping.com/shop/3701878,岳阳楼区,"113.111347999762,29.3719749999888",,"{'url': u'http://www.dianping.com/mylist/1572658', 'intro': u'\u641c\u7f57\u672c\u57ce\u5fc5\u5403\u7684\u5c0f\u5403\uff0c\u65e0\u8bba\u662f\u8857\u8fb9\u7684\u8fd8\u662f\u5927\u9152\u5e97\u91cc\u7684\u3002\u72c2\u7231\u5c0f\u5403\u7684\u5403\u8d27\u4eec\u662f\u65e0\u6240\u754f\u60e7\u7684\uff0c\u6bcf...', 'title': u'\u3010\u5cb3\u9633\u3011\u70ed\u95e8\u5c0f\u5403\u70b9\u5fc3\u5927\u641c\u7f57'}",炮台山路,http://i3.s2.dpfile.com/pc/22b2e23673b91809e36e9968927ab500(335c221)/thumb.jpg
,,98台式铁板烧,http://www.dianping.com/shop/8873514,岳阳楼区,"113.129660000257,29.3634500000061",0730-8321337,"{'url': u'http://www.dianping.com/mylist/1573545', 'intro': u'\u4fd7\u8bdd\u8bf4\uff1a\u5173\u952e\u4e0d\u662f\u5403\u4ec0\u4e48\uff0c\u800c\u662f\u548c\u8c01\u53bb\u3002\u591c\u732b\u5b50\u5374\u8bf4\uff1a\u5173\u952e\u4e0d\u662f\u548c\u8c01\u53bb\uff0c\u800c\u662f\u5728\u4ec0\u4e48\u65f6\u95f4\u5403...', 'title': u'\u3010\u5cb3\u9633\u3011\u5bb5\u591c\u70e7\u70e4\u5403\u8d77\u6765'}",天伦城金三角购物公园3楼3008室,http://i1.s2.dpfile.com/pc/d64e310bdbc92cfafed0b0fac2a89dfa(335c221)/thumb.jpg
,,刘杨何私房菜,http://www.dianping.com/shop/22522158,汨罗镇,"0.0,0.0",18274085858,"{'url': u'http://www.dianping.com/mylist/1651373', 'intro': u'\u4e0d\u8f93\u6b63\u724c\u7684\u79c1\u623f\u83dc\u9986\uff0c\u53e3\u5473\u72ec\u7279\uff0c\u79cd\u7c7b\u5404\u5f02\uff0c\u503c\u5f97\u4e00\u5c1d\uff0c\u8d76\u7d27\u6765\u770b\u770b\u5427\uff01', 'title': u'\u3010\u5cb3\u9633\u3011\u672c\u57ce\u6df1\u85cf\u4e0d\u9732\u7684\u79c1\u623f\u83dc\u9986\uff0c\u503c\u5f97\u4e00\u5c1d'}",汨罗城中城郊中学旁,//j3.s2.dpfile.com/s/i/app/shop/img_nopic.v01605900.png
,javascript:;,洞庭湖,http://www.dianping.com/shop/5298005,岳阳楼区,"113.093452453613,29.3818969726562",,"{'url': u'http://www.dianping.com/mylist/1572931', 'intro': u'\u63a8\u8350\u4e00\u4e9b\u4e0d\u9519\u7684\u666f\u70b9\uff0c\u9002\u5408\u5468\u672b\u6e38\u548c\u90ca\u6e38\u3002\u653e\u677e\u5fc3\u60c5\u62e5\u62b1\u5927\u81ea\u7136\u53bb\u5427\uff01', 'title': u'\u3010\u5cb3\u9633\u3011\u672c\u57ce\u5fc5\u73a9\u7684\u666f\u70b9'}",岳阳楼景区,http://i3.s2.dpfile.com/pc/c753479a521953bc287a697cb658191b(335c221)/thumb.jpg
"[{'dish': u'http://www.dianping.com/shop/21710164/dish-%E8%99%8E%E7%9A%AE%E8%9B%8B', 'name': u'\u864e\u76ae\u86cb'}]",javascript:;,秦记重庆小面,http://www.dianping.com/shop/21710164,岳阳楼区,"113.1292272,29.369289",18073002966,"{'url': u'http://www.dianping.com/mylist/2876705', 'intro': u'\u8ddf\u7740\u5c0f\u7f16\u627e\u51fa\u85cf\u5728\u8857\u5934\u5df7\u5c3e\u7684\u7f8e\u5473\u9762\u9986\u5427', 'title': u'\u3010\u5cb3\u9633\u3011\u6316\u51fa\u85cf\u5728\u8857\u5934\u5df7\u5c3e\u7684\u7f8e\u5473\u9762\u9986'}",青年东路王家河桥东路口(岳州中往西200米),http://i3.s1.dpfile.com/pc/4831a7c89922078d50cb0aed05378d6e(335c221)/thumb.jpg
,,梁记粥铺,http://www.dianping.com/shop/19106053,岳阳楼区,"113.11573,29.35182",0730-8857777,"{'url': u'http://www.dianping.com/mylist/2151239', 'intro': u'\u5cb3\u9633\u5c0f\u5403\u904d\u5e03\u5168\u57ce\uff0c\u4e0b\u8fb9\u7b14\u8005\u5e26\u5927\u5bb6\u53bb\u770b\u4e0b\u5cb3\u9633\u7684\u5c0f\u5403\uff0c\u6392\u540d\u4e0d\u5206\u5148\u540e\uff01', 'title': u'\u5cb3\u9633\u5c0f\u5403\u653b\u7565 \u820c\u5c16\u4e0a\u7684\u6c11\u95f4\u5473\u9053'}",求索西路516号,http://i2.s2.dpfile.com/pc/ae1b04efdfad8507abca6b16ce99e0aa(335c221)/thumb.jpg
,javascript:;,有情客串,http://www.dianping.com/shop/24286984,岳阳楼区,"113.09654,29.37447",0730-8919090,"{'url': u'http://www.dianping.com/mylist/2872884', 'intro': u'\u7ea2\u6f06\u7684\u77ee\u65b9\u684c\u3001\u5c0f\u51f3\u5b50\uff0c\u4e00\u9505\u7ea2\u6c64\uff0c\u548c\u4e00\u5927\u628a\u4e00\u5927\u628a\u7684\u7af9\u7b7e\u6784\u6210\u4e86\u4e00\u9053\u7279\u522b\u98ce\u666f\u3002\u6765\u81ea\u6210\u90fd...', 'title': u'\u3010\u5cb3\u9633\u3011\u9c9c\u9999\u9ebb\u8fa3 \u8857\u8fb9\u90a3\u4e00\u7897\u4f20\u5947\u4e32\u4e32\u9999'}",保利西街19栋130号茉莉酒吧后面门,http://i1.s1.dpfile.com/pc/073952c27704b41e10406ff05eb46c77(335c221)/thumb.jpg
,,南湖广场,http://www.dianping.com/shop/13887166,岳阳楼区,"113.1181896,29.34971264",18307301637,"{'url': u'http://www.dianping.com/mylist/1572931', 'intro': u'\u63a8\u8350\u4e00\u4e9b\u4e0d\u9519\u7684\u666f\u70b9\uff0c\u9002\u5408\u5468\u672b\u6e38\u548c\u90ca\u6e38\u3002\u653e\u677e\u5fc3\u60c5\u62e5\u62b1\u5927\u81ea\u7136\u53bb\u5427\uff01', 'title': u'\u3010\u5cb3\u9633\u3011\u672c\u57ce\u5fc5\u73a9\u7684\u666f\u70b9'}",南湖大道岳阳游乐场后华雅酒店向前走1000米,http://i2.s2.dpfile.com/pc/d17b6008577e9516cd5a3f58986441bc(335c221)/thumb.jpg
,javascript:;,胖哥烧烤,http://www.dianping.com/shop/18307487,岳阳楼区,"113.1107712,29.3938843",15873094885,"{'url': u'http://www.dianping.com/mylist/2804225', 'intro': u'\u590f\u5929\u5c31\u662f\u5564\u9152\u53eb\u70e7\u70e4\uff0c\u8fd9\u6837\u5403\uff0c\u624d\u8fc7\u763e', 'title': u'\u5403\u8d27\u8bf7\u8fdb\uff01\u5cb3\u9633\u8d8a\u5403\u8d8a\u8fc7\u763e\u7684\u70e7\u70e4'}",洞庭大桥(洞庭大桥),http://i2.s1.dpfile.com/pc/722d5d0e44dc1264ca4dadf60de6afe9(335c221)/thumb.jpg
,,品味湖景餐吧,http://www.dianping.com/shop/23486149,岳阳楼区,"113.09681,29.34744",0730-8579999,"{'url': u'http://www.dianping.com/mylist/2802607', 'intro': u'\u7ed9\u5927\u5bb6\u63a8\u8350\u8fd9\u4e9b\u7a00\u5947\u53e4\u602a\u7684\u5947\u8469\u9910\u5385\uff0c\u597d\u5403\u53c8\u597d\u73a9\uff0c\u7edd\u5bf9\u9002\u5408\u730e\u5947\u7684\u5403\u8d27\u54df\uff01', 'title': u'\u53eb\u9192\u4f60\u7684\u773c\uff01\u53bb\u5cb3\u9633\u5947\u8469\u7684\u4e3b\u9898\u9910\u5385\u7ea6\u4e2a\u4f1a'}",云梦路南津古渡(咖啡陪你旁),http://i3.s2.dpfile.com/pc/6301640a0ebb58cadfba03c45281241d(335c221)/thumb.jpg
"[{'dish': u'http://www.dianping.com/shop/21074138/dish-%E6%8E%8C%E4%B8%AD%E5%AE%9D', 'name': u'\u638c\u4e2d\u5b9d'}]",,玉林串串香,http://www.dianping.com/shop/21074138,岳阳楼区,"113.12473,29.35631",0730-8977928,"{'url': u'http://www.dianping.com/mylist/2872884', 'intro': u'\u7ea2\u6f06\u7684\u77ee\u65b9\u684c\u3001\u5c0f\u51f3\u5b50\uff0c\u4e00\u9505\u7ea2\u6c64\uff0c\u548c\u4e00\u5927\u628a\u4e00\u5927\u628a\u7684\u7af9\u7b7e\u6784\u6210\u4e86\u4e00\u9053\u7279\u522b\u98ce\u666f\u3002\u6765\u81ea\u6210\u90fd...', 'title': u'\u3010\u5cb3\u9633\u3011\u9c9c\u9999\u9ebb\u8fa3 \u8857\u8fb9\u90a3\u4e00\u7897\u4f20\u5947\u4e32\u4e32\u9999'}",八中巷子 徳郡卡布奇诺大门口2楼(近后咖啡),http://i1.s1.dpfile.com/pc/a999ce77e9d93ae09537de62c4826cdf(335c221)/thumb.jpg
,javascript:;,三哥私房菜,http://www.dianping.com/shop/21032687,岳阳楼区,"113.12616,29.37208",18691262725,"{'url': u'http://www.dianping.com/mylist/2877657', 'intro': u'&ldquo;\u79c1\u623f\u83dc&rdquo;\uff0c\u662f\u65e0\u724c\u7167\u3001\u65e0\u8dd1\u5802\u3001\u65e0\u56fa\u5b9a\u83dc\u5355\uff0c\u60df\u72ec\u53a8\u5e08\u6709\u624b\u827a\u7684\u5c0f\u672c\u9910\u996e&ldq...', 'title': u'\u5bfb\u89c5\u5cb3\u9633\u597d\u5403\u53c8\u7f8e\u5473\u7684\u79c1\u623f\u83dc\u9986'}",巴陵中路403号,http://i2.s1.dpfile.com/pc/6d06f4520681ffc64f39c572acf116ff(335c221)/thumb.jpg
"[{'dish': u'http://www.dianping.com/shop/18351415/dish-%E5%B9%B2%E6%8D%9E%E7%B2%89%E4%B8%9D%E7%85%B2', 'name': u'\u5e72\u635e\u7c89\u4e1d\u7172'}, {'dish': u'http://www.dianping.com/shop/18351415/dish-%E8%8A%99%E8%93%89%E5%A5%BD%E9%A3%9F%E9%B8%A1', 'name': u'\u8299\u84c9\u597d\u98df\u9e21'}, {'dish': u'http://www.dianping.com/shop/18351415/dish-%E7%AB%B9%E7%AD%92%E7%B2%89%E8%92%B8%E8%82%89', 'name': u'\u7af9\u7b52\u7c89\u84b8\u8089'}, {'dish': u'http://www.dianping.com/shop/18351415/dish-%E5%8F%A3%E5%91%B3%E8%9E%BA%E4%B8%9D%E8%82%89%20%E6%89%8B%E6%8A%93', 'name': u'\u53e3\u5473\u87ba\u4e1d\u8089 \u624b\u6293'}, {'dish': u'http://www.dianping.com/shop/18351415/dish-%E7%81%AB%E7%83%A4%E9%B2%9C%E9%B1%BF', 'name': u'\u706b\u70e4\u9c9c\u9c7f'}]",,井水●芙蓉,http://www.dianping.com/shop/18351415,岳阳楼区,"113.121786,29.351642",0730-8856888,"{'url': u'http://www.dianping.com/mylist/2203330', 'intro': u'\u5728\u5cb3\u9633\uff0c\u5404\u5f0f\u5404\u6837\u7684\u9910\u5385\u591a\u5982\u725b\u6bdb\uff0c\u90a3\u4e48\u54ea\u4e9b\u9910\u5385\u4eba\u6c14\u6700\u65fa\uff1f\u53bb\u8fd9\u4e9b\u9910\u5385\u5fc5\u70b9\u7684\u62db\u724c\u83dc\u53c8\u662f...', 'title': u'\u98df\u795e\u6765\u4e86 \u6bcf\u5468\u5cb3\u9633\u4eba\u6c14\u62db\u724c\u83dc'}",求索东路13号(南湖广场交警支队西头100米处),http://i2.s2.dpfile.com/pc/d34e829c16af2fd4a0b24b894220903a(335c221)/thumb.jpg
,,宴遇,http://www.dianping.com/shop/18817038,岳阳楼区,"113.11304,29.37073",0730-8376677,"{'url': u'http://www.dianping.com/mylist/2203330', 'intro': u'\u5728\u5cb3\u9633\uff0c\u5404\u5f0f\u5404\u6837\u7684\u9910\u5385\u591a\u5982\u725b\u6bdb\uff0c\u90a3\u4e48\u54ea\u4e9b\u9910\u5385\u4eba\u6c14\u6700\u65fa\uff1f\u53bb\u8fd9\u4e9b\u9910\u5385\u5fc5\u70b9\u7684\u62db\u724c\u83dc\u53c8\u662f...', 'title': u'\u98df\u795e\u6765\u4e86 \u6bcf\u5468\u5cb3\u9633\u4eba\u6c14\u62db\u724c\u83dc'}",东茅岭路弘明创意园区长城宾馆对面(长城宾馆对面),http://i2.s1.dpfile.com/pc/d6b89035d7233316b9c1c178d982c7c5(335c221)/thumb.jpg
"[{'dish': u'http://www.dianping.com/shop/18074777/dish-%E6%AD%A3%E6%96%B0%E9%B8%A1%E6%8E%92', 'name': u'\u6b63\u65b0\u9e21\u6392'}, {'dish': u'http://www.dianping.com/shop/18074777/dish-%E6%AD%A3%E6%96%B0%E9%B8%A1%E6%8E%92', 'name': u'\u6b63\u65b0\u9e21\u6392'}, {'dish': u'http://www.dianping.com/shop/18074777/dish-%E6%AD%A3%E6%96%B0%E7%83%A4%E8%82%89', 'name': u'\u6b63\u65b0\u70e4\u8089'}, {'dish': u'http://www.dianping.com/shop/18074777/dish-%E6%AD%A3%E6%96%B0%E9%B1%BF%E9%B1%BC', 'name': u'\u6b63\u65b0\u9c7f\u9c7c'}]",,正新食品店,http://www.dianping.com/shop/18074777,汨罗市其他,"113.07146,28.80693",,"{'url': u'http://www.dianping.com/mylist/2752978', 'intro': u'\u751f\u6d3b\u5728\u5cb3\u9633\uff0c\u4ec0\u4e48\u90fd\u8d35\u6709\u6728\u6709?\u4e0d\u8fc7\uff0c\u5cb3\u9633\u8857\u5934\u4e5f\u6709\u5c11\u7269\u7f8e\u4ef7\u5ec9\u7684\u7f8e\u5473\uff0c\u50cf\u662f\u8471\u5305\u70e9\u3001\u5b9a\u80dc...', 'title': u'\u5728\u5cb3\u9633\uff0c10\u5143\u4ee5\u5185\u7167\u6837\u82b1\u6837\u7f8e\u98df\u5403\u5230\u55e8\uff01'}",高泉中路和建设中路路口,http://i3.s1.dpfile.com/pc/f4ffa13e7b13d75c3de05a6a5b45fda4(335c221)/thumb.jpg
,,山东五谷杂粮煎饼,http://www.dianping.com/shop/21069604,城关镇,"112.565669,29.523199",18390038252,"{'url': u'http://www.dianping.com/mylist/2752978', 'intro': u'\u751f\u6d3b\u5728\u5cb3\u9633\uff0c\u4ec0\u4e48\u90fd\u8d35\u6709\u6728\u6709?\u4e0d\u8fc7\uff0c\u5cb3\u9633\u8857\u5934\u4e5f\u6709\u5c11\u7269\u7f8e\u4ef7\u5ec9\u7684\u7f8e\u5473\uff0c\u50cf\u662f\u8471\u5305\u70e9\u3001\u5b9a\u80dc...', 'title': u'\u5728\u5cb3\u9633\uff0c10\u5143\u4ee5\u5185\u7167\u6837\u82b1\u6837\u7f8e\u98df\u5403\u5230\u55e8\uff01'}",海燕市场小吃街(近麻辣煮题),//j3.s2.dpfile.com/s/i/app/shop/img_nopic.v01605900.png
"[{'dish': u'http://www.dianping.com/shop/10329830/dish-%E7%BB%BF%E8%B1%86%E6%B2%99', 'name': u'\u7eff\u8c46\u6c99'}, {'dish': u'http://www.dianping.com/shop/10329830/dish-%E8%99%BE%E5%B0%BE', 'name': u'\u867e\u5c3e'}, {'dish': u'http://www.dianping.com/shop/10329830/dish-%E8%8A%B1%E7%94%B2', 'name': u'\u82b1\u7532'}, {'dish': u'http://www.dianping.com/shop/10329830/dish-%E5%A4%AA%E6%9E%81%E5%9B%BE', 'name': u'\u592a\u6781\u56fe'}, {'dish': u'http://www.dianping.com/shop/10329830/dish-%E7%B1%B3%E8%B1%86%E8%85%90', 'name': u'\u7c73\u8c46\u8150'}, {'dish': u'http://www.dianping.com/shop/10329830/dish-%E7%BB%BF%E8%B1%86%E6%B2%99', 'name': u'\u7eff\u8c46\u6c99'}, {'dish': u'http://www.dianping.com/shop/10329830/dish-%E5%A4%AA%E6%9E%81%E5%9B%BE', 'name': u'\u592a\u6781\u56fe'}, {'dish': u'http://www.dianping.com/shop/10329830/dish-%E8%99%BE%E5%B0%BE', 'name': u'\u867e\u5c3e'}, {'dish': u'http://www.dianping.com/shop/10329830/dish-%E8%99%BE%E5%B0%BE', 'name': u'\u867e\u5c3e'}, {'dish': u'http://www.dianping.com/shop/10329830/dish-%E7%BB%BF%E8%B1%86%E6%B2%99', 'name': u'\u7eff\u8c46\u6c99'}, {'dish': u'http://www.dianping.com/shop/10329830/dish-%E8%99%BE%E5%B0%BE', 'name': u'\u867e\u5c3e'}, {'dish': u'http://www.dianping.com/shop/10329830/dish-%E8%8A%B1%E7%94%B2', 'name': u'\u82b1\u7532'}, {'dish': u'http://www.dianping.com/shop/10329830/dish-%E7%89%9B%E7%AD%8B', 'name': u'\u725b\u7b4b'}, {'dish': u'http://www.dianping.com/shop/10329830/dish-%E8%99%BE%E5%B0%BE', 'name': u'\u867e\u5c3e'}, {'dish': u'http://www.dianping.com/shop/10329830/dish-%E8%8A%B1%E7%94%B2', 'name': u'\u82b1\u7532'}]",,天保虾尾129号,http://www.dianping.com/shop/10329830,岳阳楼区,"113.09433469963,29.3693356000051",0730-8315708,"{'url': u'http://www.dianping.com/mylist/2203330', 'intro': u'\u5728\u5cb3\u9633\uff0c\u5404\u5f0f\u5404\u6837\u7684\u9910\u5385\u591a\u5982\u725b\u6bdb\uff0c\u90a3\u4e48\u54ea\u4e9b\u9910\u5385\u4eba\u6c14\u6700\u65fa\uff1f\u53bb\u8fd9\u4e9b\u9910\u5385\u5fc5\u70b9\u7684\u62db\u724c\u83dc\u53c8\u662f...', 'title': u'\u98df\u795e\u6765\u4e86 \u6bcf\u5468\u5cb3\u9633\u4eba\u6c14\u62db\u724c\u83dc'}",乾明寺(近岳阳市三中),http://i3.s2.dpfile.com/pc/2a155b06cfc24e99bb9dd7e28c4856d6(335c221)/thumb.jpg
"[{'dish': u'http://www.dianping.com/shop/18295524/dish-%E7%8E%89%E7%B1%B3%E7%8C%AA%E8%82%89%E9%A6%85%E9%A5%BA', 'name': u'\u7389\u7c73\u732a\u8089\u9985\u997a'}, {'dish': u'http://www.dianping.com/shop/18295524/dish-%E9%A6%99%E7%85%8E%E5%B0%8F%E9%BB%84%E9%B1%BC', 'name': u'\u9999\u714e\u5c0f\u9ec4\u9c7c'}, {'dish': u'http://www.dianping.com/shop/18295524/dish-%E4%B8%89%E4%B8%9D%E7%88%86%E8%B1%86', 'name': u'\u4e09\u4e1d\u7206\u8c46'}, {'dish': u'http://www.dianping.com/shop/18295524/dish-%E6%8B%94%E4%B8%9D%E5%9C%B0%E7%93%9C', 'name': u'\u62d4\u4e1d\u5730\u74dc'}, {'dish': u'http://www.dianping.com/shop/18295524/dish-%E8%8F%8A%E8%8A%B1%E9%B1%BC', 'name': u'\u83ca\u82b1\u9c7c'}]",,东北地饺子馆,http://www.dianping.com/shop/18295524,岳阳楼区,"113.1127732,29.37370848",0730-3297777,"{'url': u'http://www.dianping.com/mylist/2752978', 'intro': u'\u751f\u6d3b\u5728\u5cb3\u9633\uff0c\u4ec0\u4e48\u90fd\u8d35\u6709\u6728\u6709?\u4e0d\u8fc7\uff0c\u5cb3\u9633\u8857\u5934\u4e5f\u6709\u5c11\u7269\u7f8e\u4ef7\u5ec9\u7684\u7f8e\u5473\uff0c\u50cf\u662f\u8471\u5305\u70e9\u3001\u5b9a\u80dc...', 'title': u'\u5728\u5cb3\u9633\uff0c10\u5143\u4ee5\u5185\u7167\u6837\u82b1\u6837\u7f8e\u98df\u5403\u5230\u55e8\uff01'}",巴陵中路军分区对面巴陵尚都2楼,http://i2.s2.dpfile.com/pc/3e951a4184964a111fda06d4d384581e(335c221)/thumb.jpg
,javascript:;,多喜来,http://www.dianping.com/shop/6127722,岳阳楼区,"113.1486801,29.33959978",0730-8649388,"{'url': u'http://www.dianping.com/mylist/2752978', 'intro': u'\u751f\u6d3b\u5728\u5cb3\u9633\uff0c\u4ec0\u4e48\u90fd\u8d35\u6709\u6728\u6709?\u4e0d\u8fc7\uff0c\u5cb3\u9633\u8857\u5934\u4e5f\u6709\u5c11\u7269\u7f8e\u4ef7\u5ec9\u7684\u7f8e\u5473\uff0c\u50cf\u662f\u8471\u5305\u70e9\u3001\u5b9a\u80dc...', 'title': u'\u5728\u5cb3\u9633\uff0c10\u5143\u4ee5\u5185\u7167\u6837\u82b1\u6837\u7f8e\u98df\u5403\u5230\u55e8\uff01'}",奇家岭街34号(奇家岭农贸街，理工大学东院前200米),http://i1.s2.dpfile.com/pc/43ca40b4965340d9affe3decae2cf9f8(335c221)/thumb.jpg
,,小天使西饼屋,http://www.dianping.com/shop/2839540,岳阳楼区,"113.117888999763,29.368686",0730-8248155,"{'url': u'http://www.dianping.com/mylist/2752978', 'intro': u'\u751f\u6d3b\u5728\u5cb3\u9633\uff0c\u4ec0\u4e48\u90fd\u8d35\u6709\u6728\u6709?\u4e0d\u8fc7\uff0c\u5cb3\u9633\u8857\u5934\u4e5f\u6709\u5c11\u7269\u7f8e\u4ef7\u5ec9\u7684\u7f8e\u5473\uff0c\u50cf\u662f\u8471\u5305\u70e9\u3001\u5b9a\u80dc...', 'title': u'\u5728\u5cb3\u9633\uff0c10\u5143\u4ee5\u5185\u7167\u6837\u82b1\u6837\u7f8e\u98df\u5403\u5230\u55e8\uff01'}",国际大厦11-12号(土桥对面),http://i3.s1.dpfile.com/pc/b7f7aa11caeb1d1abe8667fbbb6d865f(335c221)/thumb.jpg
"[{'dish': u'http://www.dianping.com/shop/2185777/dish-%E7%A7%98%E5%88%B6%E8%87%AD%E8%B1%86%E8%85%90', 'name': u'\u79d8\u5236\u81ed\u8c46\u8150'}]",,地婆卤味,http://www.dianping.com/shop/2185777,岳阳楼区,"113.1009204,29.37266297",0730-8855798,"{'url': u'http://www.dianping.com/mylist/2203330', 'intro': u'\u5728\u5cb3\u9633\uff0c\u5404\u5f0f\u5404\u6837\u7684\u9910\u5385\u591a\u5982\u725b\u6bdb\uff0c\u90a3\u4e48\u54ea\u4e9b\u9910\u5385\u4eba\u6c14\u6700\u65fa\uff1f\u53bb\u8fd9\u4e9b\u9910\u5385\u5fc5\u70b9\u7684\u62db\u724c\u83dc\u53c8\u662f...', 'title': u'\u98df\u795e\u6765\u4e86 \u6bcf\u5468\u5cb3\u9633\u4eba\u6c14\u62db\u724c\u83dc'}",巴陵大桥下坡处,http://i1.s1.dpfile.com/pc/c4cac665a96962075485b3534b7033d9(335c221)/thumb.jpg
"[{'dish': u'http://www.dianping.com/shop/7951665/dish-%E5%8E%9F%E5%91%B3%E5%A5%B6%E8%8C%B6', 'name': u'\u539f\u5473\u5976\u8336'}]",,七杯茶,http://www.dianping.com/shop/7951665,汨罗市其他,"113.070972,28.802792",13407308017,"{'url': u'http://www.dianping.com/mylist/2752978', 'intro': u'\u751f\u6d3b\u5728\u5cb3\u9633\uff0c\u4ec0\u4e48\u90fd\u8d35\u6709\u6728\u6709?\u4e0d\u8fc7\uff0c\u5cb3\u9633\u8857\u5934\u4e5f\u6709\u5c11\u7269\u7f8e\u4ef7\u5ec9\u7684\u7f8e\u5473\uff0c\u50cf\u662f\u8471\u5305\u70e9\u3001\u5b9a\u80dc...', 'title': u'\u5728\u5cb3\u9633\uff0c10\u5143\u4ee5\u5185\u7167\u6837\u82b1\u6837\u7f8e\u98df\u5403\u5230\u55e8\uff01'}",屈原南路118号(市一中对面),http://i1.s2.dpfile.com/pc/af9a4da078bf7375177e13ced66ceca1(335c221)/thumb.jpg
,,留名卤粉店,http://www.dianping.com/shop/9716833,岳阳楼区,"113.124321999782,29.3540650000105",0730-8851931,"{'url': u'http://www.dianping.com/mylist/2795189', 'intro': u'\u708e\u708e\u590f\u65e5\uff0c\u6765\u4e00\u7897\u5364\u7c89\u7684\u65e9\u6668\u4f1a\u66f4\u52a0\u6709\u80fd\u91cf\u5662~\u6dcb\u4e0a\u9999\u918b\u6216\u662f\u8fa3\u6912\u6cb9\u7b49\u8c03\u5473\u540e\uff0c\u53e3\u611f\u66f4\u4e30\u5bcc...', 'title': u'\u3010\u5cb3\u9633\u3011\u8fd9\u4e2a\u590f\u5929\u4e0d\u80fd\u653e\u8fc7\u7684\u4eba\u6c14\u5364\u7c89\u5e97'}",白杨坡路449号,http://i1.s2.dpfile.com/pc/e7c3e05b60cba0492dd8f3b66622c976(335c221)/thumb.jpg
,,好美味卤粉,http://www.dianping.com/shop/9751254,岳阳楼区,"113.128490000342,29.3736690000051",,"{'url': u'http://www.dianping.com/mylist/2795189', 'intro': u'\u708e\u708e\u590f\u65e5\uff0c\u6765\u4e00\u7897\u5364\u7c89\u7684\u65e9\u6668\u4f1a\u66f4\u52a0\u6709\u80fd\u91cf\u5662~\u6dcb\u4e0a\u9999\u918b\u6216\u662f\u8fa3\u6912\u6cb9\u7b49\u8c03\u5473\u540e\uff0c\u53e3\u611f\u66f4\u4e30\u5bcc...', 'title': u'\u3010\u5cb3\u9633\u3011\u8fd9\u4e2a\u590f\u5929\u4e0d\u80fd\u653e\u8fc7\u7684\u4eba\u6c14\u5364\u7c89\u5e97'}",玉池街30号,http://i3.s1.dpfile.com/pc/836519337b2c8ef7c3bfcf18beb064f9(335c221)/thumb.jpg
"[{'dish': u'http://www.dianping.com/shop/4686616/dish-%E6%96%B0%E6%B4%BE%E8%99%BE%E5%B0%BE', 'name': u'\u65b0\u6d3e\u867e\u5c3e'}, {'dish': u'http://www.dianping.com/shop/4686616/dish-%E4%B8%89%E8%89%B2%E5%9B%9E%E5%A4%B4%E9%B1%BC', 'name': u'\u4e09\u8272\u56de\u5934\u9c7c'}, {'dish': u'http://www.dianping.com/shop/4686616/dish-%E6%B4%9E%E5%BA%AD%E5%B0%8F%E9%BE%99%E8%99%BE', 'name': u'\u6d1e\u5ead\u5c0f\u9f99\u867e'}, {'dish': u'http://www.dianping.com/shop/4686616/dish-%E4%B8%89%E8%89%B2%E5%9B%9E%E5%A4%B4%E9%B1%BC', 'name': u'\u4e09\u8272\u56de\u5934\u9c7c'}, {'dish': u'http://www.dianping.com/shop/4686616/dish-%E4%BA%95%E6%B0%B4%E8%B1%86%E8%85%90', 'name': u'\u4e95\u6c34\u8c46\u8150'}, {'dish': u'http://www.dianping.com/shop/4686616/dish-%E4%B8%89%E8%89%B2%E5%9B%9E%E5%A4%B4%E9%B1%BC', 'name': u'\u4e09\u8272\u56de\u5934\u9c7c'}, {'dish': u'http://www.dianping.com/shop/4686616/dish-%E4%BA%95%E6%B0%B4%E8%B1%86%E8%85%90', 'name': u'\u4e95\u6c34\u8c46\u8150'}, {'dish': u'http://www.dianping.com/shop/4686616/dish-%E7%84%96%E9%94%85%E6%A1%91%E6%8B%BF%E8%99%BE', 'name': u'\u7116\u9505\u6851\u62ff\u867e'}, {'dish': u'http://www.dianping.com/shop/4686616/dish-%E5%B0%8F%E7%82%92%E9%BB%84%E7%89%9B%E8%82%89', 'name': u'\u5c0f\u7092\u9ec4\u725b\u8089'}, {'dish': u'http://www.dianping.com/shop/4686616/dish-%E4%B8%89%E8%89%B2%E5%9B%9E%E5%A4%B4%E9%B1%BC', 'name': u'\u4e09\u8272\u56de\u5934\u9c7c'}]",,井水·巴陵湖鲜楼,http://www.dianping.com/shop/4686616,岳阳楼区,"113.0951896,29.37476946",0730-8819999,"{'url': u'http://www.dianping.com/mylist/2203330', 'intro': u'\u5728\u5cb3\u9633\uff0c\u5404\u5f0f\u5404\u6837\u7684\u9910\u5385\u591a\u5982\u725b\u6bdb\uff0c\u90a3\u4e48\u54ea\u4e9b\u9910\u5385\u4eba\u6c14\u6700\u65fa\uff1f\u53bb\u8fd9\u4e9b\u9910\u5385\u5fc5\u70b9\u7684\u62db\u724c\u83dc\u53c8\u662f...', 'title': u'\u98df\u795e\u6765\u4e86 \u6bcf\u5468\u5cb3\u9633\u4eba\u6c14\u62db\u724c\u83dc'}",巴陵西路(岳阳楼对面),http://i3.s1.dpfile.com/pc/d0cc7c4fffa648118961b8499e9bf724(335c221)/thumb.jpg
,,卤粉大王,http://www.dianping.com/shop/9770207,岳阳楼区,"113.128492000342,29.3732350000051",0730-8281958,"{'url': u'http://www.dianping.com/mylist/2795189', 'intro': u'\u708e\u708e\u590f\u65e5\uff0c\u6765\u4e00\u7897\u5364\u7c89\u7684\u65e9\u6668\u4f1a\u66f4\u52a0\u6709\u80fd\u91cf\u5662~\u6dcb\u4e0a\u9999\u918b\u6216\u662f\u8fa3\u6912\u6cb9\u7b49\u8c03\u5473\u540e\uff0c\u53e3\u611f\u66f4\u4e30\u5bcc...', 'title': u'\u3010\u5cb3\u9633\u3011\u8fd9\u4e2a\u590f\u5929\u4e0d\u80fd\u653e\u8fc7\u7684\u4eba\u6c14\u5364\u7c89\u5e97'}",站前路(图书城),http://i2.s2.dpfile.com/pc/c70baf3ef3e631257bdbaec77ff5eb5f(335c221)/thumb.jpg
,javascript:;,卤粉,http://www.dianping.com/shop/23607941,岳阳楼区,"113.10143,29.3644",,"{'url': u'http://www.dianping.com/mylist/2795189', 'intro': u'\u708e\u708e\u590f\u65e5\uff0c\u6765\u4e00\u7897\u5364\u7c89\u7684\u65e9\u6668\u4f1a\u66f4\u52a0\u6709\u80fd\u91cf\u5662~\u6dcb\u4e0a\u9999\u918b\u6216\u662f\u8fa3\u6912\u6cb9\u7b49\u8c03\u5473\u540e\uff0c\u53e3\u611f\u66f4\u4e30\u5bcc...', 'title': u'\u3010\u5cb3\u9633\u3011\u8fd9\u4e2a\u590f\u5929\u4e0d\u80fd\u653e\u8fc7\u7684\u4eba\u6c14\u5364\u7c89\u5e97'}",云梦路,http://i3.s2.dpfile.com/pc/8519bf95fc1a99bf167c79cc95d6cdd5(335c221)/thumb.jpg
,,曾记桂林卤粉,http://www.dianping.com/shop/9729193,岳阳楼区,"113.123959000342,29.3675810000051",,"{'url': u'http://www.dianping.com/mylist/2795189', 'intro': u'\u708e\u708e\u590f\u65e5\uff0c\u6765\u4e00\u7897\u5364\u7c89\u7684\u65e9\u6668\u4f1a\u66f4\u52a0\u6709\u80fd\u91cf\u5662~\u6dcb\u4e0a\u9999\u918b\u6216\u662f\u8fa3\u6912\u6cb9\u7b49\u8c03\u5473\u540e\uff0c\u53e3\u611f\u66f4\u4e30\u5bcc...', 'title': u'\u3010\u5cb3\u9633\u3011\u8fd9\u4e2a\u590f\u5929\u4e0d\u80fd\u653e\u8fc7\u7684\u4eba\u6c14\u5364\u7c89\u5e97'}",花板桥路10号,http://i2.s1.dpfile.com/pc/251c0bec6a54602468925b737e6abba5(335c221)/thumb.jpg
,javascript:;,桂林卤粉,http://www.dianping.com/shop/21658484,岳阳楼区,"113.10422,29.36955",18075723001,"{'url': u'http://www.dianping.com/mylist/2795189', 'intro': u'\u708e\u708e\u590f\u65e5\uff0c\u6765\u4e00\u7897\u5364\u7c89\u7684\u65e9\u6668\u4f1a\u66f4\u52a0\u6709\u80fd\u91cf\u5662~\u6dcb\u4e0a\u9999\u918b\u6216\u662f\u8fa3\u6912\u6cb9\u7b49\u8c03\u5473\u540e\uff0c\u53e3\u611f\u66f4\u4e30\u5bcc...', 'title': u'\u3010\u5cb3\u9633\u3011\u8fd9\u4e2a\u590f\u5929\u4e0d\u80fd\u653e\u8fc7\u7684\u4eba\u6c14\u5364\u7c89\u5e97'}",步行街台君临新世界楼下台湾美食城内,http://i2.s1.dpfile.com/pc/2b71a0c1224c1f5a1240aff9a475b79a(335c221)/thumb.jpg
,,牛肉桂林卤粉店,http://www.dianping.com/shop/20731349,岳阳楼区,"113.0996,29.37443",,"{'url': u'http://www.dianping.com/mylist/2795189', 'intro': u'\u708e\u708e\u590f\u65e5\uff0c\u6765\u4e00\u7897\u5364\u7c89\u7684\u65e9\u6668\u4f1a\u66f4\u52a0\u6709\u80fd\u91cf\u5662~\u6dcb\u4e0a\u9999\u918b\u6216\u662f\u8fa3\u6912\u6cb9\u7b49\u8c03\u5473\u540e\uff0c\u53e3\u611f\u66f4\u4e30\u5bcc...', 'title': u'\u3010\u5cb3\u9633\u3011\u8fd9\u4e2a\u590f\u5929\u4e0d\u80fd\u653e\u8fc7\u7684\u4eba\u6c14\u5364\u7c89\u5e97'}",桥西菜园坡路13号,http://i3.s2.dpfile.com/pc/73b1a105ba2641c2f91eedd5a4ea2168(335c221)/thumb.jpg
"[{'dish': u'http://www.dianping.com/shop/9767032/dish-%E5%8D%A4%E7%B2%89', 'name': u'\u5364\u7c89'}, {'dish': u'http://www.dianping.com/shop/9767032/dish-%E5%8D%A4%E7%B2%89', 'name': u'\u5364\u7c89'}]",,不见不散桂林卤粉,http://www.dianping.com/shop/9767032,岳阳县其他,"113.114011999539,29.1429069999701",,"{'url': u'http://www.dianping.com/mylist/2795189', 'intro': u'\u708e\u708e\u590f\u65e5\uff0c\u6765\u4e00\u7897\u5364\u7c89\u7684\u65e9\u6668\u4f1a\u66f4\u52a0\u6709\u80fd\u91cf\u5662~\u6dcb\u4e0a\u9999\u918b\u6216\u662f\u8fa3\u6912\u6cb9\u7b49\u8c03\u5473\u540e\uff0c\u53e3\u611f\u66f4\u4e30\u5bcc...', 'title': u'\u3010\u5cb3\u9633\u3011\u8fd9\u4e2a\u590f\u5929\u4e0d\u80fd\u653e\u8fc7\u7684\u4eba\u6c14\u5364\u7c89\u5e97'}",东方路66,http://i1.s1.dpfile.com/pc/f87fce5c5bb6be7231fafb24b186ca00(335c221)/thumb.jpg
,,甲天下卤粉,http://www.dianping.com/shop/9726578,鹿角镇,"113.112088999539,29.1422219999701",0730-7623745,"{'url': u'http://www.dianping.com/mylist/2795189', 'intro': u'\u708e\u708e\u590f\u65e5\uff0c\u6765\u4e00\u7897\u5364\u7c89\u7684\u65e9\u6668\u4f1a\u66f4\u52a0\u6709\u80fd\u91cf\u5662~\u6dcb\u4e0a\u9999\u918b\u6216\u662f\u8fa3\u6912\u6cb9\u7b49\u8c03\u5473\u540e\uff0c\u53e3\u611f\u66f4\u4e30\u5bcc...', 'title': u'\u3010\u5cb3\u9633\u3011\u8fd9\u4e2a\u590f\u5929\u4e0d\u80fd\u653e\u8fc7\u7684\u4eba\u6c14\u5364\u7c89\u5e97'}",东方路72号,http://i1.s2.dpfile.com/pc/50c73f4e8af72bf55075eeb9bca05b9e(335c221)/thumb.jpg
"[{'dish': u'http://www.dianping.com/shop/24499195/dish-%E9%93%81%E6%9D%BF%E9%B1%BF%E9%B1%BC%E9%A1%BB', 'name': u'\u94c1\u677f\u9c7f\u9c7c\u987b'}, {'dish': u'http://www.dianping.com/shop/24499195/dish-%E8%97%95%E4%B8%81', 'name': u'\u85d5\u4e01'}, {'dish': u'http://www.dianping.com/shop/24499195/dish-%E9%9D%92%E6%A4%92%E7%A2%8E%E9%B1%BC%E5%A4%B4', 'name': u'\u9752\u6912\u788e\u9c7c\u5934'}, {'dish': u'http://www.dianping.com/shop/24499195/dish-%E9%93%81%E6%9D%BF%E9%B1%BF%E9%B1%BC%E9%A0%88', 'name': u'\u94c1\u677f\u9c7f\u9c7c\u9808'}, {'dish': u'http://www.dianping.com/shop/24499195/dish-%E5%A7%9C%E8%BE%A3%E5%87%A4%E7%88%AA', 'name': u'\u59dc\u8fa3\u51e4\u722a'}, {'dish': u'http://www.dianping.com/shop/24499195/dish-%E9%9D%92%E6%A4%92%E7%A2%8E%E5%A4%B4%E9%B1%BC', 'name': u'\u9752\u6912\u788e\u5934\u9c7c'}, {'dish': u'http://www.dianping.com/shop/24499195/dish-%E5%8F%A3%E5%91%B3%E8%99%BE%E5%B0%BE', 'name': u'\u53e3\u5473\u867e\u5c3e'}]",javascript:;,元记私房菜,http://www.dianping.com/shop/24499195,岳阳楼区,"113.10899,29.374673",18390009529,"{'url': u'http://www.dianping.com/mylist/2877657', 'intro': u'&ldquo;\u79c1\u623f\u83dc&rdquo;\uff0c\u662f\u65e0\u724c\u7167\u3001\u65e0\u8dd1\u5802\u3001\u65e0\u56fa\u5b9a\u83dc\u5355\uff0c\u60df\u72ec\u53a8\u5e08\u6709\u624b\u827a\u7684\u5c0f\u672c\u9910\u996e&ldq...', 'title': u'\u5bfb\u89c5\u5cb3\u9633\u597d\u5403\u53c8\u7f8e\u5473\u7684\u79c1\u623f\u83dc\u9986'}",北辅道花生茂对面(花生茂),http://i2.s1.dpfile.com/pc/73308c01617c2355671d3a80c2bdfb09(335c221)/thumb.jpg
"[{'dish': u'http://www.dianping.com/shop/5328753/dish-%E5%8D%A4%E6%B0%B4%E6%8B%BC%E7%9B%98', 'name': u'\u5364\u6c34\u62fc\u76d8'}, {'dish': u'http://www.dianping.com/shop/5328753/dish-%E5%A7%9C%E8%BE%A3%E8%9B%87', 'name': u'\u59dc\u8fa3\u86c7'}, {'dish': u'http://www.dianping.com/shop/5328753/dish-%E5%A7%9C%E8%BE%A3%E8%9B%87', 'name': u'\u59dc\u8fa3\u86c7'}, {'dish': u'http://www.dianping.com/shop/5328753/dish-%E5%A7%9C%E8%BE%A3%E5%87%A4%E7%88%AA', 'name': u'\u59dc\u8fa3\u51e4\u722a'}, {'dish': u'http://www.dianping.com/shop/5328753/dish-%E5%A7%9C%E8%BE%A3%E8%9B%87', 'name': u'\u59dc\u8fa3\u86c7'}, {'dish': u'http://www.dianping.com/shop/5328753/dish-%E6%B8%85%E7%82%92%E5%B1%B1%E8%8D%AF', 'name': u'\u6e05\u7092\u5c71\u836f'}, {'dish': u'http://www.dianping.com/shop/5328753/dish-%E6%B8%85%E7%82%92%E8%97%95%E5%B0%96', 'name': u'\u6e05\u7092\u85d5\u5c16'}]",javascript:;,小家庭菜馆,http://www.dianping.com/shop/5328753,岳阳楼区,"113.149500000037,29.3571299999881",0730-8617177,"{'url': u'http://www.dianping.com/mylist/2877657', 'intro': u'&ldquo;\u79c1\u623f\u83dc&rdquo;\uff0c\u662f\u65e0\u724c\u7167\u3001\u65e0\u8dd1\u5802\u3001\u65e0\u56fa\u5b9a\u83dc\u5355\uff0c\u60df\u72ec\u53a8\u5e08\u6709\u624b\u827a\u7684\u5c0f\u672c\u9910\u996e&ldq...', 'title': u'\u5bfb\u89c5\u5cb3\u9633\u597d\u5403\u53c8\u7f8e\u5473\u7684\u79c1\u623f\u83dc\u9986'}",岳阳大道金鹗路191号(华瑞丹枫假日酒店对面),http://i3.s2.dpfile.com/pc/9b5e1264c216856b24de6f029388fcc0(335c221)/thumb.jpg
"[{'dish': u'http://www.dianping.com/shop/23903338/dish-%E9%A6%99%E8%BE%A3%E9%B1%BC%E7%89%87', 'name': u'\u9999\u8fa3\u9c7c\u7247'}, {'dish': u'http://www.dianping.com/shop/23903338/dish-%E7%A0%82%E9%92%B5%E7%8C%AA%E8%84%9A', 'name': u'\u7802\u94b5\u732a\u811a'}, {'dish': u'http://www.dianping.com/shop/23903338/dish-%E9%94%85%E5%B7%B4%E7%9B%96%E8%82%89', 'name': u'\u9505\u5df4\u76d6\u8089'}, {'dish': u'http://www.dianping.com/shop/23903338/dish-%E9%A6%99%E8%BE%A3%E9%B1%BC%E7%89%87', 'name': u'\u9999\u8fa3\u9c7c\u7247'}, {'dish': u'http://www.dianping.com/shop/23903338/dish-%E7%A0%82%E9%92%B5%E7%8C%AA%E8%84%9A', 'name': u'\u7802\u94b5\u732a\u811a'}, {'dish': u'http://www.dianping.com/shop/23903338/dish-%E9%94%85%E5%B7%B4%E7%9B%96%E8%82%89', 'name': u'\u9505\u5df4\u76d6\u8089'}, {'dish': u'http://www.dianping.com/shop/23903338/dish-%E9%A6%99%E8%BE%A3%E9%B1%BC%E7%89%87', 'name': u'\u9999\u8fa3\u9c7c\u7247'}, {'dish': u'http://www.dianping.com/shop/23903338/dish-%E7%A0%82%E9%92%B5%E7%8C%AA%E8%84%9A', 'name': u'\u7802\u94b5\u732a\u811a'}, {'dish': u'http://www.dianping.com/shop/23903338/dish-%E9%94%85%E5%B7%B4%E7%9B%96%E8%82%89', 'name': u'\u9505\u5df4\u76d6\u8089'}]",javascript:;,有滋有味私房菜,http://www.dianping.com/shop/23903338,岳阳楼区,"0.0,0.0",,"{'url': u'http://www.dianping.com/mylist/2877657', 'intro': u'&ldquo;\u79c1\u623f\u83dc&rdquo;\uff0c\u662f\u65e0\u724c\u7167\u3001\u65e0\u8dd1\u5802\u3001\u65e0\u56fa\u5b9a\u83dc\u5355\uff0c\u60df\u72ec\u53a8\u5e08\u6709\u624b\u827a\u7684\u5c0f\u672c\u9910\u996e&ldq...', 'title': u'\u5bfb\u89c5\u5cb3\u9633\u597d\u5403\u53c8\u7f8e\u5473\u7684\u79c1\u623f\u83dc\u9986'}",五里牌,http://i3.s2.dpfile.com/pc/95cd559e6efaa8b4150b6e04344d82da(335c221)/thumb.jpg
"[{'dish': u'http://www.dianping.com/shop/9757449/dish-%E7%BE%8A%E8%82%89%E7%81%AB%E9%94%85', 'name': u'\u7f8a\u8089\u706b\u9505'}, {'dish': u'http://www.dianping.com/shop/9757449/dish-%E6%B1%A4%E7%B2%89', 'name': u'\u6c64\u7c89'}, {'dish': u'http://www.dianping.com/shop/9757449/dish-%E7%89%9B%E7%AD%8B', 'name': u'\u725b\u7b4b'}, {'dish': u'http://www.dianping.com/shop/9757449/dish-%E7%83%A4%E9%B8%A1%E7%88%AA', 'name': u'\u70e4\u9e21\u722a'}, {'dish': u'http://www.dianping.com/shop/9757449/dish-%E7%83%A4%E7%BE%8A%E6%8E%92', 'name': u'\u70e4\u7f8a\u6392'}, {'dish': u'http://www.dianping.com/shop/9757449/dish-%E7%83%A4%E9%B8%A1%E7%88%AA', 'name': u'\u70e4\u9e21\u722a'}, {'dish': u'http://www.dianping.com/shop/9757449/dish-%E7%83%A4%E8%8C%84%E5%AD%90', 'name': u'\u70e4\u8304\u5b50'}, {'dish': u'http://www.dianping.com/shop/9757449/dish-%E7%83%A4%E7%BE%8A%E6%8E%92', 'name': u'\u70e4\u7f8a\u6392'}, {'dish': u'http://www.dianping.com/shop/9757449/dish-%E7%83%A4%E9%B8%A1%E7%88%AA', 'name': u'\u70e4\u9e21\u722a'}, {'dish': u'http://www.dianping.com/shop/9757449/dish-%E7%83%A4%E8%8C%84%E5%AD%90', 'name': u'\u70e4\u8304\u5b50'}]",,玲玲特色烧烤,http://www.dianping.com/shop/9757449,岳阳楼区,"113.10370699963,29.3662280000051",,"{'url': u'http://www.dianping.com/mylist/2804225', 'intro': u'\u590f\u5929\u5c31\u662f\u5564\u9152\u53eb\u70e7\u70e4\uff0c\u8fd9\u6837\u5403\uff0c\u624d\u8fc7\u763e', 'title': u'\u5403\u8d27\u8bf7\u8fdb\uff01\u5cb3\u9633\u8d8a\u5403\u8d8a\u8fc7\u763e\u7684\u70e7\u70e4'}",青年西路176号,http://i3.s1.dpfile.com/pc/76f4541211991d788d643ae64c12c8f9(335c221)/thumb.jpg
"[{'dish': u'http://www.dianping.com/shop/21032985/dish-%E7%89%9B%E6%B2%B9', 'name': u'\u725b\u6cb9'}, {'dish': u'http://www.dianping.com/shop/21032985/dish-%E7%89%9B%E8%82%89', 'name': u'\u725b\u8089'}]",,阳历烧烤,http://www.dianping.com/shop/21032985,岳阳楼区,"113.097859,29.381437",13873086279,"{'url': u'http://www.dianping.com/mylist/2804225', 'intro': u'\u590f\u5929\u5c31\u662f\u5564\u9152\u53eb\u70e7\u70e4\uff0c\u8fd9\u6837\u5403\uff0c\u624d\u8fc7\u763e', 'title': u'\u5403\u8d27\u8bf7\u8fdb\uff01\u5cb3\u9633\u8d8a\u5403\u8d8a\u8fc7\u763e\u7684\u70e7\u70e4'}",3517生活区菜市场旁,http://i3.s2.dpfile.com/pc/7ff3bd51d7668288a90e15e748340769(335c221)/thumb.jpg
"[{'dish': u'http://www.dianping.com/shop/23760981/dish-%E4%B8%89%E8%89%B2%E8%8C%84%E5%AD%90', 'name': u'\u4e09\u8272\u8304\u5b50'}, {'dish': u'http://www.dianping.com/shop/23760981/dish-%E9%94%A1%E7%BA%B8%E5%B0%8F%E9%BB%84%E9%B1%BC', 'name': u'\u9521\u7eb8\u5c0f\u9ec4\u9c7c'}, {'dish': u'http://www.dianping.com/shop/23760981/dish-%E8%82%89%E5%A4%B9%E9%A6%8D', 'name': u'\u8089\u5939\u998d'}, {'dish': u'http://www.dianping.com/shop/23760981/dish-%E7%89%9B%E8%9B%99%E7%82%92%E9%B8%A1', 'name': u'\u725b\u86d9\u7092\u9e21'}, {'dish': u'http://www.dianping.com/shop/23760981/dish-%E4%B8%89%E8%89%B2%E8%8C%84%E5%AD%90', 'name': u'\u4e09\u8272\u8304\u5b50'}, {'dish': u'http://www.dianping.com/shop/23760981/dish-%E9%94%A1%E7%BA%B8%E5%B0%8F%E9%BB%84%E9%B1%BC', 'name': u'\u9521\u7eb8\u5c0f\u9ec4\u9c7c'}, {'dish': u'http://www.dianping.com/shop/23760981/dish-%E8%82%89%E5%A4%B9%E9%A6%8D', 'name': u'\u8089\u5939\u998d'}]",javascript:;,五里弯私房菜,http://www.dianping.com/shop/23760981,岳阳楼区,"113.12418,29.36788",0730-8393599,"{'url': u'http://www.dianping.com/mylist/2877657', 'intro': u'&ldquo;\u79c1\u623f\u83dc&rdquo;\uff0c\u662f\u65e0\u724c\u7167\u3001\u65e0\u8dd1\u5802\u3001\u65e0\u56fa\u5b9a\u83dc\u5355\uff0c\u60df\u72ec\u53a8\u5e08\u6709\u624b\u827a\u7684\u5c0f\u672c\u9910\u996e&ldq...', 'title': u'\u5bfb\u89c5\u5cb3\u9633\u597d\u5403\u53c8\u7f8e\u5473\u7684\u79c1\u623f\u83dc\u9986'}",五里街12号,http://i3.s2.dpfile.com/pc/ad68306cae60b87e11e836af4b5f51d8(335c221)/thumb.jpg
,javascript:;,猫仔烧烤,http://www.dianping.com/shop/19133998,岳阳楼区,"113.106745,29.363897",13607301867,"{'url': u'http://www.dianping.com/mylist/2804225', 'intro': u'\u590f\u5929\u5c31\u662f\u5564\u9152\u53eb\u70e7\u70e4\uff0c\u8fd9\u6837\u5403\uff0c\u624d\u8fc7\u763e', 'title': u'\u5403\u8d27\u8bf7\u8fdb\uff01\u5cb3\u9633\u8d8a\u5403\u8d8a\u8fc7\u763e\u7684\u70e7\u70e4'}",得胜南路三维出租车公司南走5米左右,http://i1.s1.dpfile.com/pc/2e56ab6def634db4e6e5c4751cd6b60b(335c221)/thumb.jpg
"[{'dish': u'http://www.dianping.com/shop/10337864/dish-%E7%81%AB%E8%85%BF', 'name': u'\u706b\u817f'}]",,夜猫子烧烤,http://www.dianping.com/shop/10337864,岳阳楼区,"113.166110000207,29.3582100000037",15200293112,"{'url': u'http://www.dianping.com/mylist/2804225', 'intro': u'\u590f\u5929\u5c31\u662f\u5564\u9152\u53eb\u70e7\u70e4\uff0c\u8fd9\u6837\u5403\uff0c\u624d\u8fc7\u763e', 'title': u'\u5403\u8d27\u8bf7\u8fdb\uff01\u5cb3\u9633\u8d8a\u5403\u8d8a\u8fc7\u763e\u7684\u70e7\u70e4'}",健康路(近长兴小区),http://i1.s2.dpfile.com/pc/ccdbdf565703d3b9873412f1b4be1ecd(335c221)/thumb.jpg
"[{'dish': u'http://www.dianping.com/shop/13861528/dish-%E7%A7%98%E5%88%B6%E9%B1%BC', 'name': u'\u79d8\u5236\u9c7c'}, {'dish': u'http://www.dianping.com/shop/13861528/dish-%E7%82%AD%E7%83%A4%E7%89%9B%E7%AD%8B', 'name': u'\u70ad\u70e4\u725b\u7b4b'}]",javascript:;,定师傅烧烤,http://www.dianping.com/shop/13861528,岳阳楼区,"113.168970000207,29.3566200000037",15200271189,"{'url': u'http://www.dianping.com/mylist/2804225', 'intro': u'\u590f\u5929\u5c31\u662f\u5564\u9152\u53eb\u70e7\u70e4\uff0c\u8fd9\u6837\u5403\uff0c\u624d\u8fc7\u763e', 'title': u'\u5403\u8d27\u8bf7\u8fdb\uff01\u5cb3\u9633\u8d8a\u5403\u8d8a\u8fc7\u763e\u7684\u70e7\u70e4'}",通海南路(八字门小学对面),http://i3.s1.dpfile.com/pc/3e4380b876c789bc92005af347feb694(335c221)/thumb.jpg
"[{'dish': u'http://www.dianping.com/shop/21175487/dish-%E7%89%9B%E7%AD%8B%E7%81%AB%E9%94%85', 'name': u'\u725b\u7b4b\u706b\u9505'}, {'dish': u'http://www.dianping.com/shop/21175487/dish-%E5%87%89%E8%8F%9C', 'name': u'\u51c9\u83dc'}, {'dish': u'http://www.dianping.com/shop/21175487/dish-%E7%89%9B%E7%AD%8B%E7%81%AB%E9%94%85', 'name': u'\u725b\u7b4b\u706b\u9505'}]",javascript:;,香溢烧烤,http://www.dianping.com/shop/21175487,岳阳楼区,"113.14691,29.34162",18692129231,"{'url': u'http://www.dianping.com/mylist/2804225', 'intro': u'\u590f\u5929\u5c31\u662f\u5564\u9152\u53eb\u70e7\u70e4\uff0c\u8fd9\u6837\u5403\uff0c\u624d\u8fc7\u763e', 'title': u'\u5403\u8d27\u8bf7\u8fdb\uff01\u5cb3\u9633\u8d8a\u5403\u8d8a\u8fc7\u763e\u7684\u70e7\u70e4'}",学院路252号香溢烧烤(希望门往南院方向500米),http://i1.s1.dpfile.com/pc/d62b2120832c3ca494310328b7e64c02(335c221)/thumb.jpg
"[{'dish': u'http://www.dianping.com/shop/9765252/dish-%E6%89%8B%E6%8A%93%E9%BE%99%E8%99%BE', 'name': u'\u624b\u6293\u9f99\u867e'}, {'dish': u'http://www.dianping.com/shop/9765252/dish-%E7%BE%8A%E8%9D%8E%E5%AD%90%E7%81%AB%E9%94%85', 'name': u'\u7f8a\u874e\u5b50\u706b\u9505'}]",javascript:;,忆口香龙虾,http://www.dianping.com/shop/9765252,岳阳楼区,"113.11763,29.370953",0730-8221777,"{'url': u'http://www.dianping.com/mylist/2804225', 'intro': u'\u590f\u5929\u5c31\u662f\u5564\u9152\u53eb\u70e7\u70e4\uff0c\u8fd9\u6837\u5403\uff0c\u624d\u8fc7\u763e', 'title': u'\u5403\u8d27\u8bf7\u8fdb\uff01\u5cb3\u9633\u8d8a\u5403\u8d8a\u8fc7\u763e\u7684\u70e7\u70e4'}",土桥街84号(土桥美食街忆口香),http://i3.s1.dpfile.com/pc/ec9aaed2cce37adc20b07c1310f744ae(335c221)/thumb.jpg
,javascript:;,多德艺音乐餐厅,http://www.dianping.com/shop/8884396,岳阳楼区,"113.09844299963,29.3695502000051",0730-3203777,"{'url': u'http://www.dianping.com/mylist/2802607', 'intro': u'\u7ed9\u5927\u5bb6\u63a8\u8350\u8fd9\u4e9b\u7a00\u5947\u53e4\u602a\u7684\u5947\u8469\u9910\u5385\uff0c\u597d\u5403\u53c8\u597d\u73a9\uff0c\u7edd\u5bf9\u9002\u5408\u730e\u5947\u7684\u5403\u8d27\u54df\uff01', 'title': u'\u53eb\u9192\u4f60\u7684\u773c\uff01\u53bb\u5cb3\u9633\u5947\u8469\u7684\u4e3b\u9898\u9910\u5385\u7ea6\u4e2a\u4f1a'}",建设路(近劳动路口),http://i2.s1.dpfile.com/pc/8a232548cfb3c7e692b0a178f20d632a(335c221)/thumb.jpg
,javascript:;,湖湘小镇音乐餐厅咖啡酒馆,http://www.dianping.com/shop/22696278,岳阳楼区,"113.0946,29.37439",0730-8649418,"{'url': u'http://www.dianping.com/mylist/2802607', 'intro': u'\u7ed9\u5927\u5bb6\u63a8\u8350\u8fd9\u4e9b\u7a00\u5947\u53e4\u602a\u7684\u5947\u8469\u9910\u5385\uff0c\u597d\u5403\u53c8\u597d\u73a9\uff0c\u7edd\u5bf9\u9002\u5408\u730e\u5947\u7684\u5403\u8d27\u54df\uff01', 'title': u'\u53eb\u9192\u4f60\u7684\u773c\uff01\u53bb\u5cb3\u9633\u5947\u8469\u7684\u4e3b\u9898\u9910\u5385\u7ea6\u4e2a\u4f1a'}",汴河街巴陵广场鱼巷子历史文化街1期9号,http://i3.s1.dpfile.com/pc/24c064b3da1040ee2537479135be11ee(335c221)/thumb.jpg
"[{'dish': u'http://www.dianping.com/shop/20874138/dish-%E6%B2%99%E9%94%85%E9%B2%9C%E8%8F%8C%E6%BB%8B%E8%A1%A5%E5%85%94', 'name': u'\u6c99\u9505\u9c9c\u83cc\u6ecb\u8865\u5154'}, {'dish': u'http://www.dianping.com/shop/20874138/dish-%E9%A3%98%E9%A6%99%E5%B9%B2%E9%94%85%E5%85%94%E8%82%89', 'name': u'\u98d8\u9999\u5e72\u9505\u5154\u8089'}, {'dish': u'http://www.dianping.com/shop/20874138/dish-%E5%87%89%E6%8B%8C%E5%85%94%E8%80%B3', 'name': u'\u51c9\u62cc\u5154\u8033'}, {'dish': u'http://www.dianping.com/shop/20874138/dish-%E6%B2%99%E9%94%85%E9%B2%9C%E8%8F%8C%E6%BB%8B%E8%A1%A5%E5%85%94', 'name': u'\u6c99\u9505\u9c9c\u83cc\u6ecb\u8865\u5154'}, {'dish': u'http://www.dianping.com/shop/20874138/dish-%E9%A3%98%E9%A6%99%E5%B9%B2%E9%94%85%E5%85%94%E8%82%89', 'name': u'\u98d8\u9999\u5e72\u9505\u5154\u8089'}, {'dish': u'http://www.dianping.com/shop/20874138/dish-%E5%87%89%E6%8B%8C%E5%85%94%E8%80%B3', 'name': u'\u51c9\u62cc\u5154\u8033'}, {'dish': u'http://www.dianping.com/shop/20874138/dish-%E6%B2%99%E9%94%85%E9%B2%9C%E8%8F%8C%E6%BB%8B%E8%A1%A5%E5%85%94', 'name': u'\u6c99\u9505\u9c9c\u83cc\u6ecb\u8865\u5154'}, {'dish': u'http://www.dianping.com/shop/20874138/dish-%E5%87%89%E6%8B%8C%E5%85%94%E8%80%B3', 'name': u'\u51c9\u62cc\u5154\u8033'}, {'dish': u'http://www.dianping.com/shop/20874138/dish-%E6%B2%99%E9%94%85%E9%B2%9C%E8%8F%8C%E6%BB%8B%E8%A1%A5%E5%85%94', 'name': u'\u6c99\u9505\u9c9c\u83cc\u6ecb\u8865\u5154'}, {'dish': u'http://www.dianping.com/shop/20874138/dish-%E9%A3%98%E9%A6%99%E5%B9%B2%E9%94%85%E5%85%94%E8%82%89', 'name': u'\u98d8\u9999\u5e72\u9505\u5154\u8089'}, {'dish': u'http://www.dianping.com/shop/20874138/dish-%E5%87%89%E6%8B%8C%E9%A6%99%E5%B9%B2', 'name': u'\u51c9\u62cc\u9999\u5e72'}, {'dish': u'http://www.dianping.com/shop/20874138/dish-%E5%87%89%E6%8B%8C%E5%85%94%E8%80%B3', 'name': u'\u51c9\u62cc\u5154\u8033'}, {'dish': u'http://www.dianping.com/shop/20874138/dish-%E6%B2%99%E9%94%85%E9%B2%9C%E8%8F%8C%E6%BB%8B%E8%A1%A5%E5%85%94', 'name': u'\u6c99\u9505\u9c9c\u83cc\u6ecb\u8865\u5154'}, {'dish': u'http://www.dianping.com/shop/20874138/dish-%E9%A3%98%E9%A6%99%E5%B9%B2%E9%94%85%E5%85%94%E8%82%89', 'name': u'\u98d8\u9999\u5e72\u9505\u5154\u8089'}, {'dish': u'http://www.dianping.com/shop/20874138/dish-%E5%87%89%E6%8B%8C%E9%A6%99%E5%B9%B2', 'name': u'\u51c9\u62cc\u9999\u5e72'}, {'dish': u'http://www.dianping.com/shop/20874138/dish-%E5%87%89%E6%8B%8C%E5%85%94%E8%80%B3', 'name': u'\u51c9\u62cc\u5154\u8033'}, {'dish': u'http://www.dianping.com/shop/20874138/dish-%E6%B2%99%E9%94%85%E9%B2%9C%E8%8F%8C%E6%BB%8B%E8%A1%A5%E5%85%94', 'name': u'\u6c99\u9505\u9c9c\u83cc\u6ecb\u8865\u5154'}, {'dish': u'http://www.dianping.com/shop/20874138/dish-%E6%B2%99%E9%94%85%E9%B2%9C%E8%8F%8C%E6%BB%8B%E8%A1%A5%E5%85%94', 'name': u'\u6c99\u9505\u9c9c\u83cc\u6ecb\u8865\u5154'}, {'dish': u'http://www.dianping.com/shop/20874138/dish-%E9%A3%98%E9%A6%99%E5%B9%B2%E9%94%85%E5%85%94%E8%82%89', 'name': u'\u98d8\u9999\u5e72\u9505\u5154\u8089'}, {'dish': u'http://www.dianping.com/shop/20874138/dish-%E6%B2%99%E9%94%85%E9%B2%9C%E8%8F%8C%E6%BB%8B%E8%A1%A5%E5%85%94', 'name': u'\u6c99\u9505\u9c9c\u83cc\u6ecb\u8865\u5154'}, {'dish': u'http://www.dianping.com/shop/20874138/dish-%E9%A3%98%E9%A6%99%E5%B9%B2%E9%94%85%E5%85%94%E8%82%89', 'name': u'\u98d8\u9999\u5e72\u9505\u5154\u8089'}, {'dish': u'http://www.dianping.com/shop/20874138/dish-%E5%87%89%E6%8B%8C%E9%A6%99%E5%B9%B2', 'name': u'\u51c9\u62cc\u9999\u5e72'}, {'dish': u'http://www.dianping.com/shop/20874138/dish-%E5%87%89%E6%8B%8C%E5%85%94%E8%80%B3', 'name': u'\u51c9\u62cc\u5154\u8033'}]",javascript:;,山中兔体验餐厅,http://www.dianping.com/shop/20874138,岳阳楼区,"113.1504632,29.3636428",13975034389,"{'url': u'http://www.dianping.com/mylist/2802607', 'intro': u'\u7ed9\u5927\u5bb6\u63a8\u8350\u8fd9\u4e9b\u7a00\u5947\u53e4\u602a\u7684\u5947\u8469\u9910\u5385\uff0c\u597d\u5403\u53c8\u597d\u73a9\uff0c\u7edd\u5bf9\u9002\u5408\u730e\u5947\u7684\u5403\u8d27\u54df\uff01', 'title': u'\u53eb\u9192\u4f60\u7684\u773c\uff01\u53bb\u5cb3\u9633\u5947\u8469\u7684\u4e3b\u9898\u9910\u5385\u7ea6\u4e2a\u4f1a'}",王家河大桥北港路锦绣河山小区斜对面(锦绣河山小区),http://i2.s1.dpfile.com/pc/754b5350efe25b6d60a6ecf54d617c7b(335c221)/thumb.jpg
,,太和夜市城,http://www.dianping.com/shop/9720539,岳阳楼区,"113.11087,29.37053",13575068383,"{'url': u'http://www.dianping.com/mylist/2804225', 'intro': u'\u590f\u5929\u5c31\u662f\u5564\u9152\u53eb\u70e7\u70e4\uff0c\u8fd9\u6837\u5403\uff0c\u624d\u8fc7\u763e', 'title': u'\u5403\u8d27\u8bf7\u8fdb\uff01\u5cb3\u9633\u8d8a\u5403\u8d8a\u8fc7\u763e\u7684\u70e7\u70e4'}",新胜路2号(近炮台山路),http://i3.s1.dpfile.com/pc/3e898949d5bd6decada4bfec9877140b(335c221)/thumb.jpg
,,炊事班军旅主题餐厅,http://www.dianping.com/shop/19091447,岳阳楼区,"113.10963,29.37479",0730-8888918,"{'url': u'http://www.dianping.com/mylist/2802607', 'intro': u'\u7ed9\u5927\u5bb6\u63a8\u8350\u8fd9\u4e9b\u7a00\u5947\u53e4\u602a\u7684\u5947\u8469\u9910\u5385\uff0c\u597d\u5403\u53c8\u597d\u73a9\uff0c\u7edd\u5bf9\u9002\u5408\u730e\u5947\u7684\u5403\u8d27\u54df\uff01', 'title': u'\u53eb\u9192\u4f60\u7684\u773c\uff01\u53bb\u5cb3\u9633\u5947\u8469\u7684\u4e3b\u9898\u9910\u5385\u7ea6\u4e2a\u4f1a'}",新百盛对面通程电器大楼后面,http://i3.s1.dpfile.com/pc/260b2b65977a6aa1887e3317807dc35e(335c221)/thumb.jpg
,,老湘阴怀旧主题餐厅,http://www.dianping.com/shop/22237685,文星镇,"112.89025,28.69866",0730-2389888,"{'url': u'http://www.dianping.com/mylist/2802607', 'intro': u'\u7ed9\u5927\u5bb6\u63a8\u8350\u8fd9\u4e9b\u7a00\u5947\u53e4\u602a\u7684\u5947\u8469\u9910\u5385\uff0c\u597d\u5403\u53c8\u597d\u73a9\uff0c\u7edd\u5bf9\u9002\u5408\u730e\u5947\u7684\u5403\u8d27\u54df\uff01', 'title': u'\u53eb\u9192\u4f60\u7684\u773c\uff01\u53bb\u5cb3\u9633\u5947\u8469\u7684\u4e3b\u9898\u9910\u5385\u7ea6\u4e2a\u4f1a'}",远大T30酒店北侧(太傅路往北走到底),http://i2.s1.dpfile.com/pc/f226a6545d73eb9524494bc8dff5a539(335c221)/thumb.jpg
,javascript:;,lindanke单车主题咖啡馆,http://www.dianping.com/shop/23468120,岳阳楼区,"113.11577,29.34825",15907303126,"{'url': u'http://www.dianping.com/mylist/2802607', 'intro': u'\u7ed9\u5927\u5bb6\u63a8\u8350\u8fd9\u4e9b\u7a00\u5947\u53e4\u602a\u7684\u5947\u8469\u9910\u5385\uff0c\u597d\u5403\u53c8\u597d\u73a9\uff0c\u7edd\u5bf9\u9002\u5408\u730e\u5947\u7684\u5403\u8d27\u54df\uff01', 'title': u'\u53eb\u9192\u4f60\u7684\u773c\uff01\u53bb\u5cb3\u9633\u5947\u8469\u7684\u4e3b\u9898\u9910\u5385\u7ea6\u4e2a\u4f1a'}",南湖游路西15号(南湖花园小区2栋102),http://i3.s1.dpfile.com/pc/7f6cfd0fa5eb74b2c47ea5fd308bf841(335c221)/thumb.jpg
"[{'dish': u'http://www.dianping.com/shop/24510701/dish-%E5%A4%8F%E6%97%A5%E7%99%BE%E9%A6%99%E6%9E%9C', 'name': u'\u590f\u65e5\u767e\u9999\u679c'}, {'dish': u'http://www.dianping.com/shop/24510701/dish-%E6%8A%B9%E8%8C%B6%E4%BC%AF%E7%88%B5', 'name': u'\u62b9\u8336\u4f2f\u7235'}, {'dish': u'http://www.dianping.com/shop/24510701/dish-%E8%9C%9C%E6%A1%83%E4%BC%AF%E7%88%B5', 'name': u'\u871c\u6843\u4f2f\u7235'}, {'dish': u'http://www.dianping.com/shop/24510701/dish-%E8%9C%9C%E6%A1%83%E4%BC%AF%E7%88%B5', 'name': u'\u871c\u6843\u4f2f\u7235'}, {'dish': u'http://www.dianping.com/shop/24510701/dish-%E6%A8%B1%E6%A1%83%E8%A6%86%E7%9B%86%E5%AD%90', 'name': u'\u6a31\u6843\u8986\u76c6\u5b50'}, {'dish': u'http://www.dianping.com/shop/24510701/dish-%E6%9F%A0%E6%AA%AC%E6%85%95%E6%96%AF', 'name': u'\u67e0\u6aac\u6155\u65af'}, {'dish': u'http://www.dianping.com/shop/24510701/dish-%E8%8A%92%E6%9E%9C%E8%8A%9D%E5%A3%AB', 'name': u'\u8292\u679c\u829d\u58eb'}, {'dish': u'http://www.dianping.com/shop/24510701/dish-%E6%A8%B1%E6%A1%83%E8%A6%86%E7%9B%86%E5%AD%90', 'name': u'\u6a31\u6843\u8986\u76c6\u5b50'}, {'dish': u'http://www.dianping.com/shop/24510701/dish-%E6%8A%B9%E8%8C%B6%E4%BC%AF%E7%88%B5', 'name': u'\u62b9\u8336\u4f2f\u7235'}, {'dish': u'http://www.dianping.com/shop/24510701/dish-%E8%9C%9C%E6%A1%83%E4%BC%AF%E7%88%B5', 'name': u'\u871c\u6843\u4f2f\u7235'}, {'dish': u'http://www.dianping.com/shop/24510701/dish-%E8%8D%94%E6%9E%9D%E6%A8%B1%E6%A1%83', 'name': u'\u8354\u679d\u6a31\u6843'}, {'dish': u'http://www.dianping.com/shop/24510701/dish-%E7%9B%BE%E7%89%8C', 'name': u'\u76fe\u724c'}, {'dish': u'http://www.dianping.com/shop/24510701/dish-%E6%8E%A8%E6%8E%A8%E4%B9%90', 'name': u'\u63a8\u63a8\u4e50'}]",,迷茉法式甜点,http://www.dianping.com/shop/24510701,岳阳楼区,"113.16584,29.35287",0730-8688678,"{'url': u'http://www.dianping.com/mylist/2802607', 'intro': u'\u7ed9\u5927\u5bb6\u63a8\u8350\u8fd9\u4e9b\u7a00\u5947\u53e4\u602a\u7684\u5947\u8469\u9910\u5385\uff0c\u597d\u5403\u53c8\u597d\u73a9\uff0c\u7edd\u5bf9\u9002\u5408\u730e\u5947\u7684\u5403\u8d27\u54df\uff01', 'title': u'\u53eb\u9192\u4f60\u7684\u773c\uff01\u53bb\u5cb3\u9633\u5947\u8469\u7684\u4e3b\u9898\u9910\u5385\u7ea6\u4e2a\u4f1a'}",经济技术开发区狮子山路天邦珍珠湾小区A幢1层116号(会展中心、天邦珍珠湾、琉璃河),http://i3.s1.dpfile.com/pc/61899f68084301786370723740bac1f6(335c221)/thumb.jpg
,javascript:;,壹号锅烤鱼干锅,http://www.dianping.com/shop/6819418,岳阳楼区,"113.12908,29.36445",0730-8971777,"{'url': u'http://www.dianping.com/mylist/2803990', 'intro': u'\u70e4\u9c7c\u662f\u8bb8\u591a\u9955\u5ba2\u65e0\u6cd5\u62b5\u6321\u7684\u7f8e\u5473\uff0c\u7126\u9999\u7684\u9c7c\u76ae\u3001\u5ae9\u6ed1\u7684\u9c7c\u8089\uff0c\u6d53\u90c1\u7684\u9171\u6c41\uff0c\u9ebb\u8fa3\u5e26\u52b2\u7684\u53e3\u611f...', 'title': u'\u3010\u5cb3\u9633\u3011\u75af\u72c2\u6392\u961f\u597d\u7f8e\u5473\uff01\u4eba\u6c14\u70e4\u9c7c\u5730\u56fe'}",建湘路天伦城金三角美食街1142-1143号门面,http://i3.s2.dpfile.com/pc/5f226c82e4e0cc0d3c9532805c67dfb4(335c221)/thumb.jpg
,javascript:;,烤鱼之家,http://www.dianping.com/shop/20810090,文星镇,"112.888371,28.677517",13762792744,"{'url': u'http://www.dianping.com/mylist/2803990', 'intro': u'\u70e4\u9c7c\u662f\u8bb8\u591a\u9955\u5ba2\u65e0\u6cd5\u62b5\u6321\u7684\u7f8e\u5473\uff0c\u7126\u9999\u7684\u9c7c\u76ae\u3001\u5ae9\u6ed1\u7684\u9c7c\u8089\uff0c\u6d53\u90c1\u7684\u9171\u6c41\uff0c\u9ebb\u8fa3\u5e26\u52b2\u7684\u53e3\u611f...', 'title': u'\u3010\u5cb3\u9633\u3011\u75af\u72c2\u6392\u961f\u597d\u7f8e\u5473\uff01\u4eba\u6c14\u70e4\u9c7c\u5730\u56fe'}",尚书路司法局边,http://i1.s2.dpfile.com/pc/df0eb1f41b31644ec0776aefbb21a346(335c221)/thumb.jpg
"[{'dish': u'http://www.dianping.com/shop/23499800/dish-%E5%91%A8%E7%91%9C%E9%9C%B8%E7%8E%8B%E6%8E%92', 'name': u'\u5468\u745c\u9738\u738b\u6392'}, {'dish': u'http://www.dianping.com/shop/23499800/dish-%E6%97%BA%E6%97%BA%E6%8E%92%E9%AA%A8', 'name': u'\u65fa\u65fa\u6392\u9aa8'}, {'dish': u'http://www.dianping.com/shop/23499800/dish-%E6%B3%A1%E6%A4%92%E7%83%A4%E9%B1%BC', 'name': u'\u6ce1\u6912\u70e4\u9c7c'}, {'dish': u'http://www.dianping.com/shop/23499800/dish-%E5%91%A8%E7%91%9C%E9%9C%B8%E7%8E%8B%E6%8E%92', 'name': u'\u5468\u745c\u9738\u738b\u6392'}, {'dish': u'http://www.dianping.com/shop/23499800/dish-%E6%B3%A1%E6%A4%92%E7%83%A4%E9%B1%BC', 'name': u'\u6ce1\u6912\u70e4\u9c7c'}, {'dish': u'http://www.dianping.com/shop/23499800/dish-%E6%BD%9C%E6%B1%9F%E6%B2%B9%E7%84%96%E8%99%BE', 'name': u'\u6f5c\u6c5f\u6cb9\u7116\u867e'}, {'dish': u'http://www.dianping.com/shop/23499800/dish-%E6%B3%A1%E6%A4%92%E7%83%A4%E9%B1%BC', 'name': u'\u6ce1\u6912\u70e4\u9c7c'}, {'dish': u'http://www.dianping.com/shop/23499800/dish-%E6%97%BA%E6%97%BA%E6%8E%92%E9%AA%A8', 'name': u'\u65fa\u65fa\u6392\u9aa8'}, {'dish': u'http://www.dianping.com/shop/23499800/dish-%E9%BE%99%E8%99%BE', 'name': u'\u9f99\u867e'}, {'dish': u'http://www.dianping.com/shop/23499800/dish-%E6%B3%A1%E6%A4%92%E7%83%A4%E9%B1%BC', 'name': u'\u6ce1\u6912\u70e4\u9c7c'}, {'dish': u'http://www.dianping.com/shop/23499800/dish-%E6%97%BA%E6%97%BA%E6%8E%92%E9%AA%A8', 'name': u'\u65fa\u65fa\u6392\u9aa8'}, {'dish': u'http://www.dianping.com/shop/23499800/dish-%E6%B3%A1%E6%A4%92%E7%83%A4%E9%B1%BC', 'name': u'\u6ce1\u6912\u70e4\u9c7c'}, {'dish': u'http://www.dianping.com/shop/23499800/dish-%E9%BE%99%E8%99%BE', 'name': u'\u9f99\u867e'}, {'dish': u'http://www.dianping.com/shop/23499800/dish-%E6%97%BA%E6%97%BA%E6%8E%92%E9%AA%A8', 'name': u'\u65fa\u65fa\u6392\u9aa8'}, {'dish': u'http://www.dianping.com/shop/23499800/dish-%E6%B3%A1%E6%A4%92%E7%83%A4%E9%B1%BC', 'name': u'\u6ce1\u6912\u70e4\u9c7c'}, {'dish': u'http://www.dianping.com/shop/23499800/dish-%E6%97%BA%E6%97%BA%E6%8E%92%E9%AA%A8', 'name': u'\u65fa\u65fa\u6392\u9aa8'}, {'dish': u'http://www.dianping.com/shop/23499800/dish-%E6%B3%A1%E6%A4%92%E7%83%A4%E9%B1%BC', 'name': u'\u6ce1\u6912\u70e4\u9c7c'}, {'dish': u'http://www.dianping.com/shop/23499800/dish-%E9%BE%99%E8%99%BE', 'name': u'\u9f99\u867e'}]",,万州烤鱼,http://www.dianping.com/shop/23499800,岳阳楼区,"0.0,0.0",0730-8888977,"{'url': u'http://www.dianping.com/mylist/2803990', 'intro': u'\u70e4\u9c7c\u662f\u8bb8\u591a\u9955\u5ba2\u65e0\u6cd5\u62b5\u6321\u7684\u7f8e\u5473\uff0c\u7126\u9999\u7684\u9c7c\u76ae\u3001\u5ae9\u6ed1\u7684\u9c7c\u8089\uff0c\u6d53\u90c1\u7684\u9171\u6c41\uff0c\u9ebb\u8fa3\u5e26\u52b2\u7684\u53e3\u611f...', 'title': u'\u3010\u5cb3\u9633\u3011\u75af\u72c2\u6392\u961f\u597d\u7f8e\u5473\uff01\u4eba\u6c14\u70e4\u9c7c\u5730\u56fe'}",八字门岳州中学旁边,http://i1.s2.dpfile.com/pc/cb080ac47d0eca015a0e565f8f496fcc(335c221)/thumb.jpg
"[{'dish': u'http://www.dianping.com/shop/9766858/dish-%E7%83%A4%E7%94%9F%E8%9A%9D', 'name': u'\u70e4\u751f\u869d'}, {'dish': u'http://www.dianping.com/shop/9766858/dish-%E7%83%A4%E7%94%9F%E8%9A%9D', 'name': u'\u70e4\u751f\u869d'}, {'dish': u'http://www.dianping.com/shop/9766858/dish-%E7%89%9B%E7%AD%8B', 'name': u'\u725b\u7b4b'}, {'dish': u'http://www.dianping.com/shop/9766858/dish-%E8%8A%B1%E7%94%B2', 'name': u'\u82b1\u7532'}, {'dish': u'http://www.dianping.com/shop/9766858/dish-%E7%83%A4%E7%94%9F%E8%9A%9D', 'name': u'\u70e4\u751f\u869d'}]",,猫仔烤鱼,http://www.dianping.com/shop/9766858,岳阳楼区,"113.126886999885,29.3750950000007",0730-8887888,"{'url': u'http://www.dianping.com/mylist/2803990', 'intro': u'\u70e4\u9c7c\u662f\u8bb8\u591a\u9955\u5ba2\u65e0\u6cd5\u62b5\u6321\u7684\u7f8e\u5473\uff0c\u7126\u9999\u7684\u9c7c\u76ae\u3001\u5ae9\u6ed1\u7684\u9c7c\u8089\uff0c\u6d53\u90c1\u7684\u9171\u6c41\uff0c\u9ebb\u8fa3\u5e26\u52b2\u7684\u53e3\u611f...', 'title': u'\u3010\u5cb3\u9633\u3011\u75af\u72c2\u6392\u961f\u597d\u7f8e\u5473\uff01\u4eba\u6c14\u70e4\u9c7c\u5730\u56fe'}",龙湾巷5号,http://i1.s2.dpfile.com/pc/71f8f3cf848cd19e1bc79eb88d6de455(335c221)/thumb.jpg
,javascript:;,天添烤鱼,http://www.dianping.com/shop/21151579,城郊乡,"113.08985,28.8027",18692119309,"{'url': u'http://www.dianping.com/mylist/2803990', 'intro': u'\u70e4\u9c7c\u662f\u8bb8\u591a\u9955\u5ba2\u65e0\u6cd5\u62b5\u6321\u7684\u7f8e\u5473\uff0c\u7126\u9999\u7684\u9c7c\u76ae\u3001\u5ae9\u6ed1\u7684\u9c7c\u8089\uff0c\u6d53\u90c1\u7684\u9171\u6c41\uff0c\u9ebb\u8fa3\u5e26\u52b2\u7684\u53e3\u611f...', 'title': u'\u3010\u5cb3\u9633\u3011\u75af\u72c2\u6392\u961f\u597d\u7f8e\u5473\uff01\u4eba\u6c14\u70e4\u9c7c\u5730\u56fe'}",归义广场汨新路口,http://i2.s1.dpfile.com/pc/0da8b04089fc8521c45f6063dd605435(335c221)/thumb.jpg
,javascript:;,金牛烤鱼堂,http://www.dianping.com/shop/22904303,华容县其他,"112.551896,29.527374",18613908813,"{'url': u'http://www.dianping.com/mylist/2803990', 'intro': u'\u70e4\u9c7c\u662f\u8bb8\u591a\u9955\u5ba2\u65e0\u6cd5\u62b5\u6321\u7684\u7f8e\u5473\uff0c\u7126\u9999\u7684\u9c7c\u76ae\u3001\u5ae9\u6ed1\u7684\u9c7c\u8089\uff0c\u6d53\u90c1\u7684\u9171\u6c41\uff0c\u9ebb\u8fa3\u5e26\u52b2\u7684\u53e3\u611f...', 'title': u'\u3010\u5cb3\u9633\u3011\u75af\u72c2\u6392\u961f\u597d\u7f8e\u5473\uff01\u4eba\u6c14\u70e4\u9c7c\u5730\u56fe'}",华容大道与港东中路口(金利源酒店旁),http://i2.s1.dpfile.com/pc/97ede704a33b3bc7a4f89c2e32a35c5e(335c221)/thumb.jpg
,javascript:;,长城烤鱼,http://www.dianping.com/shop/23122220,岳阳楼区,"113.138169,29.356841",,"{'url': u'http://www.dianping.com/mylist/2803990', 'intro': u'\u70e4\u9c7c\u662f\u8bb8\u591a\u9955\u5ba2\u65e0\u6cd5\u62b5\u6321\u7684\u7f8e\u5473\uff0c\u7126\u9999\u7684\u9c7c\u76ae\u3001\u5ae9\u6ed1\u7684\u9c7c\u8089\uff0c\u6d53\u90c1\u7684\u9171\u6c41\uff0c\u9ebb\u8fa3\u5e26\u52b2\u7684\u53e3\u611f...', 'title': u'\u3010\u5cb3\u9633\u3011\u75af\u72c2\u6392\u961f\u597d\u7f8e\u5473\uff01\u4eba\u6c14\u70e4\u9c7c\u5730\u56fe'}",花板桥步步高六楼,http://i2.s1.dpfile.com/pc/1115bdd152f5e4ac942a0b14750f1bb2(335c221)/thumb.jpg
"[{'dish': u'http://www.dianping.com/shop/24030583/dish-%E9%85%B8%E8%8F%9C%E9%B1%BC', 'name': u'\u9178\u83dc\u9c7c'}, {'dish': u'http://www.dianping.com/shop/24030583/dish-%E9%BA%BB%E8%BE%A3%E9%B1%BC', 'name': u'\u9ebb\u8fa3\u9c7c'}]",javascript:;,鱼见你烤鱼主题餐吧,http://www.dianping.com/shop/24030583,岳阳楼区,"113.106938,29.358288",0730-8323777,"{'url': u'http://www.dianping.com/mylist/2803990', 'intro': u'\u70e4\u9c7c\u662f\u8bb8\u591a\u9955\u5ba2\u65e0\u6cd5\u62b5\u6321\u7684\u7f8e\u5473\uff0c\u7126\u9999\u7684\u9c7c\u76ae\u3001\u5ae9\u6ed1\u7684\u9c7c\u8089\uff0c\u6d53\u90c1\u7684\u9171\u6c41\uff0c\u9ebb\u8fa3\u5e26\u52b2\u7684\u53e3\u611f...', 'title': u'\u3010\u5cb3\u9633\u3011\u75af\u72c2\u6392\u961f\u597d\u7f8e\u5473\uff01\u4eba\u6c14\u70e4\u9c7c\u5730\u56fe'}",美食节水岸足浴楼上（原力力鱼馆）(原力力鱼馆),http://i3.s1.dpfile.com/pc/e087635d10d9ccf0aa22bb3d668c8fe5(335c221)/thumb.jpg
"[{'dish': u'http://www.dianping.com/shop/23404462/dish-%E8%8A%92%E6%9E%9C%E5%A4%9A%E5%A3%AB', 'name': u'\u8292\u679c\u591a\u58eb'}, {'dish': u'http://www.dianping.com/shop/23404462/dish-%E6%A6%B4%E8%8E%B2%E9%9B%AA%E6%BB%8B', 'name': u'\u69b4\u83b2\u96ea\u6ecb'}, {'dish': u'http://www.dianping.com/shop/23404462/dish-%E8%8A%92%E6%9E%9C%E5%88%A8%E5%86%B0', 'name': u'\u8292\u679c\u5228\u51b0'}, {'dish': u'http://www.dianping.com/shop/23404462/dish-%E5%A5%87%E8%B6%A3%E5%AF%86%E7%93%9C%E5%A4%9A%E5%A3%AB', 'name': u'\u5947\u8da3\u5bc6\u74dc\u591a\u58eb'}, {'dish': u'http://www.dianping.com/shop/23404462/dish-%E8%8A%92%E6%9E%9C%E5%A5%B6%E6%98%94', 'name': u'\u8292\u679c\u5976\u6614'}, {'dish': u'http://www.dianping.com/shop/23404462/dish-%E6%A6%B4%E8%8E%B2%E5%8D%83%E5%B1%82', 'name': u'\u69b4\u83b2\u5343\u5c42'}, {'dish': u'http://www.dianping.com/shop/23404462/dish-%E6%A6%B4%E8%8E%B2%E5%A5%B6%E6%98%94', 'name': u'\u69b4\u83b2\u5976\u6614'}, {'dish': u'http://www.dianping.com/shop/23404462/dish-%E6%B5%B7%E7%9B%90%E7%83%A4%E6%A0%97%E5%AD%90', 'name': u'\u6d77\u76d0\u70e4\u6817\u5b50'}, {'dish': u'http://www.dianping.com/shop/23404462/dish-%E6%B3%95%E5%BC%8F%E5%B8%83%E6%9C%97%E8%92%99%E5%A4%9A%E5%A3%AB', 'name': u'\u6cd5\u5f0f\u5e03\u6717\u8499\u591a\u58eb'}, {'dish': u'http://www.dianping.com/shop/23404462/dish-%E6%A6%B4%E8%8E%B2%E5%8D%83%E5%B1%82', 'name': u'\u69b4\u83b2\u5343\u5c42'}]",,榴芒熊夫妇旗舰店,http://www.dianping.com/shop/23404462,岳阳楼区,"113.0964,29.34726",0730-3340088,"{'url': u'http://www.dianping.com/mylist/2803052', 'intro': u'\u518d\u4e5f\u4e0d\u6015\u6691\u5047\u4e0d\u9020\u5e26\u5b69\u5b50\u53bb\u54ea\u513f\u73a9\u54af\uff0c\u8fd9\u4e9b\u9910\u5385\u4e0d\u5149\u597d\u5403\uff0c\u8fd8\u597d\u73a9\uff0c\u5468\u672b\u5c31\u6709\u5403\u559d\u73a9\u7684\u4e00\u5929...', 'title': u'\u662f\u9910\u5385\u4e5f\u662f\u4e50\u56ed\uff01\u5cb3\u9633\u80fd\u73a9\u4e50\u7684\u4eb2\u5b50\u9910\u5385\u5927\u641c\u7f57'}",云梦路南津古渡(品味湖景餐吧),http://i1.s1.dpfile.com/pc/e1d43e2e8ee4e72ce26ce8723e73c67b(335c221)/thumb.jpg
"[{'dish': u'http://www.dianping.com/shop/21664474/dish-%E7%81%AB%E7%84%B0%E7%89%9B%E6%8E%92', 'name': u'\u706b\u7130\u725b\u6392'}]",javascript:;,囍焰牛排,http://www.dianping.com/shop/21664474,城关镇,"112.56552,29.528",0730-4218517,"{'url': u'http://www.dianping.com/mylist/2803052', 'intro': u'\u518d\u4e5f\u4e0d\u6015\u6691\u5047\u4e0d\u9020\u5e26\u5b69\u5b50\u53bb\u54ea\u513f\u73a9\u54af\uff0c\u8fd9\u4e9b\u9910\u5385\u4e0d\u5149\u597d\u5403\uff0c\u8fd8\u597d\u73a9\uff0c\u5468\u672b\u5c31\u6709\u5403\u559d\u73a9\u7684\u4e00\u5929...', 'title': u'\u662f\u9910\u5385\u4e5f\u662f\u4e50\u56ed\uff01\u5cb3\u9633\u80fd\u73a9\u4e50\u7684\u4eb2\u5b50\u9910\u5385\u5927\u641c\u7f57'}",城市广场美食城2楼(近三和电影院),http://i2.s1.dpfile.com/pc/ac9ac1c0facca2294e27ee729678a7a2(335c221)/thumb.jpg
,javascript:;,7点自造diy烘焙坊,http://www.dianping.com/shop/18026651,岳阳楼区,"113.12983,29.36202",0730-8379917,"{'url': u'http://www.dianping.com/mylist/2803052', 'intro': u'\u518d\u4e5f\u4e0d\u6015\u6691\u5047\u4e0d\u9020\u5e26\u5b69\u5b50\u53bb\u54ea\u513f\u73a9\u54af\uff0c\u8fd9\u4e9b\u9910\u5385\u4e0d\u5149\u597d\u5403\uff0c\u8fd8\u597d\u73a9\uff0c\u5468\u672b\u5c31\u6709\u5403\u559d\u73a9\u7684\u4e00\u5929...', 'title': u'\u662f\u9910\u5385\u4e5f\u662f\u4e50\u56ed\uff01\u5cb3\u9633\u80fd\u73a9\u4e50\u7684\u4eb2\u5b50\u9910\u5385\u5927\u641c\u7f57'}",大润发天伦城步行街郁金香街区18栋108号,http://i2.s1.dpfile.com/pc/f30b631f6df328f0dceaf11348efbc0a(335c221)/thumb.jpg
,javascript:;,柔情蜜意DIY巧克力工坊,http://www.dianping.com/shop/13695049,岳阳楼区,"113.12587,29.37286",18873001040,"{'url': u'http://www.dianping.com/mylist/2803052', 'intro': u'\u518d\u4e5f\u4e0d\u6015\u6691\u5047\u4e0d\u9020\u5e26\u5b69\u5b50\u53bb\u54ea\u513f\u73a9\u54af\uff0c\u8fd9\u4e9b\u9910\u5385\u4e0d\u5149\u597d\u5403\uff0c\u8fd8\u597d\u73a9\uff0c\u5468\u672b\u5c31\u6709\u5403\u559d\u73a9\u7684\u4e00\u5929...', 'title': u'\u662f\u9910\u5385\u4e5f\u662f\u4e50\u56ed\uff01\u5cb3\u9633\u80fd\u73a9\u4e50\u7684\u4eb2\u5b50\u9910\u5385\u5927\u641c\u7f57'}",地一大道人和春天负一层肯德基后门(人和春天下沉广场),http://i1.s2.dpfile.com/pc/989358272b7510f3e8dffe7ab9c4fee4(335c221)/thumb.jpg
"[{'dish': u'http://www.dianping.com/shop/21782619/dish-%E7%A2%B3%E7%83%A7%E7%8C%AA%E5%8A%B2%E8%82%89', 'name': u'\u78b3\u70e7\u732a\u52b2\u8089'}]",,佳斯顿港式茶餐厅岳阳,http://www.dianping.com/shop/21782619,岳阳楼区,"113.142667283173,29.3293251571936",0730-8955558,"{'url': u'http://www.dianping.com/mylist/2803052', 'intro': u'\u518d\u4e5f\u4e0d\u6015\u6691\u5047\u4e0d\u9020\u5e26\u5b69\u5b50\u53bb\u54ea\u513f\u73a9\u54af\uff0c\u8fd9\u4e9b\u9910\u5385\u4e0d\u5149\u597d\u5403\uff0c\u8fd8\u597d\u73a9\uff0c\u5468\u672b\u5c31\u6709\u5403\u559d\u73a9\u7684\u4e00\u5929...', 'title': u'\u662f\u9910\u5385\u4e5f\u662f\u4e50\u56ed\uff01\u5cb3\u9633\u80fd\u73a9\u4e50\u7684\u4eb2\u5b50\u9910\u5385\u5927\u641c\u7f57'}",理工学院南院校园内别墅区前(近理工学院别墅区，学校内),http://i3.s1.dpfile.com/pc/c44f8af99604e2f80958753e6217734f(335c221)/thumb.jpg
,,爱丽斯烘焙·咖啡,http://www.dianping.com/shop/17196190,岳阳楼区,"113.160684,29.359517",0730-8988877,"{'url': u'http://www.dianping.com/mylist/2803052', 'intro': u'\u518d\u4e5f\u4e0d\u6015\u6691\u5047\u4e0d\u9020\u5e26\u5b69\u5b50\u53bb\u54ea\u513f\u73a9\u54af\uff0c\u8fd9\u4e9b\u9910\u5385\u4e0d\u5149\u597d\u5403\uff0c\u8fd8\u597d\u73a9\uff0c\u5468\u672b\u5c31\u6709\u5403\u559d\u73a9\u7684\u4e00\u5929...', 'title': u'\u662f\u9910\u5385\u4e5f\u662f\u4e50\u56ed\uff01\u5cb3\u9633\u80fd\u73a9\u4e50\u7684\u4eb2\u5b50\u9910\u5385\u5927\u641c\u7f57'}",八字门旭园路熙园壹号1栋111号,http://i2.s2.dpfile.com/pc/fb757b54119b4ae4b5430f10c0dd2e7c(335c221)/thumb.jpg
"[{'dish': u'http://www.dianping.com/shop/19704090/dish-%E6%A1%82%E8%8A%B1%E7%BA%A2%E6%9E%A3%E9%9D%A2%E5%8C%85', 'name': u'\u6842\u82b1\u7ea2\u67a3\u9762\u5305'}, {'dish': u'http://www.dianping.com/shop/19704090/dish-%E5%8D%97%E7%93%9C%E5%BF%A7%E6%A0%BC', 'name': u'\u5357\u74dc\u5fe7\u683c'}]",,爱润。艾菲主题烘焙餐厅,http://www.dianping.com/shop/19704090,岳阳楼区,"113.12469,29.354313",0730-8983786,"{'url': u'http://www.dianping.com/mylist/2803052', 'intro': u'\u518d\u4e5f\u4e0d\u6015\u6691\u5047\u4e0d\u9020\u5e26\u5b69\u5b50\u53bb\u54ea\u513f\u73a9\u54af\uff0c\u8fd9\u4e9b\u9910\u5385\u4e0d\u5149\u597d\u5403\uff0c\u8fd8\u597d\u73a9\uff0c\u5468\u672b\u5c31\u6709\u5403\u559d\u73a9\u7684\u4e00\u5929...', 'title': u'\u662f\u9910\u5385\u4e5f\u662f\u4e50\u56ed\uff01\u5cb3\u9633\u80fd\u73a9\u4e50\u7684\u4eb2\u5b50\u9910\u5385\u5927\u641c\u7f57'}",白杨坡路458号,http://i3.s2.dpfile.com/pc/b1c1248c996c4126aa5086204beda313(335c221)/thumb.jpg
,javascript:;,最鱼·UFO烤鱼,http://www.dianping.com/shop/21679082,岳阳楼区,"113.1290488,29.3635918",0730-8199255,"{'url': u'http://www.dianping.com/mylist/2803052', 'intro': u'\u518d\u4e5f\u4e0d\u6015\u6691\u5047\u4e0d\u9020\u5e26\u5b69\u5b50\u53bb\u54ea\u513f\u73a9\u54af\uff0c\u8fd9\u4e9b\u9910\u5385\u4e0d\u5149\u597d\u5403\uff0c\u8fd8\u597d\u73a9\uff0c\u5468\u672b\u5c31\u6709\u5403\u559d\u73a9\u7684\u4e00\u5929...', 'title': u'\u662f\u9910\u5385\u4e5f\u662f\u4e50\u56ed\uff01\u5cb3\u9633\u80fd\u73a9\u4e50\u7684\u4eb2\u5b50\u9910\u5385\u5927\u641c\u7f57'}",建湘路天伦金三角购物公园3楼3009室(近大润发),http://i1.s2.dpfile.com/pc/d28030ef37b1fc098b780be5ada2bd6f(335c221)/thumb.jpg
"[{'dish': u'http://www.dianping.com/shop/13689222/dish-%E6%8A%B9%E8%8C%B6%E8%B1%86%E8%8A%B1', 'name': u'\u62b9\u8336\u8c46\u82b1'}, {'dish': u'http://www.dianping.com/shop/13689222/dish-%E7%BA%A2%E8%B1%86%E8%B1%86%E8%8A%B1', 'name': u'\u7ea2\u8c46\u8c46\u82b1'}, {'dish': u'http://www.dianping.com/shop/13689222/dish-%E5%8E%9F%E5%91%B3%E8%B1%86%E8%8A%B1', 'name': u'\u539f\u5473\u8c46\u82b1'}]",javascript:;,一品豆花,http://www.dianping.com/shop/13689222,岳阳楼区,"113.10647,29.3725",13786083436,"{'url': u'http://www.dianping.com/mylist/2151239', 'intro': u'\u5cb3\u9633\u5c0f\u5403\u904d\u5e03\u5168\u57ce\uff0c\u4e0b\u8fb9\u7b14\u8005\u5e26\u5927\u5bb6\u53bb\u770b\u4e0b\u5cb3\u9633\u7684\u5c0f\u5403\uff0c\u6392\u540d\u4e0d\u5206\u5148\u540e\uff01', 'title': u'\u5cb3\u9633\u5c0f\u5403\u653b\u7565 \u820c\u5c16\u4e0a\u7684\u6c11\u95f4\u5473\u9053'}",东茅岭步行街如意服饰广场53号(小吃一条街),http://i2.s1.dpfile.com/pc/02501293fe566fda5d9755cc81c82095(335c221)/thumb.jpg
,,XO鱼头米粉,http://www.dianping.com/shop/20639429,岳阳楼区,"113.10711,29.37452",18821883758,"{'url': u'http://www.dianping.com/mylist/2151239', 'intro': u'\u5cb3\u9633\u5c0f\u5403\u904d\u5e03\u5168\u57ce\uff0c\u4e0b\u8fb9\u7b14\u8005\u5e26\u5927\u5bb6\u53bb\u770b\u4e0b\u5cb3\u9633\u7684\u5c0f\u5403\uff0c\u6392\u540d\u4e0d\u5206\u5148\u540e\uff01', 'title': u'\u5cb3\u9633\u5c0f\u5403\u653b\u7565 \u820c\u5c16\u4e0a\u7684\u6c11\u95f4\u5473\u9053'}",岳阳楼区北辅道(武商),http://i1.s2.dpfile.com/pc/dba7f42bf1ea7c91b305f7c2e7ca8163(335c221)/thumb.jpg
"[{'dish': u'http://www.dianping.com/shop/17166754/dish-%E5%8E%9F%E5%91%B3%E8%B1%86%E7%9A%AE', 'name': u'\u539f\u5473\u8c46\u76ae'}, {'dish': u'http://www.dianping.com/shop/17166754/dish-%E7%89%9B%E8%82%89%E8%B1%86%E7%9A%AE', 'name': u'\u725b\u8089\u8c46\u76ae'}, {'dish': u'http://www.dianping.com/shop/17166754/dish-%E8%BE%A3%E6%A4%92%E7%88%86%E8%82%89%E8%B1%86%E7%9A%AE', 'name': u'\u8fa3\u6912\u7206\u8089\u8c46\u76ae'}, {'dish': u'http://www.dianping.com/shop/17166754/dish-%E8%B1%86%E7%9A%AE%E5%A4%A7%E7%8E%8B', 'name': u'\u8c46\u76ae\u5927\u738b'}]",javascript:;,豆皮大王,http://www.dianping.com/shop/17166754,岳阳楼区,"113.107617,29.367515",18773088994,"{'url': u'http://www.dianping.com/mylist/2151239', 'intro': u'\u5cb3\u9633\u5c0f\u5403\u904d\u5e03\u5168\u57ce\uff0c\u4e0b\u8fb9\u7b14\u8005\u5e26\u5927\u5bb6\u53bb\u770b\u4e0b\u5cb3\u9633\u7684\u5c0f\u5403\uff0c\u6392\u540d\u4e0d\u5206\u5148\u540e\uff01', 'title': u'\u5cb3\u9633\u5c0f\u5403\u653b\u7565 \u820c\u5c16\u4e0a\u7684\u6c11\u95f4\u5473\u9053'}",银丰宾馆对面,http://i3.s1.dpfile.com/pc/baefeceb95c8573d0bda4d863ecb4ed6(335c221)/thumb.jpg
"[{'dish': u'http://www.dianping.com/shop/18099669/dish-%E6%92%92%E5%B0%BF%E7%89%9B%E4%B8%B8', 'name': u'\u6492\u5c3f\u725b\u4e38'}]",,冷水铺十字路口麻辣烫,http://www.dianping.com/shop/18099669,岳阳楼区,"113.16962,29.39743",,"{'url': u'http://www.dianping.com/mylist/2872884', 'intro': u'\u7ea2\u6f06\u7684\u77ee\u65b9\u684c\u3001\u5c0f\u51f3\u5b50\uff0c\u4e00\u9505\u7ea2\u6c64\uff0c\u548c\u4e00\u5927\u628a\u4e00\u5927\u628a\u7684\u7af9\u7b7e\u6784\u6210\u4e86\u4e00\u9053\u7279\u522b\u98ce\u666f\u3002\u6765\u81ea\u6210\u90fd...', 'title': u'\u3010\u5cb3\u9633\u3011\u9c9c\u9999\u9ebb\u8fa3 \u8857\u8fb9\u90a3\u4e00\u7897\u4f20\u5947\u4e32\u4e32\u9999'}",冷水铺红绿灯如海超市旁,http://i3.s1.dpfile.com/pc/0f77025c851ae6e92a6989f317361c45(335c221)/thumb.jpg
,javascript:;,朋友0麻辣烫,http://www.dianping.com/shop/21740563,岳阳楼区,"104.273571,30.559464",13786098752,"{'url': u'http://www.dianping.com/mylist/2872884', 'intro': u'\u7ea2\u6f06\u7684\u77ee\u65b9\u684c\u3001\u5c0f\u51f3\u5b50\uff0c\u4e00\u9505\u7ea2\u6c64\uff0c\u548c\u4e00\u5927\u628a\u4e00\u5927\u628a\u7684\u7af9\u7b7e\u6784\u6210\u4e86\u4e00\u9053\u7279\u522b\u98ce\u666f\u3002\u6765\u81ea\u6210\u90fd...', 'title': u'\u3010\u5cb3\u9633\u3011\u9c9c\u9999\u9ebb\u8fa3 \u8857\u8fb9\u90a3\u4e00\u7897\u4f20\u5947\u4e32\u4e32\u9999'}",步行街美食街,http://i2.s1.dpfile.com/pc/d3d50d09e4a59e35a1ba7e1ea3aa0b03(335c221)/thumb.jpg
,javascript:;,麻辣烫,http://www.dianping.com/shop/21894343,城南乡,"113.45261,29.47308",15347306072,"{'url': u'http://www.dianping.com/mylist/2872884', 'intro': u'\u7ea2\u6f06\u7684\u77ee\u65b9\u684c\u3001\u5c0f\u51f3\u5b50\uff0c\u4e00\u9505\u7ea2\u6c64\uff0c\u548c\u4e00\u5927\u628a\u4e00\u5927\u628a\u7684\u7af9\u7b7e\u6784\u6210\u4e86\u4e00\u9053\u7279\u522b\u98ce\u666f\u3002\u6765\u81ea\u6210\u90fd...', 'title': u'\u3010\u5cb3\u9633\u3011\u9c9c\u9999\u9ebb\u8fa3 \u8857\u8fb9\u90a3\u4e00\u7897\u4f20\u5947\u4e32\u4e32\u9999'}",临湘市步行街南正街星河步行街二楼台湾美食街内,http://i3.s2.dpfile.com/pc/2f1a07c2b34e357741607ea5644e8c70(335c221)/thumb.jpg
"[{'dish': u'http://www.dianping.com/shop/7998750/dish-%E8%84%86%E7%9A%AE%E8%82%A0', 'name': u'\u8106\u76ae\u80a0'}, {'dish': u'http://www.dianping.com/shop/7998750/dish-%E7%89%9B%E7%99%BE%E5%8F%B6', 'name': u'\u725b\u767e\u53f6'}, {'dish': u'http://www.dianping.com/shop/7998750/dish-%E9%B9%8C%E9%B9%91%E8%9B%8B', 'name': u'\u9e4c\u9e51\u86cb'}, {'dish': u'http://www.dianping.com/shop/7998750/dish-%E9%AA%A8%E8%82%89%E7%9B%B8%E8%81%94', 'name': u'\u9aa8\u8089\u76f8\u8054'}, {'dish': u'http://www.dianping.com/shop/7998750/dish-%E8%97%95%E7%89%87', 'name': u'\u85d5\u7247'}]",,兄弟麻辣烫,http://www.dianping.com/shop/7998750,岳阳楼区,"113.12529,29.35605",15173053436,"{'url': u'http://www.dianping.com/mylist/2872884', 'intro': u'\u7ea2\u6f06\u7684\u77ee\u65b9\u684c\u3001\u5c0f\u51f3\u5b50\uff0c\u4e00\u9505\u7ea2\u6c64\uff0c\u548c\u4e00\u5927\u628a\u4e00\u5927\u628a\u7684\u7af9\u7b7e\u6784\u6210\u4e86\u4e00\u9053\u7279\u522b\u98ce\u666f\u3002\u6765\u81ea\u6210\u90fd...', 'title': u'\u3010\u5cb3\u9633\u3011\u9c9c\u9999\u9ebb\u8fa3 \u8857\u8fb9\u90a3\u4e00\u7897\u4f20\u5947\u4e32\u4e32\u9999'}",李家巷71号超市附近(卡布其诺小区对面),http://i3.s1.dpfile.com/pc/db565e2ee17573d715bcb222f5fce91a(335c221)/thumb.jpg
,,刘记麻辣烫,http://www.dianping.com/shop/23309646,岳阳楼区,"0.0,0.0",15973026336,"{'url': u'http://www.dianping.com/mylist/2872884', 'intro': u'\u7ea2\u6f06\u7684\u77ee\u65b9\u684c\u3001\u5c0f\u51f3\u5b50\uff0c\u4e00\u9505\u7ea2\u6c64\uff0c\u548c\u4e00\u5927\u628a\u4e00\u5927\u628a\u7684\u7af9\u7b7e\u6784\u6210\u4e86\u4e00\u9053\u7279\u522b\u98ce\u666f\u3002\u6765\u81ea\u6210\u90fd...', 'title': u'\u3010\u5cb3\u9633\u3011\u9c9c\u9999\u9ebb\u8fa3 \u8857\u8fb9\u90a3\u4e00\u7897\u4f20\u5947\u4e32\u4e32\u9999'}",八字门老妈泉水煮鱼上坡旁边,http://i1.s1.dpfile.com/pc/920a6f16c865bfd7b0ed63b2cb48986a(335c221)/thumb.jpg
,javascript:;,拉斯卡牛排自助餐厅,http://www.dianping.com/shop/24512548,岳阳楼区,"113.11516,29.37043",0730-8123222,"{'url': u'http://www.dianping.com/mylist/2803052', 'intro': u'\u518d\u4e5f\u4e0d\u6015\u6691\u5047\u4e0d\u9020\u5e26\u5b69\u5b50\u53bb\u54ea\u513f\u73a9\u54af\uff0c\u8fd9\u4e9b\u9910\u5385\u4e0d\u5149\u597d\u5403\uff0c\u8fd8\u597d\u73a9\uff0c\u5468\u672b\u5c31\u6709\u5403\u559d\u73a9\u7684\u4e00\u5929...', 'title': u'\u662f\u9910\u5385\u4e5f\u662f\u4e50\u56ed\uff01\u5cb3\u9633\u80fd\u73a9\u4e50\u7684\u4eb2\u5b50\u9910\u5385\u5927\u641c\u7f57'}",东茅岭街道新格里时尚广场3楼,http://i3.s1.dpfile.com/pc/30bec606279fc3e4b092ca40419bbedf(335c221)/thumb.jpg
,javascript:;,相聚麻辣烫,http://www.dianping.com/shop/21643418,岳阳楼区,"113.11817,29.35282",13077193356,"{'url': u'http://www.dianping.com/mylist/2872884', 'intro': u'\u7ea2\u6f06\u7684\u77ee\u65b9\u684c\u3001\u5c0f\u51f3\u5b50\uff0c\u4e00\u9505\u7ea2\u6c64\uff0c\u548c\u4e00\u5927\u628a\u4e00\u5927\u628a\u7684\u7af9\u7b7e\u6784\u6210\u4e86\u4e00\u9053\u7279\u522b\u98ce\u666f\u3002\u6765\u81ea\u6210\u90fd...', 'title': u'\u3010\u5cb3\u9633\u3011\u9c9c\u9999\u9ebb\u8fa3 \u8857\u8fb9\u90a3\u4e00\u7897\u4f20\u5947\u4e32\u4e32\u9999'}",云梦路永和豆浆斜对面,http://i2.s1.dpfile.com/pc/58c6dab29d6a5611c805c27e8d5247b2(335c221)/thumb.jpg
,javascript:;,陆老爹猪脚,http://www.dianping.com/shop/20688673,岳阳楼区,"113.10547,29.37406",18173063911,"{'url': u'http://www.dianping.com/mylist/2876705', 'intro': u'\u8ddf\u7740\u5c0f\u7f16\u627e\u51fa\u85cf\u5728\u8857\u5934\u5df7\u5c3e\u7684\u7f8e\u5473\u9762\u9986\u5427', 'title': u'\u3010\u5cb3\u9633\u3011\u6316\u51fa\u85cf\u5728\u8857\u5934\u5df7\u5c3e\u7684\u7f8e\u5473\u9762\u9986'}",步行街台湾美食城入口处,http://i1.s1.dpfile.com/pc/dda1a502eafdf1c89b0a2bee1a5323ab(335c221)/thumb.jpg
,javascript:;,百年荆州炸酱面,http://www.dianping.com/shop/21736839,岳阳楼区,"113.10761,29.36738",18607315850,"{'url': u'http://www.dianping.com/mylist/2876705', 'intro': u'\u8ddf\u7740\u5c0f\u7f16\u627e\u51fa\u85cf\u5728\u8857\u5934\u5df7\u5c3e\u7684\u7f8e\u5473\u9762\u9986\u5427', 'title': u'\u3010\u5cb3\u9633\u3011\u6316\u51fa\u85cf\u5728\u8857\u5934\u5df7\u5c3e\u7684\u7f8e\u5473\u9762\u9986'}",得胜南路192号,http://i2.s2.dpfile.com/pc/5198fc407af12f957e794f9d5dba861f(335c221)/thumb.jpg
,javascript:;,园味私房菜,http://www.dianping.com/shop/24661727,岳阳楼区,"113.17661,29.35104",,"{'url': u'http://www.dianping.com/mylist/2877657', 'intro': u'&ldquo;\u79c1\u623f\u83dc&rdquo;\uff0c\u662f\u65e0\u724c\u7167\u3001\u65e0\u8dd1\u5802\u3001\u65e0\u56fa\u5b9a\u83dc\u5355\uff0c\u60df\u72ec\u53a8\u5e08\u6709\u624b\u827a\u7684\u5c0f\u672c\u9910\u996e&ldq...', 'title': u'\u5bfb\u89c5\u5cb3\u9633\u597d\u5403\u53c8\u7f8e\u5473\u7684\u79c1\u623f\u83dc\u9986'}",八字门中南市场中南酒店旁,http://i3.s2.dpfile.com/pc/7c54ca68ce168598136ccfaffec5c739(335c221)/thumb.jpg
"[{'dish': u'http://www.dianping.com/shop/22355777/dish-%E9%B1%BC%E6%9D%82%E7%B2%89', 'name': u'\u9c7c\u6742\u7c89'}]",javascript:;,徐记鱼粉,http://www.dianping.com/shop/22355777,岳阳楼区,"113.10689,29.36474",0730-3352999,"{'url': u'http://www.dianping.com/mylist/2876705', 'intro': u'\u8ddf\u7740\u5c0f\u7f16\u627e\u51fa\u85cf\u5728\u8857\u5934\u5df7\u5c3e\u7684\u7f8e\u5473\u9762\u9986\u5427', 'title': u'\u3010\u5cb3\u9633\u3011\u6316\u51fa\u85cf\u5728\u8857\u5934\u5df7\u5c3e\u7684\u7f8e\u5473\u9762\u9986'}",得胜南路236号螺丝港都市精灵幼儿园旁,http://i3.s2.dpfile.com/pc/64317798bbfc33e17df00736e04b4dcf(335c221)/thumb.jpg
,,红云卤粉,http://www.dianping.com/shop/8856766,岳阳楼区,"113.128810000257,29.3570100000061",,"{'url': u'http://www.dianping.com/mylist/2795189', 'intro': u'\u708e\u708e\u590f\u65e5\uff0c\u6765\u4e00\u7897\u5364\u7c89\u7684\u65e9\u6668\u4f1a\u66f4\u52a0\u6709\u80fd\u91cf\u5662~\u6dcb\u4e0a\u9999\u918b\u6216\u662f\u8fa3\u6912\u6cb9\u7b49\u8c03\u5473\u540e\uff0c\u53e3\u611f\u66f4\u4e30\u5bcc...', 'title': u'\u3010\u5cb3\u9633\u3011\u8fd9\u4e2a\u590f\u5929\u4e0d\u80fd\u653e\u8fc7\u7684\u4eba\u6c14\u5364\u7c89\u5e97'}",金鹗中路,http://i3.s2.dpfile.com/pc/4c35108331180a281bfb3992d97d03ba(335c221)/thumb.jpg
,javascript:;,刘聋子面馆,http://www.dianping.com/shop/23460015,岳阳楼区,"0.0,0.0",18673057220,"{'url': u'http://www.dianping.com/mylist/2876705', 'intro': u'\u8ddf\u7740\u5c0f\u7f16\u627e\u51fa\u85cf\u5728\u8857\u5934\u5df7\u5c3e\u7684\u7f8e\u5473\u9762\u9986\u5427', 'title': u'\u3010\u5cb3\u9633\u3011\u6316\u51fa\u85cf\u5728\u8857\u5934\u5df7\u5c3e\u7684\u7f8e\u5473\u9762\u9986'}",站前路小学旁,http://i2.s2.dpfile.com/pc/75215d551ab0da0b7cfeb65d0ad5ad56(335c221)/thumb.jpg
,javascript:;,重庆小面,http://www.dianping.com/shop/22636353,岳阳楼区,"113.10647,29.37251",15173010175,"{'url': u'http://www.dianping.com/mylist/2876705', 'intro': u'\u8ddf\u7740\u5c0f\u7f16\u627e\u51fa\u85cf\u5728\u8857\u5934\u5df7\u5c3e\u7684\u7f8e\u5473\u9762\u9986\u5427', 'title': u'\u3010\u5cb3\u9633\u3011\u6316\u51fa\u85cf\u5728\u8857\u5934\u5df7\u5c3e\u7684\u7f8e\u5473\u9762\u9986'}",东茅岭步行街如意市场(小吃街),http://i2.s2.dpfile.com/pc/267979a0efb6606fafbd6b7c547672ed(335c221)/thumb.jpg
,javascript:;,易记炸酱面(七中点),http://www.dianping.com/shop/21793081,岳阳楼区,"113.13013,29.3713",17877700789,"{'url': u'http://www.dianping.com/mylist/2876705', 'intro': u'\u8ddf\u7740\u5c0f\u7f16\u627e\u51fa\u85cf\u5728\u8857\u5934\u5df7\u5c3e\u7684\u7f8e\u5473\u9762\u9986\u5427', 'title': u'\u3010\u5cb3\u9633\u3011\u6316\u51fa\u85cf\u5728\u8857\u5934\u5df7\u5c3e\u7684\u7f8e\u5473\u9762\u9986'}",市七中对面,http://i1.s1.dpfile.com/pc/523a70da4417e5475e05c89556fef482(335c221)/thumb.jpg
,,淮南牛肉汤面馆,http://www.dianping.com/shop/21985109,岳阳楼区,"113.10593,29.35451",0730-8983797,"{'url': u'http://www.dianping.com/mylist/2876705', 'intro': u'\u8ddf\u7740\u5c0f\u7f16\u627e\u51fa\u85cf\u5728\u8857\u5934\u5df7\u5c3e\u7684\u7f8e\u5473\u9762\u9986\u5427', 'title': u'\u3010\u5cb3\u9633\u3011\u6316\u51fa\u85cf\u5728\u8857\u5934\u5df7\u5c3e\u7684\u7f8e\u5473\u9762\u9986'}",得胜南路592号(七彩艺校对面),http://i2.s1.dpfile.com/pc/5f160091f68aedafe91ba7cf07aca8ae(335c221)/thumb.jpg
,javascript:;,五尖山国家森林公园,http://www.dianping.com/shop/9317996,临湘市其他,"113.419077,29.480433",,"{'url': u'http://www.dianping.com/mylist/1572931', 'intro': u'\u63a8\u8350\u4e00\u4e9b\u4e0d\u9519\u7684\u666f\u70b9\uff0c\u9002\u5408\u5468\u672b\u6e38\u548c\u90ca\u6e38\u3002\u653e\u677e\u5fc3\u60c5\u62e5\u62b1\u5927\u81ea\u7136\u53bb\u5427\uff01', 'title': u'\u3010\u5cb3\u9633\u3011\u672c\u57ce\u5fc5\u73a9\u7684\u666f\u70b9'}",森林路1号,http://i1.s1.dpfile.com/pc/51900361da125a13f75cd4a22630ad6c(335c221)/thumb.jpg
,javascript:;,姊妹俩土豆粉,http://www.dianping.com/shop/15911687,岳阳楼区,"113.106295,29.372841",0730-8976118,"{'url': u'http://www.dianping.com/mylist/2876705', 'intro': u'\u8ddf\u7740\u5c0f\u7f16\u627e\u51fa\u85cf\u5728\u8857\u5934\u5df7\u5c3e\u7684\u7f8e\u5473\u9762\u9986\u5427', 'title': u'\u3010\u5cb3\u9633\u3011\u6316\u51fa\u85cf\u5728\u8857\u5934\u5df7\u5c3e\u7684\u7f8e\u5473\u9762\u9986'}",步行街小吃街内(中国建设银行对面),http://i3.s2.dpfile.com/pc/5e6ec8aa4db7922f7fcd1b64fe3d331d(335c221)/thumb.jpg
,,金鹗公园,http://www.dianping.com/shop/5715149,岳阳楼区,"113.1177,29.36155",0730-8222499,"{'url': u'http://www.dianping.com/mylist/1572931', 'intro': u'\u63a8\u8350\u4e00\u4e9b\u4e0d\u9519\u7684\u666f\u70b9\uff0c\u9002\u5408\u5468\u672b\u6e38\u548c\u90ca\u6e38\u3002\u653e\u677e\u5fc3\u60c5\u62e5\u62b1\u5927\u81ea\u7136\u53bb\u5427\uff01', 'title': u'\u3010\u5cb3\u9633\u3011\u672c\u57ce\u5fc5\u73a9\u7684\u666f\u70b9'}",南湖大道489号,http://i3.s1.dpfile.com/pc/5d247ab28fd4ad09d97d149eb9858b9b(335c221)/thumb.jpg
,javascript:;,君山公园,http://www.dianping.com/shop/2789617,君山区,"113.014786,29.3542",0730-8240313,"{'url': u'http://www.dianping.com/mylist/1572931', 'intro': u'\u63a8\u8350\u4e00\u4e9b\u4e0d\u9519\u7684\u666f\u70b9\uff0c\u9002\u5408\u5468\u672b\u6e38\u548c\u90ca\u6e38\u3002\u653e\u677e\u5fc3\u60c5\u62e5\u62b1\u5927\u81ea\u7136\u53bb\u5427\uff01', 'title': u'\u3010\u5cb3\u9633\u3011\u672c\u57ce\u5fc5\u73a9\u7684\u666f\u70b9'}",东洞庭湖国家级自然保护区,http://i2.s2.dpfile.com/2008-10-11/1036221_b.jpg(335c221)/thumb.jpg
,javascript:;,岳阳楼,http://www.dianping.com/shop/2979946,岳阳楼区,"113.094034194946,29.3819694024764",0730-8319435,"{'url': u'http://www.dianping.com/mylist/1572931', 'intro': u'\u63a8\u8350\u4e00\u4e9b\u4e0d\u9519\u7684\u666f\u70b9\uff0c\u9002\u5408\u5468\u672b\u6e38\u548c\u90ca\u6e38\u3002\u653e\u677e\u5fc3\u60c5\u62e5\u62b1\u5927\u81ea\u7136\u53bb\u5427\uff01', 'title': u'\u3010\u5cb3\u9633\u3011\u672c\u57ce\u5fc5\u73a9\u7684\u666f\u70b9'}",洞庭北路(近汴河街),http://i2.s2.dpfile.com/pc/0686ef4565dba64689c0fddf63ce48cc(335c221)/thumb.jpg
"[{'dish': u'http://www.dianping.com/shop/3573139/dish-%E7%83%A7%E7%83%A4', 'name': u'\u70e7\u70e4'}, {'dish': u'http://www.dianping.com/shop/3573139/dish-%E5%8F%A3%E5%91%B3%E8%99%BE', 'name': u'\u53e3\u5473\u867e'}, {'dish': u'http://www.dianping.com/shop/3573139/dish-%E7%89%9B%E7%AD%8B', 'name': u'\u725b\u7b4b'}, {'dish': u'http://www.dianping.com/shop/3573139/dish-%E7%83%A7%E7%83%A4', 'name': u'\u70e7\u70e4'}]",,三毛烧烤,http://www.dianping.com/shop/3573139,岳阳楼区,"113.1105599,29.37049581",0730-8750001,"{'url': u'http://www.dianping.com/mylist/1573545', 'intro': u'\u4fd7\u8bdd\u8bf4\uff1a\u5173\u952e\u4e0d\u662f\u5403\u4ec0\u4e48\uff0c\u800c\u662f\u548c\u8c01\u53bb\u3002\u591c\u732b\u5b50\u5374\u8bf4\uff1a\u5173\u952e\u4e0d\u662f\u548c\u8c01\u53bb\uff0c\u800c\u662f\u5728\u4ec0\u4e48\u65f6\u95f4\u5403...', 'title': u'\u3010\u5cb3\u9633\u3011\u5bb5\u591c\u70e7\u70e4\u5403\u8d77\u6765'}",炮台山路新胜巷内,http://i3.s1.dpfile.com/pc/21e59b980367b260dacadae37c1db1b0(335c221)/thumb.jpg
,javascript:;,牛太郎时尚自助烧烤,http://www.dianping.com/shop/8909084,岳阳楼区,"113.1097,29.37328",0730-2915188,"{'url': u'http://www.dianping.com/mylist/1573545', 'intro': u'\u4fd7\u8bdd\u8bf4\uff1a\u5173\u952e\u4e0d\u662f\u5403\u4ec0\u4e48\uff0c\u800c\u662f\u548c\u8c01\u53bb\u3002\u591c\u732b\u5b50\u5374\u8bf4\uff1a\u5173\u952e\u4e0d\u662f\u548c\u8c01\u53bb\uff0c\u800c\u662f\u5728\u4ec0\u4e48\u65f6\u95f4\u5403...', 'title': u'\u3010\u5cb3\u9633\u3011\u5bb5\u591c\u70e7\u70e4\u5403\u8d77\u6765'}",岳阳商业步行广场地一大道中心广场负二楼(步行街王子鞋城门口爱心献血屋后牛太郎专用通道),http://i2.s1.dpfile.com/pc/a788d52a5ccfb4ce12bc6bc1245af3cb(335c221)/thumb.jpg
"[{'dish': u'http://www.dianping.com/shop/8689789/dish-%E7%83%A4%E9%B1%BC', 'name': u'\u70e4\u9c7c'}, {'dish': u'http://www.dianping.com/shop/8689789/dish-%E8%93%9D%E8%8E%93%E5%B1%B1%E8%8D%AF%E7%B3%95', 'name': u'\u84dd\u8393\u5c71\u836f\u7cd5'}, {'dish': u'http://www.dianping.com/shop/8689789/dish-%E9%BA%BB%E8%BE%A3%E9%A6%99%E9%94%85', 'name': u'\u9ebb\u8fa3\u9999\u9505'}, {'dish': u'http://www.dianping.com/shop/8689789/dish-%E7%83%A4%E9%B1%BC', 'name': u'\u70e4\u9c7c'}, {'dish': u'http://www.dianping.com/shop/8689789/dish-%E9%BA%BB%E8%BE%A3%E9%A6%99%E9%94%85', 'name': u'\u9ebb\u8fa3\u9999\u9505'}]",,辣尚瘾,http://www.dianping.com/shop/8689789,岳阳楼区,"113.1296337,29.36349414",0730-8967979,"{'url': u'http://www.dianping.com/mylist/1573545', 'intro': u'\u4fd7\u8bdd\u8bf4\uff1a\u5173\u952e\u4e0d\u662f\u5403\u4ec0\u4e48\uff0c\u800c\u662f\u548c\u8c01\u53bb\u3002\u591c\u732b\u5b50\u5374\u8bf4\uff1a\u5173\u952e\u4e0d\u662f\u548c\u8c01\u53bb\uff0c\u800c\u662f\u5728\u4ec0\u4e48\u65f6\u95f4\u5403...', 'title': u'\u3010\u5cb3\u9633\u3011\u5bb5\u591c\u70e7\u70e4\u5403\u8d77\u6765'}",建湘路天伦金三角购物公园3楼美食城3007号(大润发三楼),http://i2.s1.dpfile.com/pc/94eedb2be87af98c25ead28ac4223fd7(335c221)/thumb.jpg
"[{'dish': u'http://www.dianping.com/shop/8006184/dish-%E7%83%A4%E9%B1%BC', 'name': u'\u70e4\u9c7c'}]",,三毛烧烤,http://www.dianping.com/shop/8006184,君山区,"113.0042699,29.43801452",,"{'url': u'http://www.dianping.com/mylist/1573545', 'intro': u'\u4fd7\u8bdd\u8bf4\uff1a\u5173\u952e\u4e0d\u662f\u5403\u4ec0\u4e48\uff0c\u800c\u662f\u548c\u8c01\u53bb\u3002\u591c\u732b\u5b50\u5374\u8bf4\uff1a\u5173\u952e\u4e0d\u662f\u548c\u8c01\u53bb\uff0c\u800c\u662f\u5728\u4ec0\u4e48\u65f6\u95f4\u5403...', 'title': u'\u3010\u5cb3\u9633\u3011\u5bb5\u591c\u70e7\u70e4\u5403\u8d77\u6765'}",君山大道机关小区对面,http://i3.s2.dpfile.com/pc/25fabb99e6fa1a760ca9a17ad66c8b4e(335c221)/thumb.jpg
,javascript:;,松临料理铁板烧,http://www.dianping.com/shop/5437335,岳阳楼区,"113.147648000213,29.3570359998851",0730-8096999,"{'url': u'http://www.dianping.com/mylist/1573545', 'intro': u'\u4fd7\u8bdd\u8bf4\uff1a\u5173\u952e\u4e0d\u662f\u5403\u4ec0\u4e48\uff0c\u800c\u662f\u548c\u8c01\u53bb\u3002\u591c\u732b\u5b50\u5374\u8bf4\uff1a\u5173\u952e\u4e0d\u662f\u548c\u8c01\u53bb\uff0c\u800c\u662f\u5728\u4ec0\u4e48\u65f6\u95f4\u5403...', 'title': u'\u3010\u5cb3\u9633\u3011\u5bb5\u591c\u70e7\u70e4\u5403\u8d77\u6765'}",岳阳大道金鹗东路190号华瑞丹枫酒店内(近枫树新村),http://i3.s1.dpfile.com/pc/4fb5ffa0dd9cdd5679a0c8939aa4ffe0(335c221)/thumb.jpg
"[{'dish': u'http://www.dianping.com/shop/2564281/dish-%E7%88%86%E7%82%92%E8%82%A5%E8%82%A0', 'name': u'\u7206\u7092\u80a5\u80a0'}]",,猫仔美食,http://www.dianping.com/shop/2564281,临湘市其他,"112.888003,29.530736",,"{'url': u'http://www.dianping.com/mylist/1573545', 'intro': u'\u4fd7\u8bdd\u8bf4\uff1a\u5173\u952e\u4e0d\u662f\u5403\u4ec0\u4e48\uff0c\u800c\u662f\u548c\u8c01\u53bb\u3002\u591c\u732b\u5b50\u5374\u8bf4\uff1a\u5173\u952e\u4e0d\u662f\u548c\u8c01\u53bb\uff0c\u800c\u662f\u5728\u4ec0\u4e48\u65f6\u95f4\u5403...', 'title': u'\u3010\u5cb3\u9633\u3011\u5bb5\u591c\u70e7\u70e4\u5403\u8d77\u6765'}",路中修制厂1号,http://i1.s1.dpfile.com/pc/67787e14b672ffebcd85c5fb3691a347(335c221)/thumb.jpg
"[{'dish': u'http://www.dianping.com/shop/8862521/dish-%E6%8B%8C%E9%A5%AD%E5%BE%88%E5%A5%BD%E5%90%83!', 'name': u'\u62cc\u996d\u5f88\u597d\u5403!'}]",,百度烤肉,http://www.dianping.com/shop/8862521,岳阳楼区,"113.115825800105,29.3698999000051",0730-8881717,"{'url': u'http://www.dianping.com/mylist/1573545', 'intro': u'\u4fd7\u8bdd\u8bf4\uff1a\u5173\u952e\u4e0d\u662f\u5403\u4ec0\u4e48\uff0c\u800c\u662f\u548c\u8c01\u53bb\u3002\u591c\u732b\u5b50\u5374\u8bf4\uff1a\u5173\u952e\u4e0d\u662f\u548c\u8c01\u53bb\uff0c\u800c\u662f\u5728\u4ec0\u4e48\u65f6\u95f4\u5403...', 'title': u'\u3010\u5cb3\u9633\u3011\u5bb5\u591c\u70e7\u70e4\u5403\u8d77\u6765'}",东茅岭路土桥新格里时尚广场4楼(土桥农业银行正对面),http://i1.s2.dpfile.com/pc/66f87dc83d43c9aff31eaab77d3c886a(335c221)/thumb.jpg
"[{'dish': u'http://www.dianping.com/shop/6128404/dish-%E5%9F%B9%E6%A0%B9', 'name': u'\u57f9\u6839'}, {'dish': u'http://www.dianping.com/shop/6128404/dish-%E5%90%84%E7%A7%8D%E8%82%89', 'name': u'\u5404\u79cd\u8089'}, {'dish': u'http://www.dianping.com/shop/6128404/dish-%E7%89%9B%E8%82%89', 'name': u'\u725b\u8089'}]",javascript:;,牛太郎烧烤,http://www.dianping.com/shop/6128404,岳阳楼区,"113.13825,29.35679",0730-2998368,"{'url': u'http://www.dianping.com/mylist/1573545', 'intro': u'\u4fd7\u8bdd\u8bf4\uff1a\u5173\u952e\u4e0d\u662f\u5403\u4ec0\u4e48\uff0c\u800c\u662f\u548c\u8c01\u53bb\u3002\u591c\u732b\u5b50\u5374\u8bf4\uff1a\u5173\u952e\u4e0d\u662f\u548c\u8c01\u53bb\uff0c\u800c\u662f\u5728\u4ec0\u4e48\u65f6\u95f4\u5403...', 'title': u'\u3010\u5cb3\u9633\u3011\u5bb5\u591c\u70e7\u70e4\u5403\u8d77\u6765'}",花板桥步步高广场6楼,http://i3.s2.dpfile.com/pc/f28e6c5c93a482859ad71615a7ab4c38(335c221)/thumb.jpg
,,品悦港式点心甜品,http://www.dianping.com/shop/18185827,岳阳楼区,"113.1247,29.35589",0730-8953099,"{'url': u'http://www.dianping.com/mylist/2206626', 'intro': u'\u7cd6\u6c34\u662f\u5e7f\u4e1c\u5730\u533a\u6c49\u65cf\u751c\u54c1\u5c0f\u5403\u7684\u603b\u79f0\uff0c\u4e00\u5e74\u56db\u5b63\u90fd\u8d85\u53d7MM\u6b22\u8fce\uff0c\u5cb3\u9633\u8d85\u4eba\u6c14\u7684\u7cd6\u6c34\u94fa\u6709\u54ea\u4e9b...', 'title': u'\u3010\u5cb3\u9633\u3011\u751c\u54c1\u63a7\u5fc5\u6765 \u4eba\u6c14\u7206\u8868\u7684\u7cd6\u6c34\u94fa'}","白杨坡路德郡卡布奇诺小区,临街108号门面,靠近八中",http://i3.s1.dpfile.com/pc/ac132fe392a111fd0ff3cef56c1213aa(335c221)/thumb.jpg
,,美和甜品,http://www.dianping.com/shop/13860472,岳阳楼区,"113.09488,29.37423",,"{'url': u'http://www.dianping.com/mylist/2206626', 'intro': u'\u7cd6\u6c34\u662f\u5e7f\u4e1c\u5730\u533a\u6c49\u65cf\u751c\u54c1\u5c0f\u5403\u7684\u603b\u79f0\uff0c\u4e00\u5e74\u56db\u5b63\u90fd\u8d85\u53d7MM\u6b22\u8fce\uff0c\u5cb3\u9633\u8d85\u4eba\u6c14\u7684\u7cd6\u6c34\u94fa\u6709\u54ea\u4e9b...', 'title': u'\u3010\u5cb3\u9633\u3011\u751c\u54c1\u63a7\u5fc5\u6765 \u4eba\u6c14\u7206\u8868\u7684\u7cd6\u6c34\u94fa'}",汴河街(保利西街),http://i2.s2.dpfile.com/pc/7ba3b1f3501f36e94fcf98121245aa93(335c221)/thumb.jpg
,javascript:;,Miss港式甜品站,http://www.dianping.com/shop/13848236,岳阳楼区,"113.09714,29.37462",18684723421,"{'url': u'http://www.dianping.com/mylist/2206626', 'intro': u'\u7cd6\u6c34\u662f\u5e7f\u4e1c\u5730\u533a\u6c49\u65cf\u751c\u54c1\u5c0f\u5403\u7684\u603b\u79f0\uff0c\u4e00\u5e74\u56db\u5b63\u90fd\u8d85\u53d7MM\u6b22\u8fce\uff0c\u5cb3\u9633\u8d85\u4eba\u6c14\u7684\u7cd6\u6c34\u94fa\u6709\u54ea\u4e9b...', 'title': u'\u3010\u5cb3\u9633\u3011\u751c\u54c1\u63a7\u5fc5\u6765 \u4eba\u6c14\u7206\u8868\u7684\u7cd6\u6c34\u94fa'}",保利西街16棟121号(卞河街对面),http://i1.s2.dpfile.com/pc/51bb8946c9c8cffaff4999eee6776a99(335c221)/thumb.jpg
,,茗记甜品,http://www.dianping.com/shop/22350648,平江县其他,"113.58214,28.7042",0730-6666203,"{'url': u'http://www.dianping.com/mylist/2206626', 'intro': u'\u7cd6\u6c34\u662f\u5e7f\u4e1c\u5730\u533a\u6c49\u65cf\u751c\u54c1\u5c0f\u5403\u7684\u603b\u79f0\uff0c\u4e00\u5e74\u56db\u5b63\u90fd\u8d85\u53d7MM\u6b22\u8fce\uff0c\u5cb3\u9633\u8d85\u4eba\u6c14\u7684\u7cd6\u6c34\u94fa\u6709\u54ea\u4e9b...', 'title': u'\u3010\u5cb3\u9633\u3011\u751c\u54c1\u63a7\u5fc5\u6765 \u4eba\u6c14\u7206\u8868\u7684\u7cd6\u6c34\u94fa'}",县城十字街君子巷米萝咖啡后侧,http://i2.s2.dpfile.com/pc/b470cb2b5c8da4a8e446394aa714c848(335c221)/thumb.jpg
,,恒记甜品,http://www.dianping.com/shop/14171503,岳阳楼区,"113.0944273,29.37659113",18673086633,"{'url': u'http://www.dianping.com/mylist/2206626', 'intro': u'\u7cd6\u6c34\u662f\u5e7f\u4e1c\u5730\u533a\u6c49\u65cf\u751c\u54c1\u5c0f\u5403\u7684\u603b\u79f0\uff0c\u4e00\u5e74\u56db\u5b63\u90fd\u8d85\u53d7MM\u6b22\u8fce\uff0c\u5cb3\u9633\u8d85\u4eba\u6c14\u7684\u7cd6\u6c34\u94fa\u6709\u54ea\u4e9b...', 'title': u'\u3010\u5cb3\u9633\u3011\u751c\u54c1\u63a7\u5fc5\u6765 \u4eba\u6c14\u7206\u8868\u7684\u7cd6\u6c34\u94fa'}",汴河街C区75号(金龟天井旁),http://i2.s1.dpfile.com/pc/1d8bbfdc36785e7c7d3f29d370b066a6(335c221)/thumb.jpg
"[{'dish': u'http://waimai.dianping.com/dish/13716211', 'name': None}, {'dish': u'http://www.dianping.com/shop/13716211/dish-%E6%A6%B4%E8%8E%B2%E5%BF%98%E8%BF%94', 'name': u'\u69b4\u83b2\u5fd8\u8fd4'}]",javascript:;,初见港式甜品,http://www.dianping.com/shop/13716211,岳阳楼区,"113.10683,29.37175",0730-8975705,"{'url': u'http://www.dianping.com/mylist/2206626', 'intro': u'\u7cd6\u6c34\u662f\u5e7f\u4e1c\u5730\u533a\u6c49\u65cf\u751c\u54c1\u5c0f\u5403\u7684\u603b\u79f0\uff0c\u4e00\u5e74\u56db\u5b63\u90fd\u8d85\u53d7MM\u6b22\u8fce\uff0c\u5cb3\u9633\u8d85\u4eba\u6c14\u7684\u7cd6\u6c34\u94fa\u6709\u54ea\u4e9b...', 'title': u'\u3010\u5cb3\u9633\u3011\u751c\u54c1\u63a7\u5fc5\u6765 \u4eba\u6c14\u7206\u8868\u7684\u7cd6\u6c34\u94fa'}",南辅道79号(小吃街公交站牌处),http://i3.s2.dpfile.com/pc/c90b98e04b52588f162d3bce83b629b1(335c221)/thumb.jpg
,,LiLi甜品,http://www.dianping.com/shop/21373754,岳阳楼区,"113.120603432,29.3476752683",18873086801,"{'url': u'http://www.dianping.com/mylist/2206626', 'intro': u'\u7cd6\u6c34\u662f\u5e7f\u4e1c\u5730\u533a\u6c49\u65cf\u751c\u54c1\u5c0f\u5403\u7684\u603b\u79f0\uff0c\u4e00\u5e74\u56db\u5b63\u90fd\u8d85\u53d7MM\u6b22\u8fce\uff0c\u5cb3\u9633\u8d85\u4eba\u6c14\u7684\u7cd6\u6c34\u94fa\u6709\u54ea\u4e9b...', 'title': u'\u3010\u5cb3\u9633\u3011\u751c\u54c1\u63a7\u5fc5\u6765 \u4eba\u6c14\u7206\u8868\u7684\u7cd6\u6c34\u94fa'}",南湖游路旁多喜来蛋糕旁,http://i2.s1.dpfile.com/pc/77bfd0b1e52ceca7484ecc1d2d566c0f(335c221)/thumb.jpg
,,顺记甜品,http://www.dianping.com/shop/6830092,岳阳楼区,"113.12957,29.36335",0730-8218056,"{'url': u'http://www.dianping.com/mylist/2206626', 'intro': u'\u7cd6\u6c34\u662f\u5e7f\u4e1c\u5730\u533a\u6c49\u65cf\u751c\u54c1\u5c0f\u5403\u7684\u603b\u79f0\uff0c\u4e00\u5e74\u56db\u5b63\u90fd\u8d85\u53d7MM\u6b22\u8fce\uff0c\u5cb3\u9633\u8d85\u4eba\u6c14\u7684\u7cd6\u6c34\u94fa\u6709\u54ea\u4e9b...', 'title': u'\u3010\u5cb3\u9633\u3011\u751c\u54c1\u63a7\u5fc5\u6765 \u4eba\u6c14\u7206\u8868\u7684\u7cd6\u6c34\u94fa'}",天伦城步行街郁金香街114号(华莱士旁 德克士斜对面),http://i3.s2.dpfile.com/pc/270e859ca696f806ac147f3da07776b4(335c221)/thumb.jpg
"[{'dish': u'http://www.dianping.com/shop/19422009/dish-%E8%8A%92%E6%9E%9C%E7%8F%AD%E6%88%9F', 'name': u'\u8292\u679c\u73ed\u621f'}, {'dish': u'http://www.dianping.com/shop/19422009/dish-%E8%8A%92%E6%9E%9C%E7%8F%AD%E6%88%9F', 'name': u'\u8292\u679c\u73ed\u621f'}]",,恒记甜品,http://www.dianping.com/shop/19422009,岳阳楼区,"113.11321,29.37073",18673063337,"{'url': u'http://www.dianping.com/mylist/2206626', 'intro': u'\u7cd6\u6c34\u662f\u5e7f\u4e1c\u5730\u533a\u6c49\u65cf\u751c\u54c1\u5c0f\u5403\u7684\u603b\u79f0\uff0c\u4e00\u5e74\u56db\u5b63\u90fd\u8d85\u53d7MM\u6b22\u8fce\uff0c\u5cb3\u9633\u8d85\u4eba\u6c14\u7684\u7cd6\u6c34\u94fa\u6709\u54ea\u4e9b...', 'title': u'\u3010\u5cb3\u9633\u3011\u751c\u54c1\u63a7\u5fc5\u6765 \u4eba\u6c14\u7206\u8868\u7684\u7cd6\u6c34\u94fa'}",东茅岭路土桥商业街(弘明•印象文化园2号门面),http://i2.s1.dpfile.com/pc/0a9f3a24ff4ca603c3ca61fea63750bd(335c221)/thumb.jpg
,,波妞家,http://www.dianping.com/shop/20894720,岳阳楼区,"113.09424,29.37624",18673003187,"{'url': u'http://www.dianping.com/mylist/1651939', 'intro': u'\u73b0\u5728\u5f88\u591a\u9910\u5385\u4e0d\u5149\u8ffd\u6c42\u7f8e\u98df\u7684\u53ef\u53e3\uff0c\u73af\u5883\u7684\u7279\u522b\uff0c\u8fd8\u5f88\u8bb2\u7a76\u5e97\u540d\u7684\u5671\u5934\uff0c\u6709\u90a3\u4e48\u4e9b\u9910\u5385\u4f60\u4e00...', 'title': u'duang\uff01\u5cb3\u9633\u90a3\u4e9b\u540d\u5b57\u5f88\u5947\u8469\u7684\u65b0\u5947\u9910\u5385'}",汴河街67—68号,http://i1.s1.dpfile.com/pc/822c71e6e0a7a8ec325c0c9e79cd34b3(335c221)/thumb.jpg
"[{'dish': u'http://www.dianping.com/shop/3347887/dish-%E4%B8%91%E5%B0%8F%E9%B8%AD', 'name': u'\u4e11\u5c0f\u9e2d'}, {'dish': u'http://www.dianping.com/shop/3347887/dish-%E6%89%8B%E6%92%95%E5%8C%85%E8%8F%9C', 'name': u'\u624b\u6495\u5305\u83dc'}, {'dish': u'http://www.dianping.com/shop/3347887/dish-%E5%8D%B0%E5%BA%A6%E7%94%A9%E9%A5%BC', 'name': u'\u5370\u5ea6\u7529\u997c'}, {'dish': u'http://www.dianping.com/shop/3347887/dish-%E4%B8%91%E5%B0%8F%E9%B8%AD', 'name': u'\u4e11\u5c0f\u9e2d'}]",,丑小鸭,http://www.dianping.com/shop/3347887,岳阳楼区,"113.1314003,29.3622903",0730-8612013,"{'url': u'http://www.dianping.com/mylist/1651939', 'intro': u'\u73b0\u5728\u5f88\u591a\u9910\u5385\u4e0d\u5149\u8ffd\u6c42\u7f8e\u98df\u7684\u53ef\u53e3\uff0c\u73af\u5883\u7684\u7279\u522b\uff0c\u8fd8\u5f88\u8bb2\u7a76\u5e97\u540d\u7684\u5671\u5934\uff0c\u6709\u90a3\u4e48\u4e9b\u9910\u5385\u4f60\u4e00...', 'title': u'duang\uff01\u5cb3\u9633\u90a3\u4e9b\u540d\u5b57\u5f88\u5947\u8469\u7684\u65b0\u5947\u9910\u5385'}",花板桥路四化建(近天伦城步行街),http://i3.s2.dpfile.com/pc/5c5714312ec7b569935046e8363ca333(335c221)/thumb.jpg
,javascript:;,天下奇香长沙臭豆腐,http://www.dianping.com/shop/19353708,岳阳楼区,"113.12529,29.37251",13873034378,"{'url': u'http://www.dianping.com/mylist/1651939', 'intro': u'\u73b0\u5728\u5f88\u591a\u9910\u5385\u4e0d\u5149\u8ffd\u6c42\u7f8e\u98df\u7684\u53ef\u53e3\uff0c\u73af\u5883\u7684\u7279\u522b\uff0c\u8fd8\u5f88\u8bb2\u7a76\u5e97\u540d\u7684\u5671\u5934\uff0c\u6709\u90a3\u4e48\u4e9b\u9910\u5385\u4f60\u4e00...', 'title': u'duang\uff01\u5cb3\u9633\u90a3\u4e9b\u540d\u5b57\u5f88\u5947\u8469\u7684\u65b0\u5947\u9910\u5385'}","沃尔玛金足鞋业斜对面,连云街与巴陵中路入口交界处",http://i3.s1.dpfile.com/pc/a86dd68661b5e1431f11479a633cc715(335c221)/thumb.jpg
,javascript:;,非茶不可,http://www.dianping.com/shop/19340021,华容县其他,"112.56555,29.52822",18974031590,"{'url': u'http://www.dianping.com/mylist/1651939', 'intro': u'\u73b0\u5728\u5f88\u591a\u9910\u5385\u4e0d\u5149\u8ffd\u6c42\u7f8e\u98df\u7684\u53ef\u53e3\uff0c\u73af\u5883\u7684\u7279\u522b\uff0c\u8fd8\u5f88\u8bb2\u7a76\u5e97\u540d\u7684\u5671\u5934\uff0c\u6709\u90a3\u4e48\u4e9b\u9910\u5385\u4f60\u4e00...', 'title': u'duang\uff01\u5cb3\u9633\u90a3\u4e9b\u540d\u5b57\u5f88\u5947\u8469\u7684\u65b0\u5947\u9910\u5385'}",城市广场三和国际影院电梯口正对面,http://i3.s2.dpfile.com/pc/df395ad765eb86efea13ab7bcabd3577(335c221)/thumb.jpg
"[{'dish': u'http://www.dianping.com/shop/13678008/dish-%E6%84%8F%E5%A4%A7%E5%88%A9%E7%83%A4%E8%82%89%E6%8A%AB%E8%90%A8', 'name': u'\u610f\u5927\u5229\u70e4\u8089\u62ab\u8428'}, {'dish': u'http://www.dianping.com/shop/13678008/dish-%E6%A6%B4%E8%8E%B2%E6%8A%AB%E8%90%A8', 'name': u'\u69b4\u83b2\u62ab\u8428'}]",javascript:;,我在柔软时光等你,http://www.dianping.com/shop/13678008,岳阳楼区,"113.106719999867,29.3718099999939",0730-8373666,"{'url': u'http://www.dianping.com/mylist/1651939', 'intro': u'\u73b0\u5728\u5f88\u591a\u9910\u5385\u4e0d\u5149\u8ffd\u6c42\u7f8e\u98df\u7684\u53ef\u53e3\uff0c\u73af\u5883\u7684\u7279\u522b\uff0c\u8fd8\u5f88\u8bb2\u7a76\u5e97\u540d\u7684\u5671\u5934\uff0c\u6709\u90a3\u4e48\u4e9b\u9910\u5385\u4f60\u4e00...', 'title': u'duang\uff01\u5cb3\u9633\u90a3\u4e9b\u540d\u5b57\u5f88\u5947\u8469\u7684\u65b0\u5947\u9910\u5385'}","步行街南辅道市工程住楼第13,14号门面(步行街南辅道公交站台旁)",http://i1.s1.dpfile.com/pc/58f1997aea56901842434dab031fef65(335c221)/thumb.jpg
,javascript:;,鸭头鱼尾,http://www.dianping.com/shop/17923501,岳阳楼区,"113.1252911,29.37250896",13973006802,"{'url': u'http://www.dianping.com/mylist/1651939', 'intro': u'\u73b0\u5728\u5f88\u591a\u9910\u5385\u4e0d\u5149\u8ffd\u6c42\u7f8e\u98df\u7684\u53ef\u53e3\uff0c\u73af\u5883\u7684\u7279\u522b\uff0c\u8fd8\u5f88\u8bb2\u7a76\u5e97\u540d\u7684\u5671\u5934\uff0c\u6709\u90a3\u4e48\u4e9b\u9910\u5385\u4f60\u4e00...', 'title': u'duang\uff01\u5cb3\u9633\u90a3\u4e9b\u540d\u5b57\u5f88\u5947\u8469\u7684\u65b0\u5947\u9910\u5385'}",沃尔玛后门农行对面,http://i3.s2.dpfile.com/pc/01f8794abd5da833f2061c00b813fb0a(335c221)/thumb.jpg
,,魔味鬼爪,http://www.dianping.com/shop/21361332,城关镇,"112.55872,29.52722",13607405299,"{'url': u'http://www.dianping.com/mylist/1651939', 'intro': u'\u73b0\u5728\u5f88\u591a\u9910\u5385\u4e0d\u5149\u8ffd\u6c42\u7f8e\u98df\u7684\u53ef\u53e3\uff0c\u73af\u5883\u7684\u7279\u522b\uff0c\u8fd8\u5f88\u8bb2\u7a76\u5e97\u540d\u7684\u5671\u5934\uff0c\u6709\u90a3\u4e48\u4e9b\u9910\u5385\u4f60\u4e00...', 'title': u'duang\uff01\u5cb3\u9633\u90a3\u4e9b\u540d\u5b57\u5f88\u5947\u8469\u7684\u65b0\u5947\u9910\u5385'}",城关镇飞宇楼下(中银大厦对面),http://i2.s2.dpfile.com/pc/2d6a39123d25fa74e8e2eab03ccb2105(335c221)/thumb.jpg
,,子曰•驴肉火烧,http://www.dianping.com/shop/19190405,岳阳楼区,"113.1068442,29.3723908",15377400887,"{'url': u'http://www.dianping.com/mylist/1651939', 'intro': u'\u73b0\u5728\u5f88\u591a\u9910\u5385\u4e0d\u5149\u8ffd\u6c42\u7f8e\u98df\u7684\u53ef\u53e3\uff0c\u73af\u5883\u7684\u7279\u522b\uff0c\u8fd8\u5f88\u8bb2\u7a76\u5e97\u540d\u7684\u5671\u5934\uff0c\u6709\u90a3\u4e48\u4e9b\u9910\u5385\u4f60\u4e00...', 'title': u'duang\uff01\u5cb3\u9633\u90a3\u4e9b\u540d\u5b57\u5f88\u5947\u8469\u7684\u65b0\u5947\u9910\u5385'}","东茅岭步行街如意市场(小吃街)85号,豆花妈妈隔壁",http://i2.s1.dpfile.com/pc/85a0f89f5ac19d2e6057198ea2f738c6(335c221)/thumb.jpg
"[{'dish': u'http://www.dianping.com/shop/18282139/dish-%E6%BE%B3%E8%91%A1%E6%9C%A8%E7%B3%A0', 'name': u'\u6fb3\u8461\u6728\u7ce0'}, {'dish': u'http://www.dianping.com/shop/18282139/dish-%E6%A6%B4%E8%8E%B2%E5%BF%98%E8%BF%94', 'name': u'\u69b4\u83b2\u5fd8\u8fd4'}]",javascript:;,榴芒熊夫妇,http://www.dianping.com/shop/18282139,岳阳楼区,"113.1129,29.37353",18607401011,"{'url': u'http://www.dianping.com/mylist/1651939', 'intro': u'\u73b0\u5728\u5f88\u591a\u9910\u5385\u4e0d\u5149\u8ffd\u6c42\u7f8e\u98df\u7684\u53ef\u53e3\uff0c\u73af\u5883\u7684\u7279\u522b\uff0c\u8fd8\u5f88\u8bb2\u7a76\u5e97\u540d\u7684\u5671\u5934\uff0c\u6709\u90a3\u4e48\u4e9b\u9910\u5385\u4f60\u4e00...', 'title': u'duang\uff01\u5cb3\u9633\u90a3\u4e9b\u540d\u5b57\u5f88\u5947\u8469\u7684\u65b0\u5947\u9910\u5385'}",巴陵中路巴陵尚都一栋1单元5楼(岳阳市一医院后面),http://i3.s2.dpfile.com/pc/6c6e22d3db01603cbb2f6a0f39183b05(335c221)/thumb.jpg
,,猪八脚,http://www.dianping.com/shop/21113446,岳阳楼区,"113.11457,29.35575",13327308818,"{'url': u'http://www.dianping.com/mylist/1651939', 'intro': u'\u73b0\u5728\u5f88\u591a\u9910\u5385\u4e0d\u5149\u8ffd\u6c42\u7f8e\u98df\u7684\u53ef\u53e3\uff0c\u73af\u5883\u7684\u7279\u522b\uff0c\u8fd8\u5f88\u8bb2\u7a76\u5e97\u540d\u7684\u5671\u5934\uff0c\u6709\u90a3\u4e48\u4e9b\u9910\u5385\u4f60\u4e00...', 'title': u'duang\uff01\u5cb3\u9633\u90a3\u4e9b\u540d\u5b57\u5f88\u5947\u8469\u7684\u65b0\u5947\u9910\u5385'}",南湖苗圃(泰和大酒店),http://i1.s1.dpfile.com/pc/c2d710da2ccfd94cd99322c2c40706ff(335c221)/thumb.jpg
,,菜园门私房菜,http://www.dianping.com/shop/6024087,岳阳楼区,"113.1505681,29.3605714",0730-3158777,"{'url': u'http://www.dianping.com/mylist/1651373', 'intro': u'\u4e0d\u8f93\u6b63\u724c\u7684\u79c1\u623f\u83dc\u9986\uff0c\u53e3\u5473\u72ec\u7279\uff0c\u79cd\u7c7b\u5404\u5f02\uff0c\u503c\u5f97\u4e00\u5c1d\uff0c\u8d76\u7d27\u6765\u770b\u770b\u5427\uff01', 'title': u'\u3010\u5cb3\u9633\u3011\u672c\u57ce\u6df1\u85cf\u4e0d\u9732\u7684\u79c1\u623f\u83dc\u9986\uff0c\u503c\u5f97\u4e00\u5c1d'}",北港路120号,http://i1.s2.dpfile.com/pc/a3ad50345e1c1e9f569cd9f6d1fa0a81(335c221)/thumb.jpg
"[{'dish': u'http://www.dianping.com/shop/8872879/dish-%E6%89%8B%E6%8A%93%E9%BE%99%E8%99%BE', 'name': u'\u624b\u6293\u9f99\u867e'}]",,乡里私房菜,http://www.dianping.com/shop/8872879,岳阳楼区,"113.108819999867,29.3665299999939",13762014933,"{'url': u'http://www.dianping.com/mylist/1651373', 'intro': u'\u4e0d\u8f93\u6b63\u724c\u7684\u79c1\u623f\u83dc\u9986\uff0c\u53e3\u5473\u72ec\u7279\uff0c\u79cd\u7c7b\u5404\u5f02\uff0c\u503c\u5f97\u4e00\u5c1d\uff0c\u8d76\u7d27\u6765\u770b\u770b\u5427\uff01', 'title': u'\u3010\u5cb3\u9633\u3011\u672c\u57ce\u6df1\u85cf\u4e0d\u9732\u7684\u79c1\u623f\u83dc\u9986\uff0c\u503c\u5f97\u4e00\u5c1d'}",青年中路螺丝港立交桥原楼区劳动局旁巷内100米(劳动局旁),http://i3.s2.dpfile.com/pc/f5d64b618ae1922770afc40aea815f73(335c221)/thumb.jpg
"[{'dish': u'http://www.dianping.com/shop/18632426/dish-%E8%BE%A3%E5%AD%90%E9%B8%A1', 'name': u'\u8fa3\u5b50\u9e21'}, {'dish': u'http://www.dianping.com/shop/18632426/dish-%E6%B0%B4%E7%85%AE%E9%B1%BC%E7%89%87', 'name': u'\u6c34\u716e\u9c7c\u7247'}, {'dish': u'http://www.dianping.com/shop/18632426/dish-%E6%AF%9B%E8%A1%80%E6%97%BA', 'name': u'\u6bdb\u8840\u65fa'}, {'dish': u'http://www.dianping.com/shop/18632426/dish-%E7%A0%82%E9%94%85%E7%89%9B%E8%B9%84', 'name': u'\u7802\u9505\u725b\u8e44'}]",,天下粮仓私房菜,http://www.dianping.com/shop/18632426,岳阳楼区,,18873076699,"{'url': u'http://www.dianping.com/mylist/1651373', 'intro': u'\u4e0d\u8f93\u6b63\u724c\u7684\u79c1\u623f\u83dc\u9986\uff0c\u53e3\u5473\u72ec\u7279\uff0c\u79cd\u7c7b\u5404\u5f02\uff0c\u503c\u5f97\u4e00\u5c1d\uff0c\u8d76\u7d27\u6765\u770b\u770b\u5427\uff01', 'title': u'\u3010\u5cb3\u9633\u3011\u672c\u57ce\u6df1\u85cf\u4e0d\u9732\u7684\u79c1\u623f\u83dc\u9986\uff0c\u503c\u5f97\u4e00\u5c1d'}",市七中往东100米,http://i3.s1.dpfile.com/pc/567e6adf7dc1e58638ea4f9355455232(335c221)/thumb.jpg
,javascript:;,矮哥私房菜,http://www.dianping.com/shop/9757244,岳阳楼区,"113.117861000105,29.3699920000051",15573008899,"{'url': u'http://www.dianping.com/mylist/1651373', 'intro': u'\u4e0d\u8f93\u6b63\u724c\u7684\u79c1\u623f\u83dc\u9986\uff0c\u53e3\u5473\u72ec\u7279\uff0c\u79cd\u7c7b\u5404\u5f02\uff0c\u503c\u5f97\u4e00\u5c1d\uff0c\u8d76\u7d27\u6765\u770b\u770b\u5427\uff01', 'title': u'\u3010\u5cb3\u9633\u3011\u672c\u57ce\u6df1\u85cf\u4e0d\u9732\u7684\u79c1\u623f\u83dc\u9986\uff0c\u503c\u5f97\u4e00\u5c1d'}",土桥街49号,http://i3.s2.dpfile.com/pc/b435edbdcba29290c835dc33918cd95b(335c221)/thumb.jpg
,javascript:;,微味,http://www.dianping.com/shop/22022040,岳阳楼区,"113.11393,29.37101",18273010880,"{'url': u'http://www.dianping.com/mylist/1651373', 'intro': u'\u4e0d\u8f93\u6b63\u724c\u7684\u79c1\u623f\u83dc\u9986\uff0c\u53e3\u5473\u72ec\u7279\uff0c\u79cd\u7c7b\u5404\u5f02\uff0c\u503c\u5f97\u4e00\u5c1d\uff0c\u8d76\u7d27\u6765\u770b\u770b\u5427\uff01', 'title': u'\u3010\u5cb3\u9633\u3011\u672c\u57ce\u6df1\u85cf\u4e0d\u9732\u7684\u79c1\u623f\u83dc\u9986\uff0c\u503c\u5f97\u4e00\u5c1d'}",东茅岭路122号,http://i2.s1.dpfile.com/pc/9a72ab507a66a4a2825f4129ebf2bccc(335c221)/thumb.jpg
,javascript:;,来凤鱼私房菜,http://www.dianping.com/shop/17792187,岳阳楼区,"113.12984,29.36399",0730-8271811,"{'url': u'http://www.dianping.com/mylist/1651373', 'intro': u'\u4e0d\u8f93\u6b63\u724c\u7684\u79c1\u623f\u83dc\u9986\uff0c\u53e3\u5473\u72ec\u7279\uff0c\u79cd\u7c7b\u5404\u5f02\uff0c\u503c\u5f97\u4e00\u5c1d\uff0c\u8d76\u7d27\u6765\u770b\u770b\u5427\uff01', 'title': u'\u3010\u5cb3\u9633\u3011\u672c\u57ce\u6df1\u85cf\u4e0d\u9732\u7684\u79c1\u623f\u83dc\u9986\uff0c\u503c\u5f97\u4e00\u5c1d'}",岳阳楼区天伦金三角购物公园3楼3011号（大润发三楼）(天伦城),http://i2.s1.dpfile.com/pc/8bb8b922a66daa6cab56c176ae218d6e(335c221)/thumb.jpg
,javascript:;,1号私房菜,http://www.dianping.com/shop/18237293,岳阳楼区,"113.10622,29.35496",13575037903,"{'url': u'http://www.dianping.com/mylist/1651373', 'intro': u'\u4e0d\u8f93\u6b63\u724c\u7684\u79c1\u623f\u83dc\u9986\uff0c\u53e3\u5473\u72ec\u7279\uff0c\u79cd\u7c7b\u5404\u5f02\uff0c\u503c\u5f97\u4e00\u5c1d\uff0c\u8d76\u7d27\u6765\u770b\u770b\u5427\uff01', 'title': u'\u3010\u5cb3\u9633\u3011\u672c\u57ce\u6df1\u85cf\u4e0d\u9732\u7684\u79c1\u623f\u83dc\u9986\uff0c\u503c\u5f97\u4e00\u5c1d'}",德胜南路美食街湘都巷1号(七彩艺校对面),http://i1.s2.dpfile.com/pc/867541ee06c927b9c8dfa2ca1b32764e(335c221)/thumb.jpg
,,豪客嘉族,http://www.dianping.com/shop/3039061,岳阳楼区,"113.1059503,29.37325259",0730-8228777,"{'url': u'http://www.dianping.com/mylist/1573775', 'intro': u'\u4e3a\u4f60\u63a8\u8350\u672c\u57ce\u6700\u9002\u5408\u60c5\u4fa3\u665a\u9910\u7684\u597d\u53bb\u5904\uff0c\u6d6a\u6f2b\u6e29\u60c5\u7684\u70db\u5149\uff0c\u518d\u914d\u4e0a\u4e00\u4efd\u60c5\u8c03\u5927\u9910\uff0c\u5c31\u5728\u8fd9\u66fc...', 'title': u'\u3010\u5cb3\u9633\u3011\u6d6a\u6f2b\u7ea6\u4f1a\u9910\u5385\u653b\u7565'}",步行街2号工程公司2楼,//j3.s2.dpfile.com/s/i/app/shop/img_nopic.v01605900.png
,,金牛角王中西餐厅,http://www.dianping.com/shop/2781856,岳阳楼区,"113.12075,29.36854757",0730-8285555,"{'url': u'http://www.dianping.com/mylist/1573775', 'intro': u'\u4e3a\u4f60\u63a8\u8350\u672c\u57ce\u6700\u9002\u5408\u60c5\u4fa3\u665a\u9910\u7684\u597d\u53bb\u5904\uff0c\u6d6a\u6f2b\u6e29\u60c5\u7684\u70db\u5149\uff0c\u518d\u914d\u4e0a\u4e00\u4efd\u60c5\u8c03\u5927\u9910\uff0c\u5c31\u5728\u8fd9\u66fc...', 'title': u'\u3010\u5cb3\u9633\u3011\u6d6a\u6f2b\u7ea6\u4f1a\u9910\u5385\u653b\u7565'}",五里牌东茅岭路374号中诚大厦,http://i3.s2.dpfile.com/pc/e52ac9678badd68de3678ac4adc5b2b3(335c221)/thumb.jpg
,,树食代自助餐厅,http://www.dianping.com/shop/5444013,岳阳楼区,"113.11063800014,29.3741539999417",0730-8288177,"{'url': u'http://www.dianping.com/mylist/1573775', 'intro': u'\u4e3a\u4f60\u63a8\u8350\u672c\u57ce\u6700\u9002\u5408\u60c5\u4fa3\u665a\u9910\u7684\u597d\u53bb\u5904\uff0c\u6d6a\u6f2b\u6e29\u60c5\u7684\u70db\u5149\uff0c\u518d\u914d\u4e0a\u4e00\u4efd\u60c5\u8c03\u5927\u9910\uff0c\u5c31\u5728\u8fd9\u66fc...', 'title': u'\u3010\u5cb3\u9633\u3011\u6d6a\u6f2b\u7ea6\u4f1a\u9910\u5385\u653b\u7565'}",德胜北路光宏广场百盛3楼(近步行街),http://i1.s2.dpfile.com/pc/cc216aa546b964ea00c044936c266620(335c221)/thumb.jpg
"[{'dish': u'http://www.dianping.com/shop/6538361/dish-%E5%8D%A1%E5%B8%83%E5%A5%87%E8%AF%BA', 'name': u'\u5361\u5e03\u5947\u8bfa'}, {'dish': u'http://www.dianping.com/shop/6538361/dish-%E8%96%AF%E6%9D%A1', 'name': u'\u85af\u6761'}, {'dish': u'http://www.dianping.com/shop/6538361/dish-%E5%8D%A1%E5%B8%83%E5%A5%87%E8%AF%BA', 'name': u'\u5361\u5e03\u5947\u8bfa'}, {'dish': u'http://www.dianping.com/shop/6538361/dish-%E9%BB%91%E5%92%96%E5%95%A1', 'name': u'\u9ed1\u5496\u5561'}, {'dish': u'http://www.dianping.com/shop/6538361/dish-%E9%A5%BC%E5%B9%B2', 'name': u'\u997c\u5e72'}, {'dish': u'http://www.dianping.com/shop/6538361/dish-%E7%99%BD%E5%8F%AF%E5%8F%AF', 'name': u'\u767d\u53ef\u53ef'}, {'dish': u'http://www.dianping.com/shop/6538361/dish-%E5%B8%83%E4%B8%81', 'name': u'\u5e03\u4e01'}, {'dish': u'http://www.dianping.com/shop/6538361/dish-%E6%91%A9%E5%8D%A1', 'name': u'\u6469\u5361'}, {'dish': u'http://www.dianping.com/shop/6538361/dish-%E8%96%AF%E6%9D%A1', 'name': u'\u85af\u6761'}]",javascript:;,迷途咖啡屋,http://www.dianping.com/shop/6538361,岳阳楼区,"113.1569326,29.36508058",0730-8280852,"{'url': u'http://www.dianping.com/mylist/1573775', 'intro': u'\u4e3a\u4f60\u63a8\u8350\u672c\u57ce\u6700\u9002\u5408\u60c5\u4fa3\u665a\u9910\u7684\u597d\u53bb\u5904\uff0c\u6d6a\u6f2b\u6e29\u60c5\u7684\u70db\u5149\uff0c\u518d\u914d\u4e0a\u4e00\u4efd\u60c5\u8c03\u5927\u9910\uff0c\u5c31\u5728\u8fd9\u66fc...', 'title': u'\u3010\u5cb3\u9633\u3011\u6d6a\u6f2b\u7ea6\u4f1a\u9910\u5385\u653b\u7565'}",青年东路王家河二桥凉山综合楼801-803室(近岳州中学),http://i2.s2.dpfile.com/pc/7d7e9a8a65a53bf1d868197210edb918(335c221)/thumb.jpg
"[{'dish': u'http://www.dianping.com/shop/5260145/dish-%E5%86%9C%E5%AE%B6%E4%B8%89%E5%8D%9C', 'name': u'\u519c\u5bb6\u4e09\u535c'}, {'dish': u'http://www.dianping.com/shop/5260145/dish-%E6%AF%9B%E8%8D%89%E8%8F%8C%E8%82%89%E4%B8%B8%E7%81%AB%E9%94%85', 'name': u'\u6bdb\u8349\u83cc\u8089\u4e38\u706b\u9505'}, {'dish': u'http://www.dianping.com/shop/5260145/dish-%E5%90%8A%E9%94%85%E7%89%9B%E8%9B%99', 'name': u'\u540a\u9505\u725b\u86d9'}, {'dish': u'http://www.dianping.com/shop/5260145/dish-%E5%8F%89%E7%83%A7%E6%8B%BC%E7%9B%98', 'name': u'\u53c9\u70e7\u62fc\u76d8'}, {'dish': u'http://www.dianping.com/shop/5260145/dish-%E8%87%AD%E9%B2%91%E9%B1%BC', 'name': u'\u81ed\u9c91\u9c7c'}]",javascript:;,新东兴酒店,http://www.dianping.com/shop/5260145,君山区,"113.1086998,29.37048821",0730-8207883,"{'url': u'http://www.dianping.com/mylist/1573775', 'intro': u'\u4e3a\u4f60\u63a8\u8350\u672c\u57ce\u6700\u9002\u5408\u60c5\u4fa3\u665a\u9910\u7684\u597d\u53bb\u5904\uff0c\u6d6a\u6f2b\u6e29\u60c5\u7684\u70db\u5149\uff0c\u518d\u914d\u4e0a\u4e00\u4efd\u60c5\u8c03\u5927\u9910\uff0c\u5c31\u5728\u8fd9\u66fc...', 'title': u'\u3010\u5cb3\u9633\u3011\u6d6a\u6f2b\u7ea6\u4f1a\u9910\u5385\u653b\u7565'}",德胜南路82号(近东方红小学),http://i2.s1.dpfile.com/pc/f31a0e976e71aca62deedbd74402fdbd(335c221)/thumb.jpg
"[{'dish': u'http://www.dianping.com/shop/13826106/dish-%E6%84%8F%E5%BC%8F%E6%8B%BF%E9%93%81', 'name': u'\u610f\u5f0f\u62ff\u94c1'}]",,Moungar423,http://www.dianping.com/shop/13826106,岳阳楼区,"113.095042,29.374456",0730-8862233,"{'url': u'http://www.dianping.com/mylist/1573775', 'intro': u'\u4e3a\u4f60\u63a8\u8350\u672c\u57ce\u6700\u9002\u5408\u60c5\u4fa3\u665a\u9910\u7684\u597d\u53bb\u5904\uff0c\u6d6a\u6f2b\u6e29\u60c5\u7684\u70db\u5149\uff0c\u518d\u914d\u4e0a\u4e00\u4efd\u60c5\u8c03\u5927\u9910\uff0c\u5c31\u5728\u8fd9\u66fc...', 'title': u'\u3010\u5cb3\u9633\u3011\u6d6a\u6f2b\u7ea6\u4f1a\u9910\u5385\u653b\u7565'}",保利西街18栋123号(近汴河街 华融湘江银行),http://i1.s1.dpfile.com/pc/ee25ac1f311df13ee768469cfc5ec631(335c221)/thumb.jpg
"[{'dish': u'http://www.dianping.com/shop/2626222/dish-%E5%B9%B2%E9%94%85%E7%99%BD%E9%B1%BC', 'name': u'\u5e72\u9505\u767d\u9c7c'}]",,力力渔馆,http://www.dianping.com/shop/2626222,岳阳楼区,"113.10157,29.39305",0730-3243179,"{'url': u'http://www.dianping.com/mylist/1573775', 'intro': u'\u4e3a\u4f60\u63a8\u8350\u672c\u57ce\u6700\u9002\u5408\u60c5\u4fa3\u665a\u9910\u7684\u597d\u53bb\u5904\uff0c\u6d6a\u6f2b\u6e29\u60c5\u7684\u70db\u5149\uff0c\u518d\u914d\u4e0a\u4e00\u4efd\u60c5\u8c03\u5927\u9910\uff0c\u5c31\u5728\u8fd9\u66fc...', 'title': u'\u3010\u5cb3\u9633\u3011\u6d6a\u6f2b\u7ea6\u4f1a\u9910\u5385\u653b\u7565'}",洞庭渔都正大门(加油站对面),http://i2.s1.dpfile.com/2010-03-06/3830293_b.jpg(335c221)/thumb.jpg
"[{'dish': u'http://www.dianping.com/shop/2975710/dish-%E9%BA%BB%E8%BE%A3%E5%B0%8F%E9%BE%99%E8%99%BE', 'name': u'\u9ebb\u8fa3\u5c0f\u9f99\u867e'}, {'dish': u'http://www.dianping.com/shop/2975710/dish-%E5%B9%B2%E7%85%8E%E4%BF%8F%E5%B7%B4%E9%B1%BC', 'name': u'\u5e72\u714e\u4fcf\u5df4\u9c7c'}, {'dish': u'http://www.dianping.com/shop/2975710/dish-%E5%9B%9E%E5%9B%BD%E9%B1%BC%E5%A4%B4', 'name': u'\u56de\u56fd\u9c7c\u5934'}, {'dish': u'http://www.dianping.com/shop/2975710/dish-%E5%B9%B2%E9%94%85%E5%85%AC%E4%B9%8C%E9%BE%9F', 'name': u'\u5e72\u9505\u516c\u4e4c\u9f9f'}, {'dish': u'http://www.dianping.com/shop/2975710/dish-%E5%B9%B2%E7%85%8E%E4%BF%8F%E5%B7%B4%E9%B1%BC', 'name': u'\u5e72\u714e\u4fcf\u5df4\u9c7c'}, {'dish': u'http://www.dianping.com/shop/2975710/dish-%E9%B1%BC%E6%B3%A1%E9%B1%BC%E8%82%A0', 'name': u'\u9c7c\u6ce1\u9c7c\u80a0'}, {'dish': u'http://www.dianping.com/shop/2975710/dish-%E6%B9%96%E8%97%95%E7%82%96%E6%8E%92%E9%AA%A8', 'name': u'\u6e56\u85d5\u7096\u6392\u9aa8'}, {'dish': u'http://www.dianping.com/shop/2975710/dish-%E5%B9%B3%E9%94%85%E4%BF%8F%E5%B7%B4%E9%B1%BC', 'name': u'\u5e73\u9505\u4fcf\u5df4\u9c7c'}, {'dish': u'http://www.dianping.com/shop/2975710/dish-%E9%93%B6%E9%B1%BC%E7%82%92%E9%B8%A1%E8%9B%8B', 'name': u'\u94f6\u9c7c\u7092\u9e21\u86cb'}, {'dish': u'http://www.dianping.com/shop/2975710/dish-%E5%B9%B2%E9%94%85%E5%85%AC%E4%B9%8C%E9%BE%9F', 'name': u'\u5e72\u9505\u516c\u4e4c\u9f9f'}, {'dish': u'http://www.dianping.com/shop/2975710/dish-%E5%B9%B3%E9%94%85%E4%BF%8F%E5%B7%B4%E9%B1%BC', 'name': u'\u5e73\u9505\u4fcf\u5df4\u9c7c'}, {'dish': u'http://www.dianping.com/shop/2975710/dish-%E4%BF%8F%E5%B7%B4%E9%B1%BC', 'name': u'\u4fcf\u5df4\u9c7c'}]",,洁雅小南方俏巴鱼馆,http://www.dianping.com/shop/2975710,岳阳楼区,"113.09466,29.37554",0730-8296999,"{'url': u'http://www.dianping.com/mylist/1573775', 'intro': u'\u4e3a\u4f60\u63a8\u8350\u672c\u57ce\u6700\u9002\u5408\u60c5\u4fa3\u665a\u9910\u7684\u597d\u53bb\u5904\uff0c\u6d6a\u6f2b\u6e29\u60c5\u7684\u70db\u5149\uff0c\u518d\u914d\u4e0a\u4e00\u4efd\u60c5\u8c03\u5927\u9910\uff0c\u5c31\u5728\u8fd9\u66fc...', 'title': u'\u3010\u5cb3\u9633\u3011\u6d6a\u6f2b\u7ea6\u4f1a\u9910\u5385\u653b\u7565'}",汴河街8号,http://i2.s1.dpfile.com/pc/14d22252f881b206364a5ea8b7cef991(335c221)/thumb.jpg
"[{'dish': u'http://www.dianping.com/shop/5399862/dish-%E6%B0%B4%E6%99%B6%E7%83%A4%E8%82%89', 'name': u'\u6c34\u6676\u70e4\u8089'}, {'dish': u'http://www.dianping.com/shop/5399862/dish-%E6%B2%99%E7%85%B2%E7%B2%A5', 'name': u'\u6c99\u7172\u7ca5'}, {'dish': u'http://www.dianping.com/shop/5399862/dish-%E5%85%BB%E8%83%83%E7%9A%84', 'name': u'\u517b\u80c3\u7684'}, {'dish': u'http://www.dianping.com/shop/5399862/dish-%E5%B0%8F%E6%B5%B7%E9%B2%9C', 'name': u'\u5c0f\u6d77\u9c9c'}, {'dish': u'http://www.dianping.com/shop/5399862/dish-%E6%BD%AE%E6%B1%95%E7%A0%82%E9%94%85%E7%B2%A5', 'name': u'\u6f6e\u6c55\u7802\u9505\u7ca5'}, {'dish': u'http://www.dianping.com/shop/5399862/dish-%E9%93%81%E6%9D%BF%E7%89%9B%E8%82%89', 'name': u'\u94c1\u677f\u725b\u8089'}, {'dish': u'http://www.dianping.com/shop/5399862/dish-%E6%B0%B4%E6%99%B6%E7%83%A7%E7%83%A4', 'name': u'\u6c34\u6676\u70e7\u70e4'}]",,晶瓦台,http://www.dianping.com/shop/5399862,岳阳楼区,"113.095533,29.374334",0730-3116966,"{'url': u'http://www.dianping.com/mylist/1573775', 'intro': u'\u4e3a\u4f60\u63a8\u8350\u672c\u57ce\u6700\u9002\u5408\u60c5\u4fa3\u665a\u9910\u7684\u597d\u53bb\u5904\uff0c\u6d6a\u6f2b\u6e29\u60c5\u7684\u70db\u5149\uff0c\u518d\u914d\u4e0a\u4e00\u4efd\u60c5\u8c03\u5927\u9910\uff0c\u5c31\u5728\u8fd9\u66fc...', 'title': u'\u3010\u5cb3\u9633\u3011\u6d6a\u6f2b\u7ea6\u4f1a\u9910\u5385\u653b\u7565'}",保利西街15栋(近汉森宾馆),http://i2.s2.dpfile.com/pc/58e2c457cdd0c58eb73bc7fc7833c3ee(335c221)/thumb.jpg
,,爱尚西厨,http://www.dianping.com/shop/19647061,,"113.08048,28.80121",0730-5208323,"{'url': u'http://www.dianping.com/mylist/2709730', 'intro': u'\u7aef\u5348\u8282\u5230\u4e86\uff0c\u9664\u4e86\u7cbd\u5b50\u5916\u5403\u4ec0\u4e48\u597d\uff1f\u4e2a\u5927\u5473\u7f8e\u7684\u5c0f\u9f99\u867e\uff0c\u9c9c\u9999\u723d\u8fa3\u7684\u5241\u6912\u9c7c\u5934\uff0c\u591a\u6599\u9ebb\u8fa3\u7684...', 'title': u'\u7aef\u5348\u8282\u5e26\u4f60\u53bb\u5403\u597d\u5403\u7684\uff01\u5cb3\u9633\u5403\u8d27\u5f3a\u70c8\u63a8\u8350'}",车站南路42号,http://i1.s1.dpfile.com/pc/9b0772cd8faaffe9c3e4855e2270cee2(335c221)/thumb.jpg
,,耿兄弟大排档,http://www.dianping.com/shop/9751507,岳阳楼区,"113.131788000342,29.3738990000051",0730-8815888,"{'url': u'http://www.dianping.com/mylist/2435162', 'intro': u'\u90a3\u4e9b\u5e74\u4f60\u5bb6\u4eb2\u621a\u5f00\u4e86\u7684\u5e97\u8ddf\u4f60\u5546\u91cf\u8fc7\u5417\uff1f\u4f60\u5403\u8fc7\u5417\uff1f \u8001\u677f\u65e2\u7136\u6211\u4eec\u662f\u4eb2\u621a\u4e0d\u5982\u5403\u996d\u6253\u4e2a\u6298...', 'title': u'\u3010\u5cb3\u9633\u3011\u4f60\u5bb6\u4eb2\u621a\u5f00\u5e97\u4e86\u4f60\u9020\u5417\uff1f\u558a\u4f60\u53bb\u5403\u996d\u5566'}",建湘路425号,http://i1.s2.dpfile.com/pc/e1ffbfe319d577997a27df728a9ec661(335c221)/thumb.jpg
,javascript:;,LOVE KITTY购物餐厅,http://www.dianping.com/shop/22080117,岳阳楼区,"113.10632,29.37452",18373000617,"{'url': u'http://www.dianping.com/mylist/2709730', 'intro': u'\u7aef\u5348\u8282\u5230\u4e86\uff0c\u9664\u4e86\u7cbd\u5b50\u5916\u5403\u4ec0\u4e48\u597d\uff1f\u4e2a\u5927\u5473\u7f8e\u7684\u5c0f\u9f99\u867e\uff0c\u9c9c\u9999\u723d\u8fa3\u7684\u5241\u6912\u9c7c\u5934\uff0c\u591a\u6599\u9ebb\u8fa3\u7684...', 'title': u'\u7aef\u5348\u8282\u5e26\u4f60\u53bb\u5403\u597d\u5403\u7684\uff01\u5cb3\u9633\u5403\u8d27\u5f3a\u70c8\u63a8\u8350'}",步行街君临新世界A座505,http://i3.s1.dpfile.com/pc/4218c29964ecd8e19be5e76e443c16ef(335c221)/thumb.jpg
"[{'dish': u'http://www.dianping.com/shop/18293757/dish-%E6%A6%B4%E8%8E%B2%E8%8A%9D%E5%A3%AB%E6%8A%AB%E8%90%A8', 'name': u'\u69b4\u83b2\u829d\u58eb\u62ab\u8428'}]",,阿里爷爷,http://www.dianping.com/shop/18293757,岳阳楼区,"113.1087187,29.37436",15068046739,"{'url': u'http://www.dianping.com/mylist/2435162', 'intro': u'\u90a3\u4e9b\u5e74\u4f60\u5bb6\u4eb2\u621a\u5f00\u4e86\u7684\u5e97\u8ddf\u4f60\u5546\u91cf\u8fc7\u5417\uff1f\u4f60\u5403\u8fc7\u5417\uff1f \u8001\u677f\u65e2\u7136\u6211\u4eec\u662f\u4eb2\u621a\u4e0d\u5982\u5403\u996d\u6253\u4e2a\u6298...', 'title': u'\u3010\u5cb3\u9633\u3011\u4f60\u5bb6\u4eb2\u621a\u5f00\u5e97\u4e86\u4f60\u9020\u5417\uff1f\u558a\u4f60\u53bb\u5403\u996d\u5566'}",步行街花生茂一楼进门口,http://i2.s2.dpfile.com/pc/a748eb16ce641f8a579ab83da561a9d6(335c221)/thumb.jpg
,javascript:;,湘阴兄弟面馆,http://www.dianping.com/shop/21302626,岳阳楼区,"113.13343,29.38333",18907409523,"{'url': u'http://www.dianping.com/mylist/2435162', 'intro': u'\u90a3\u4e9b\u5e74\u4f60\u5bb6\u4eb2\u621a\u5f00\u4e86\u7684\u5e97\u8ddf\u4f60\u5546\u91cf\u8fc7\u5417\uff1f\u4f60\u5403\u8fc7\u5417\uff1f \u8001\u677f\u65e2\u7136\u6211\u4eec\u662f\u4eb2\u621a\u4e0d\u5982\u5403\u996d\u6253\u4e2a\u6298...', 'title': u'\u3010\u5cb3\u9633\u3011\u4f60\u5bb6\u4eb2\u621a\u5f00\u5e97\u4e86\u4f60\u9020\u5417\uff1f\u558a\u4f60\u53bb\u5403\u996d\u5566'}",洞庭大道和望月路交汇处,http://i3.s2.dpfile.com/pc/d9a7ab70881d60906572a97d15476ba6(335c221)/thumb.jpg
,,瑞可叔叔的店,http://www.dianping.com/shop/17982654,岳阳楼区,"113.138,29.3568",13968837286,"{'url': u'http://www.dianping.com/mylist/2435162', 'intro': u'\u90a3\u4e9b\u5e74\u4f60\u5bb6\u4eb2\u621a\u5f00\u4e86\u7684\u5e97\u8ddf\u4f60\u5546\u91cf\u8fc7\u5417\uff1f\u4f60\u5403\u8fc7\u5417\uff1f \u8001\u677f\u65e2\u7136\u6211\u4eec\u662f\u4eb2\u621a\u4e0d\u5982\u5403\u996d\u6253\u4e2a\u6298...', 'title': u'\u3010\u5cb3\u9633\u3011\u4f60\u5bb6\u4eb2\u621a\u5f00\u5e97\u4e86\u4f60\u9020\u5417\uff1f\u558a\u4f60\u53bb\u5403\u996d\u5566'}",岳阳大道步步高广场1楼,http://i2.s2.dpfile.com/pc/78eaf8b925ba8b0c8e2c0714eafb4cd1(335c221)/thumb.jpg
,,秀海福骨汤麻辣烫,http://www.dianping.com/shop/20919966,岳阳楼区,,15173084569,"{'url': u'http://www.dianping.com/mylist/2872884', 'intro': u'\u7ea2\u6f06\u7684\u77ee\u65b9\u684c\u3001\u5c0f\u51f3\u5b50\uff0c\u4e00\u9505\u7ea2\u6c64\uff0c\u548c\u4e00\u5927\u628a\u4e00\u5927\u628a\u7684\u7af9\u7b7e\u6784\u6210\u4e86\u4e00\u9053\u7279\u522b\u98ce\u666f\u3002\u6765\u81ea\u6210\u90fd...', 'title': u'\u3010\u5cb3\u9633\u3011\u9c9c\u9999\u9ebb\u8fa3 \u8857\u8fb9\u90a3\u4e00\u7897\u4f20\u5947\u4e32\u4e32\u9999'}",台湾美食街(君临新世界楼下)(近武商),http://i3.s1.dpfile.com/pc/195adc6bcd028a72441a04aed1dbc7a1(335c221)/thumb.jpg
,javascript:;,六婆串串香火锅,http://www.dianping.com/shop/20880729,岳阳楼区,"113.1349,29.38172",18075726392,"{'url': u'http://www.dianping.com/mylist/2435162', 'intro': u'\u90a3\u4e9b\u5e74\u4f60\u5bb6\u4eb2\u621a\u5f00\u4e86\u7684\u5e97\u8ddf\u4f60\u5546\u91cf\u8fc7\u5417\uff1f\u4f60\u5403\u8fc7\u5417\uff1f \u8001\u677f\u65e2\u7136\u6211\u4eec\u662f\u4eb2\u621a\u4e0d\u5982\u5403\u996d\u6253\u4e2a\u6298...', 'title': u'\u3010\u5cb3\u9633\u3011\u4f60\u5bb6\u4eb2\u621a\u5f00\u5e97\u4e86\u4f60\u9020\u5417\uff1f\u558a\u4f60\u53bb\u5403\u996d\u5566'}",建湘路康岳花园加油站对面,http://i2.s2.dpfile.com/pc/ceff35d21cb1682fcd516fea271de007(335c221)/thumb.jpg
,javascript:;,老妈家庭厨房,http://www.dianping.com/shop/13717168,岳阳楼区,"113.135060000427,29.3719699999983",0730-3227999,"{'url': u'http://www.dianping.com/mylist/2435162', 'intro': u'\u90a3\u4e9b\u5e74\u4f60\u5bb6\u4eb2\u621a\u5f00\u4e86\u7684\u5e97\u8ddf\u4f60\u5546\u91cf\u8fc7\u5417\uff1f\u4f60\u5403\u8fc7\u5417\uff1f \u8001\u677f\u65e2\u7136\u6211\u4eec\u662f\u4eb2\u621a\u4e0d\u5982\u5403\u996d\u6253\u4e2a\u6298...', 'title': u'\u3010\u5cb3\u9633\u3011\u4f60\u5bb6\u4eb2\u621a\u5f00\u5e97\u4e86\u4f60\u9020\u5417\uff1f\u558a\u4f60\u53bb\u5403\u996d\u5566'}",巴陵中路628号(市妇幼保健院对面),http://i1.s1.dpfile.com/pc/764a51a0c5f0fdf8fff8841dcd9dae23(335c221)/thumb.jpg
,javascript:;,豆花妈妈,http://www.dianping.com/shop/13689095,岳阳楼区,"113.15039,29.33143",13975083006,"{'url': u'http://www.dianping.com/mylist/2435162', 'intro': u'\u90a3\u4e9b\u5e74\u4f60\u5bb6\u4eb2\u621a\u5f00\u4e86\u7684\u5e97\u8ddf\u4f60\u5546\u91cf\u8fc7\u5417\uff1f\u4f60\u5403\u8fc7\u5417\uff1f \u8001\u677f\u65e2\u7136\u6211\u4eec\u662f\u4eb2\u621a\u4e0d\u5982\u5403\u996d\u6253\u4e2a\u6298...', 'title': u'\u3010\u5cb3\u9633\u3011\u4f60\u5bb6\u4eb2\u621a\u5f00\u5e97\u4e86\u4f60\u9020\u5417\uff1f\u558a\u4f60\u53bb\u5403\u996d\u5566'}",湖南理工学院内9栋楼下,http://i1.s1.dpfile.com/pc/e9f069c49f68e84ca3c74fcd802ad0d8(335c221)/thumb.jpg
,javascript:;,王妈手撕烤兔,http://www.dianping.com/shop/19108904,文星镇,"112.88679,28.680446",18570406853,"{'url': u'http://www.dianping.com/mylist/2435162', 'intro': u'\u90a3\u4e9b\u5e74\u4f60\u5bb6\u4eb2\u621a\u5f00\u4e86\u7684\u5e97\u8ddf\u4f60\u5546\u91cf\u8fc7\u5417\uff1f\u4f60\u5403\u8fc7\u5417\uff1f \u8001\u677f\u65e2\u7136\u6211\u4eec\u662f\u4eb2\u621a\u4e0d\u5982\u5403\u996d\u6253\u4e2a\u6298...', 'title': u'\u3010\u5cb3\u9633\u3011\u4f60\u5bb6\u4eb2\u621a\u5f00\u5e97\u4e86\u4f60\u9020\u5417\uff1f\u558a\u4f60\u53bb\u5403\u996d\u5566'}",先锋路桥东商厦1号(桥东市场斜对面),http://i2.s2.dpfile.com/pc/607742f629d77bd89d10b9235049505b(335c221)/thumb.jpg
"[{'dish': u'http://www.dianping.com/shop/4297479/dish-%E9%87%91%E9%92%88%E8%8F%87', 'name': u'\u91d1\u9488\u83c7'}, {'dish': u'http://www.dianping.com/shop/4297479/dish-%E6%92%92%E5%B0%BF%E7%89%9B%E4%B8%B8', 'name': u'\u6492\u5c3f\u725b\u4e38'}, {'dish': u'http://www.dianping.com/shop/4297479/dish-%E9%A6%99%E8%8F%9C', 'name': u'\u9999\u83dc'}, {'dish': u'http://www.dianping.com/shop/4297479/dish-%E5%B0%8F%E8%82%A5%E7%BE%8A', 'name': u'\u5c0f\u80a5\u7f8a'}]",javascript:;,川妹火锅,http://www.dianping.com/shop/4297479,岳阳楼区,"113.109007,29.372741",0730-8305123,"{'url': u'http://www.dianping.com/mylist/2435162', 'intro': u'\u90a3\u4e9b\u5e74\u4f60\u5bb6\u4eb2\u621a\u5f00\u4e86\u7684\u5e97\u8ddf\u4f60\u5546\u91cf\u8fc7\u5417\uff1f\u4f60\u5403\u8fc7\u5417\uff1f \u8001\u677f\u65e2\u7136\u6211\u4eec\u662f\u4eb2\u621a\u4e0d\u5982\u5403\u996d\u6253\u4e2a\u6298...', 'title': u'\u3010\u5cb3\u9633\u3011\u4f60\u5bb6\u4eb2\u621a\u5f00\u5e97\u4e86\u4f60\u9020\u5417\uff1f\u558a\u4f60\u53bb\u5403\u996d\u5566'}",步行街王子鞋城观光电梯5楼,http://i2.s2.dpfile.com/pc/491805a1baa36fa1277bbc5cdd465d39(335c221)/thumb.jpg
"[{'dish': u'http://www.dianping.com/shop/1956841/dish-%E7%AD%89%E7%AD%89%E9%83%BD%E5%BF%98%E4%BA%86', 'name': u'\u7b49\u7b49\u90fd\u5fd8\u4e86'}, {'dish': u'http://www.dianping.com/shop/1956841/dish-%E7%85%B2%E4%BB%94%E9%A5%AD%E7%B3%BB%E5%88%97', 'name': u'\u7172\u4ed4\u996d\u7cfb\u5217'}, {'dish': u'http://www.dianping.com/shop/1956841/dish-%E5%84%BF%E7%AB%A5%E7%89%9B%E6%8E%92', 'name': u'\u513f\u7ae5\u725b\u6392'}, {'dish': u'http://www.dianping.com/shop/1956841/dish-%E5%AD%9C%E7%84%B6%E7%89%9B%E8%82%89%E6%8B%8C%E9%A5%AD', 'name': u'\u5b5c\u7136\u725b\u8089\u62cc\u996d'}, {'dish': u'http://www.dianping.com/shop/1956841/dish-%E6%B5%B7%E9%B2%9C%E7%9F%B3%E9%94%85%E6%8B%8C%E9%A5%AD', 'name': u'\u6d77\u9c9c\u77f3\u9505\u62cc\u996d'}, {'dish': u'http://www.dianping.com/shop/1956841/dish-%E4%B8%89%E8%89%B2%E5%86%B0%E6%BF%80%E5%87%8C', 'name': u'\u4e09\u8272\u51b0\u6fc0\u51cc'}, {'dish': u'http://www.dianping.com/shop/1956841/dish-%E7%89%9B%E6%8E%92', 'name': u'\u725b\u6392'}, {'dish': u'http://www.dianping.com/shop/1956841/dish-%E7%9F%B3%E9%94%85%E6%8B%8C%E9%A5%AD', 'name': u'\u77f3\u9505\u62cc\u996d'}, {'dish': u'http://www.dianping.com/shop/1956841/dish-%E6%84%8F%E5%A4%A7%E5%88%A9%E6%8B%89%E9%9D%A2', 'name': u'\u610f\u5927\u5229\u62c9\u9762'}, {'dish': u'http://www.dianping.com/shop/1956841/dish-%E9%92%B5%E9%92%B5%E9%B8%A1', 'name': u'\u94b5\u94b5\u9e21'}, {'dish': u'http://www.dianping.com/shop/1956841/dish-%E6%84%8F%E5%A4%A7%E5%88%A9%E9%9D%A2', 'name': u'\u610f\u5927\u5229\u9762'}, {'dish': u'http://www.dianping.com/shop/1956841/dish-%E9%A6%99%E8%82%A0%E7%85%B2%E4%BB%94%E9%A5%AD', 'name': u'\u9999\u80a0\u7172\u4ed4\u996d'}, {'dish': u'http://www.dianping.com/shop/1956841/dish-%E5%92%96%E5%95%A1', 'name': u'\u5496\u5561'}, {'dish': u'http://www.dianping.com/shop/1956841/dish-%E5%B0%8F%E9%A3%9F%E6%8B%BC%E7%9B%98', 'name': u'\u5c0f\u98df\u62fc\u76d8'}, {'dish': u'http://www.dianping.com/shop/1956841/dish-%E9%9F%A9%E5%9B%BD%E7%9F%B3%E9%94%85%E9%A5%AD%E7%B3%BB%E5%88%97', 'name': u'\u97e9\u56fd\u77f3\u9505\u996d\u7cfb\u5217'}]",,塔客堡咖啡生活馆,http://www.dianping.com/shop/1956841,岳阳楼区,"113.10876,29.37295",0730-3237777,"{'url': u'http://www.dianping.com/mylist/2709730', 'intro': u'\u7aef\u5348\u8282\u5230\u4e86\uff0c\u9664\u4e86\u7cbd\u5b50\u5916\u5403\u4ec0\u4e48\u597d\uff1f\u4e2a\u5927\u5473\u7f8e\u7684\u5c0f\u9f99\u867e\uff0c\u9c9c\u9999\u723d\u8fa3\u7684\u5241\u6912\u9c7c\u5934\uff0c\u591a\u6599\u9ebb\u8fa3\u7684...', 'title': u'\u7aef\u5348\u8282\u5e26\u4f60\u53bb\u5403\u597d\u5403\u7684\uff01\u5cb3\u9633\u5403\u8d27\u5f3a\u70c8\u63a8\u8350'}",步行街岳东商城大厦4楼,http://i3.s2.dpfile.com/pc/72fdd58469a6b8e106bf35c05afceaa5(335c221)/thumb.jpg
"[{'dish': u'http://www.dianping.com/shop/22157532/dish-%E7%81%AB%E7%84%B0%E7%89%9B%E6%8E%92', 'name': u'\u706b\u7130\u725b\u6392'}]",,元喜欢乐自助牛排,http://www.dianping.com/shop/22157532,平江县其他,"113.5823,28.70503",0730-6320784,"{'url': u'http://www.dianping.com/mylist/2709730', 'intro': u'\u7aef\u5348\u8282\u5230\u4e86\uff0c\u9664\u4e86\u7cbd\u5b50\u5916\u5403\u4ec0\u4e48\u597d\uff1f\u4e2a\u5927\u5473\u7f8e\u7684\u5c0f\u9f99\u867e\uff0c\u9c9c\u9999\u723d\u8fa3\u7684\u5241\u6912\u9c7c\u5934\uff0c\u591a\u6599\u9ebb\u8fa3\u7684...', 'title': u'\u7aef\u5348\u8282\u5e26\u4f60\u53bb\u5403\u597d\u5403\u7684\uff01\u5cb3\u9633\u5403\u8d27\u5f3a\u70c8\u63a8\u8350'}",平江县老街新华书店旁,http://i3.s2.dpfile.com/pc/7633c696a982b89b1a8f52833826f468(335c221)/thumb.jpg
"[{'dish': u'http://waimai.dianping.com/dish/19363632', 'name': None}]",javascript:;,意趣意式餐厅,http://www.dianping.com/shop/19363632,华容县其他,"112.56649,29.52727",0730-4356377,"{'url': u'http://www.dianping.com/mylist/2709730', 'intro': u'\u7aef\u5348\u8282\u5230\u4e86\uff0c\u9664\u4e86\u7cbd\u5b50\u5916\u5403\u4ec0\u4e48\u597d\uff1f\u4e2a\u5927\u5473\u7f8e\u7684\u5c0f\u9f99\u867e\uff0c\u9c9c\u9999\u723d\u8fa3\u7684\u5241\u6912\u9c7c\u5934\uff0c\u591a\u6599\u9ebb\u8fa3\u7684...', 'title': u'\u7aef\u5348\u8282\u5e26\u4f60\u53bb\u5403\u597d\u5403\u7684\uff01\u5cb3\u9633\u5403\u8d27\u5f3a\u70c8\u63a8\u8350'}",华容城市广场世纪联华超市对面(三和影城马路斜对面),http://i1.s2.dpfile.com/pc/6da73033a063bb751d9143fac9df806e(335c221)/thumb.jpg
,javascript:;,欧澜时尚牛排,http://www.dianping.com/shop/20727451,岳阳楼区,"113.15049,29.33042",0730-8268538,"{'url': u'http://www.dianping.com/mylist/2709730', 'intro': u'\u7aef\u5348\u8282\u5230\u4e86\uff0c\u9664\u4e86\u7cbd\u5b50\u5916\u5403\u4ec0\u4e48\u597d\uff1f\u4e2a\u5927\u5473\u7f8e\u7684\u5c0f\u9f99\u867e\uff0c\u9c9c\u9999\u723d\u8fa3\u7684\u5241\u6912\u9c7c\u5934\uff0c\u591a\u6599\u9ebb\u8fa3\u7684...', 'title': u'\u7aef\u5348\u8282\u5e26\u4f60\u53bb\u5403\u597d\u5403\u7684\uff01\u5cb3\u9633\u5403\u8d27\u5f3a\u70c8\u63a8\u8350'}",学院路564号(理工大学南院正对面),http://i1.s2.dpfile.com/pc/809d1d4a264404215396e505d2593bc3(335c221)/thumb.jpg
,javascript:;,超人pizza,http://www.dianping.com/shop/22042755,岳阳楼区,"113.120274,29.347865",0730-8376539,"{'url': u'http://www.dianping.com/mylist/2709730', 'intro': u'\u7aef\u5348\u8282\u5230\u4e86\uff0c\u9664\u4e86\u7cbd\u5b50\u5916\u5403\u4ec0\u4e48\u597d\uff1f\u4e2a\u5927\u5473\u7f8e\u7684\u5c0f\u9f99\u867e\uff0c\u9c9c\u9999\u723d\u8fa3\u7684\u5241\u6912\u9c7c\u5934\uff0c\u591a\u6599\u9ebb\u8fa3\u7684...', 'title': u'\u7aef\u5348\u8282\u5e26\u4f60\u53bb\u5403\u597d\u5403\u7684\uff01\u5cb3\u9633\u5403\u8d27\u5f3a\u70c8\u63a8\u8350'}",南湖游路1号岳州帝苑西街105号门面,http://i1.s1.dpfile.com/pc/653aba37223aa8f828c66bc00ebb6ee2(335c221)/thumb.jpg
"[{'dish': u'http://www.dianping.com/shop/5517040/dish-%E7%BB%8F%E5%85%B8%E8%A5%BF%E5%86%B7%E7%89%9B%E6%8E%92', 'name': u'\u7ecf\u5178\u897f\u51b7\u725b\u6392'}, {'dish': u'http://www.dianping.com/shop/5517040/dish-%E5%B1%8C%E4%B8%9D%E8%8F%A0%E8%90%9D%E6%B2%B9%E6%9D%A1%E8%99%BE', 'name': u'\u5c4c\u4e1d\u83e0\u841d\u6cb9\u6761\u867e'}, {'dish': u'http://www.dianping.com/shop/5517040/dish-%E9%A6%99%E8%BE%A3%E9%A3%8E%E6%83%85%E7%89%9B%E6%8E%92', 'name': u'\u9999\u8fa3\u98ce\u60c5\u725b\u6392'}]",,乐其四叶草中西餐厅,http://www.dianping.com/shop/5517040,岳阳楼区,"113.110638,29.374154",0730-8666999,"{'url': u'http://www.dianping.com/mylist/2709730', 'intro': u'\u7aef\u5348\u8282\u5230\u4e86\uff0c\u9664\u4e86\u7cbd\u5b50\u5916\u5403\u4ec0\u4e48\u597d\uff1f\u4e2a\u5927\u5473\u7f8e\u7684\u5c0f\u9f99\u867e\uff0c\u9c9c\u9999\u723d\u8fa3\u7684\u5241\u6912\u9c7c\u5934\uff0c\u591a\u6599\u9ebb\u8fa3\u7684...', 'title': u'\u7aef\u5348\u8282\u5e26\u4f60\u53bb\u5403\u597d\u5403\u7684\uff01\u5cb3\u9633\u5403\u8d27\u5f3a\u70c8\u63a8\u8350'}",德胜北路光宏广场百盛百货4楼(近岳阳步行街),http://i1.s1.dpfile.com/pc/cf4d8ffe112acc618f08857e0e564bce(335c221)/thumb.jpg
,,豪客来,http://www.dianping.com/shop/5460665,岳阳楼区,"113.11014,29.37509",0730-8308489,"{'url': u'http://www.dianping.com/mylist/2709730', 'intro': u'\u7aef\u5348\u8282\u5230\u4e86\uff0c\u9664\u4e86\u7cbd\u5b50\u5916\u5403\u4ec0\u4e48\u597d\uff1f\u4e2a\u5927\u5473\u7f8e\u7684\u5c0f\u9f99\u867e\uff0c\u9c9c\u9999\u723d\u8fa3\u7684\u5241\u6912\u9c7c\u5934\uff0c\u591a\u6599\u9ebb\u8fa3\u7684...', 'title': u'\u7aef\u5348\u8282\u5e26\u4f60\u53bb\u5403\u597d\u5403\u7684\uff01\u5cb3\u9633\u5403\u8d27\u5f3a\u70c8\u63a8\u8350'}",步行街(新百盛百货对面),http://i2.s1.dpfile.com/pc/807da3a6f41bbfd01543b4381e28d04b(335c221)/thumb.jpg
"[{'dish': u'http://www.dianping.com/shop/18707170/dish-%E6%9E%9C%E6%9C%A8%E7%89%9B%E6%89%92', 'name': u'\u679c\u6728\u725b\u6252'}, {'dish': u'http://www.dianping.com/shop/18707170/dish-%E6%9E%81%E4%BD%B3%E7%89%9B%E6%89%92%E7%9A%87', 'name': u'\u6781\u4f73\u725b\u6252\u7687'}]",javascript:;,1号牛扒,http://www.dianping.com/shop/18707170,岳阳楼区,"113.169317943344,29.3577683831269",0730-8660001,"{'url': u'http://www.dianping.com/mylist/2709730', 'intro': u'\u7aef\u5348\u8282\u5230\u4e86\uff0c\u9664\u4e86\u7cbd\u5b50\u5916\u5403\u4ec0\u4e48\u597d\uff1f\u4e2a\u5927\u5473\u7f8e\u7684\u5c0f\u9f99\u867e\uff0c\u9c9c\u9999\u723d\u8fa3\u7684\u5241\u6912\u9c7c\u5934\uff0c\u591a\u6599\u9ebb\u8fa3\u7684...', 'title': u'\u7aef\u5348\u8282\u5e26\u4f60\u53bb\u5403\u597d\u5403\u7684\uff01\u5cb3\u9633\u5403\u8d27\u5f3a\u70c8\u63a8\u8350'}",会展中心对面(东城港湾大酒店旁边一楼步步高超市旁),http://i2.s1.dpfile.com/pc/e499e3fc0f386d19aadbd17f536be346(335c221)/thumb.jpg
"[{'dish': u'http://www.dianping.com/shop/5653450/dish-%E7%89%9B%E7%89%9B', 'name': u'\u725b\u725b'}, {'dish': u'http://www.dianping.com/shop/5653450/dish-%E7%89%9B%E8%82%89%E7%B2%89', 'name': u'\u725b\u8089\u7c89'}]",,刘聋子牛肉粉馆,http://www.dianping.com/shop/5653450,岳阳楼区,"113.11139,29.37068",,"{'url': u'http://www.dianping.com/mylist/1572658', 'intro': u'\u641c\u7f57\u672c\u57ce\u5fc5\u5403\u7684\u5c0f\u5403\uff0c\u65e0\u8bba\u662f\u8857\u8fb9\u7684\u8fd8\u662f\u5927\u9152\u5e97\u91cc\u7684\u3002\u72c2\u7231\u5c0f\u5403\u7684\u5403\u8d27\u4eec\u662f\u65e0\u6240\u754f\u60e7\u7684\uff0c\u6bcf...', 'title': u'\u3010\u5cb3\u9633\u3011\u70ed\u95e8\u5c0f\u5403\u70b9\u5fc3\u5927\u641c\u7f57'}",炮台山路(九哥百味鸭斜对面),http://i2.s2.dpfile.com/pc/708fb4dd44c493f20d460c81dc04642b(335c221)/thumb.jpg
,,大娘水饺,http://www.dianping.com/shop/8006175,岳阳楼区,"113.1191771,29.37618011",,"{'url': u'http://www.dianping.com/mylist/1572658', 'intro': u'\u641c\u7f57\u672c\u57ce\u5fc5\u5403\u7684\u5c0f\u5403\uff0c\u65e0\u8bba\u662f\u8857\u8fb9\u7684\u8fd8\u662f\u5927\u9152\u5e97\u91cc\u7684\u3002\u72c2\u7231\u5c0f\u5403\u7684\u5403\u8d27\u4eec\u662f\u65e0\u6240\u754f\u60e7\u7684\uff0c\u6bcf...', 'title': u'\u3010\u5cb3\u9633\u3011\u70ed\u95e8\u5c0f\u5403\u70b9\u5fc3\u5927\u641c\u7f57'}",火车站出站口旁(近电信营业厅),http://i3.s2.dpfile.com/pc/8f39c171c5b7bef1ec4d45fee9a6695b(335c221)/thumb.jpg
"[{'dish': u'http://www.dianping.com/shop/6087628/dish-%E8%87%AD%E8%B1%86%E8%85%90', 'name': u'\u81ed\u8c46\u8150'}, {'dish': u'http://www.dianping.com/shop/6087628/dish-%E5%85%B0%E8%8A%B1%E8%B1%86', 'name': u'\u5170\u82b1\u8c46'}, {'dish': u'http://www.dianping.com/shop/6087628/dish-%E9%B8%AD%E5%A4%B4', 'name': u'\u9e2d\u5934'}, {'dish': u'http://www.dianping.com/shop/6087628/dish-%E8%87%AD%E8%B1%86%E8%85%90', 'name': u'\u81ed\u8c46\u8150'}, {'dish': u'http://www.dianping.com/shop/6087628/dish-%E5%85%B0%E8%8A%B1%E8%B1%86', 'name': u'\u5170\u82b1\u8c46'}, {'dish': u'http://www.dianping.com/shop/6087628/dish-%E7%83%AD%E5%B9%B2%E9%9D%A2', 'name': u'\u70ed\u5e72\u9762'}, {'dish': u'http://www.dianping.com/shop/6087628/dish-%E9%B8%AD%E5%A4%B4', 'name': u'\u9e2d\u5934'}, {'dish': u'http://www.dianping.com/shop/6087628/dish-%E8%87%AD%E8%B1%86%E8%85%90', 'name': u'\u81ed\u8c46\u8150'}, {'dish': u'http://www.dianping.com/shop/6087628/dish-%E7%83%AD%E5%B9%B2%E9%9D%A2', 'name': u'\u70ed\u5e72\u9762'}]",,蔡哥臭豆腐,http://www.dianping.com/shop/6087628,岳阳楼区,"113.1189223,29.3635105",,"{'url': u'http://www.dianping.com/mylist/1572658', 'intro': u'\u641c\u7f57\u672c\u57ce\u5fc5\u5403\u7684\u5c0f\u5403\uff0c\u65e0\u8bba\u662f\u8857\u8fb9\u7684\u8fd8\u662f\u5927\u9152\u5e97\u91cc\u7684\u3002\u72c2\u7231\u5c0f\u5403\u7684\u5403\u8d27\u4eec\u662f\u65e0\u6240\u754f\u60e7\u7684\uff0c\u6bcf...', 'title': u'\u3010\u5cb3\u9633\u3011\u70ed\u95e8\u5c0f\u5403\u70b9\u5fc3\u5927\u641c\u7f57'}",南湖大道游乐场正对面,http://i1.s1.dpfile.com/pc/eb4073d37775df21f56f54e3b57e50f9(335c221)/thumb.jpg
"[{'dish': u'http://www.dianping.com/shop/17827462/dish-%E6%A1%A5%E4%B9%8B%E9%B2%9C', 'name': u'\u6865\u4e4b\u9c9c'}]",,金胜桥云南过桥米线,http://www.dianping.com/shop/17827462,岳阳楼区,"113.1177,29.36993",0730-8988858,"{'url': u'http://www.dianping.com/mylist/1572658', 'intro': u'\u641c\u7f57\u672c\u57ce\u5fc5\u5403\u7684\u5c0f\u5403\uff0c\u65e0\u8bba\u662f\u8857\u8fb9\u7684\u8fd8\u662f\u5927\u9152\u5e97\u91cc\u7684\u3002\u72c2\u7231\u5c0f\u5403\u7684\u5403\u8d27\u4eec\u662f\u65e0\u6240\u754f\u60e7\u7684\uff0c\u6bcf...', 'title': u'\u3010\u5cb3\u9633\u3011\u70ed\u95e8\u5c0f\u5403\u70b9\u5fc3\u5927\u641c\u7f57'}",土桥街118号(乡里饭庄对面),http://i3.s1.dpfile.com/pc/feaf35b8adbb126caad6c24144d58442(335c221)/thumb.jpg
,,油炸货,http://www.dianping.com/shop/10329897,岳阳楼区,"113.09482999963,29.3740600000051",,"{'url': u'http://www.dianping.com/mylist/1572658', 'intro': u'\u641c\u7f57\u672c\u57ce\u5fc5\u5403\u7684\u5c0f\u5403\uff0c\u65e0\u8bba\u662f\u8857\u8fb9\u7684\u8fd8\u662f\u5927\u9152\u5e97\u91cc\u7684\u3002\u72c2\u7231\u5c0f\u5403\u7684\u5403\u8d27\u4eec\u662f\u65e0\u6240\u754f\u60e7\u7684\uff0c\u6bcf...', 'title': u'\u3010\u5cb3\u9633\u3011\u70ed\u95e8\u5c0f\u5403\u70b9\u5fc3\u5927\u641c\u7f57'}",商业大厦菜场侧门(一般夏天在商大菜场的侧面楼梯那，冬天在商大边上的农业银行门口),//j3.s2.dpfile.com/s/i/app/shop/img_nopic.v01605900.png
"[{'dish': u'http://www.dianping.com/shop/8964621/dish-%E9%85%B1%E9%A9%B4%E8%82%89', 'name': u'\u9171\u9a74\u8089'}, {'dish': u'http://www.dianping.com/shop/8964621/dish-%E7%8E%89%E7%B1%B3%E7%8C%AA%E8%82%89%E9%A6%85%E9%A5%BA%E5%AD%90', 'name': u'\u7389\u7c73\u732a\u8089\u9985\u997a\u5b50'}, {'dish': u'http://www.dianping.com/shop/8964621/dish-%E5%B9%B2%E7%85%8E%E9%BB%84%E8%8A%B1%E9%B1%BC', 'name': u'\u5e72\u714e\u9ec4\u82b1\u9c7c'}, {'dish': u'http://www.dianping.com/shop/8964621/dish-%E7%A5%9E%E5%86%9C%E6%9C%AC%E8%8D%89%E9%B8%AD', 'name': u'\u795e\u519c\u672c\u8349\u9e2d'}, {'dish': u'http://www.dianping.com/shop/8964621/dish-%E4%B8%9C%E5%8C%97%E5%A4%A7%E6%8B%89%E7%9A%AE', 'name': u'\u4e1c\u5317\u5927\u62c9\u76ae'}, {'dish': u'http://www.dianping.com/shop/8964621/dish-%E9%A6%99%E8%8F%9C%E9%A5%BA%E5%AD%90', 'name': u'\u9999\u83dc\u997a\u5b50'}, {'dish': u'http://www.dianping.com/shop/8964621/dish-%E5%9B%9B%E8%89%B2%E5%85%BB%E7%94%9F%E6%9D%82%E7%B2%AE', 'name': u'\u56db\u8272\u517b\u751f\u6742\u7cae'}, {'dish': u'http://www.dianping.com/shop/8964621/dish-%E7%A5%9E%E5%86%9C%E6%9C%AC%E8%8D%89%E9%B8%AD', 'name': u'\u795e\u519c\u672c\u8349\u9e2d'}]",,松花江饺子馆,http://www.dianping.com/shop/8964621,岳阳楼区,"113.1258103,29.37209899",0730-8239777,"{'url': u'http://www.dianping.com/mylist/1572658', 'intro': u'\u641c\u7f57\u672c\u57ce\u5fc5\u5403\u7684\u5c0f\u5403\uff0c\u65e0\u8bba\u662f\u8857\u8fb9\u7684\u8fd8\u662f\u5927\u9152\u5e97\u91cc\u7684\u3002\u72c2\u7231\u5c0f\u5403\u7684\u5403\u8d27\u4eec\u662f\u65e0\u6240\u754f\u60e7\u7684\uff0c\u6bcf...', 'title': u'\u3010\u5cb3\u9633\u3011\u70ed\u95e8\u5c0f\u5403\u70b9\u5fc3\u5927\u641c\u7f57'}",巴陵中路沃尔玛超市对面,http://i3.s2.dpfile.com/pc/8f39c171c5b7bef1ec4d45fee9a6695b(335c221)/thumb.jpg
"[{'dish': u'http://www.dianping.com/shop/4544780/dish-%E9%A6%99%E8%B1%86%E8%85%90', 'name': u'\u9999\u8c46\u8150'}, {'dish': u'http://www.dianping.com/shop/4544780/dish-%E9%A6%99%E8%B1%86%E8%85%90', 'name': u'\u9999\u8c46\u8150'}]",,香豆腐,http://www.dianping.com/shop/4544780,岳阳楼区,"113.094349000064,29.3776679999036",0730-8232032,"{'url': u'http://www.dianping.com/mylist/1572658', 'intro': u'\u641c\u7f57\u672c\u57ce\u5fc5\u5403\u7684\u5c0f\u5403\uff0c\u65e0\u8bba\u662f\u8857\u8fb9\u7684\u8fd8\u662f\u5927\u9152\u5e97\u91cc\u7684\u3002\u72c2\u7231\u5c0f\u5403\u7684\u5403\u8d27\u4eec\u662f\u65e0\u6240\u754f\u60e7\u7684\uff0c\u6bcf...', 'title': u'\u3010\u5cb3\u9633\u3011\u70ed\u95e8\u5c0f\u5403\u70b9\u5fc3\u5927\u641c\u7f57'}",洞庭北路汴河街,http://i3.s1.dpfile.com/pc/c7873ec5188b8b9d2316b35b75ee7f74(335c221)/thumb.jpg
,javascript:;,魔味鬼爪,http://www.dianping.com/shop/8923592,岳阳楼区,"113.129927,29.358874",18873000977,"{'url': u'http://www.dianping.com/mylist/1572658', 'intro': u'\u641c\u7f57\u672c\u57ce\u5fc5\u5403\u7684\u5c0f\u5403\uff0c\u65e0\u8bba\u662f\u8857\u8fb9\u7684\u8fd8\u662f\u5927\u9152\u5e97\u91cc\u7684\u3002\u72c2\u7231\u5c0f\u5403\u7684\u5403\u8d27\u4eec\u662f\u65e0\u6240\u754f\u60e7\u7684\uff0c\u6bcf...', 'title': u'\u3010\u5cb3\u9633\u3011\u70ed\u95e8\u5c0f\u5403\u70b9\u5fc3\u5927\u641c\u7f57'}",天伦城大润发超市旁,http://i1.s1.dpfile.com/pc/4fc1e52c2e44a0edcd75123e8ae07394(335c221)/thumb.jpg
"[{'dish': u'http://www.dianping.com/shop/4204524/dish-%E4%B8%89%E5%A4%A7%E7%82%AE', 'name': u'\u4e09\u5927\u70ae'}, {'dish': u'http://www.dianping.com/shop/4204524/dish-%E4%B8%89%E5%A4%A7%E7%82%AE', 'name': u'\u4e09\u5927\u70ae'}, {'dish': u'http://www.dianping.com/shop/4204524/dish-%E4%B8%89%E5%A4%A7%E7%82%AE', 'name': u'\u4e09\u5927\u70ae'}, {'dish': u'http://www.dianping.com/shop/4204524/dish-%E5%8F%B6%E5%84%BF%E8%80%99', 'name': u'\u53f6\u513f\u8019'}, {'dish': u'http://www.dianping.com/shop/4204524/dish-%E5%87%89%E9%9D%A2', 'name': u'\u51c9\u9762'}]",,巴蜀风味小吃,http://www.dianping.com/shop/4204524,岳阳楼区,"113.094844,29.378261",,"{'url': u'http://www.dianping.com/mylist/1572658', 'intro': u'\u641c\u7f57\u672c\u57ce\u5fc5\u5403\u7684\u5c0f\u5403\uff0c\u65e0\u8bba\u662f\u8857\u8fb9\u7684\u8fd8\u662f\u5927\u9152\u5e97\u91cc\u7684\u3002\u72c2\u7231\u5c0f\u5403\u7684\u5403\u8d27\u4eec\u662f\u65e0\u6240\u754f\u60e7\u7684\uff0c\u6bcf...', 'title': u'\u3010\u5cb3\u9633\u3011\u70ed\u95e8\u5c0f\u5403\u70b9\u5fc3\u5927\u641c\u7f57'}",汴河街,http://i2.s1.dpfile.com/2010-07-30/4859268_b.jpg(335c221)/thumb.jpg
,javascript:;,小家庭私房菜,http://www.dianping.com/shop/17726071,岳阳楼区,"113.143526,29.365673",0730-8313117,"{'url': u'http://www.dianping.com/mylist/1651373', 'intro': u'\u4e0d\u8f93\u6b63\u724c\u7684\u79c1\u623f\u83dc\u9986\uff0c\u53e3\u5473\u72ec\u7279\uff0c\u79cd\u7c7b\u5404\u5f02\uff0c\u503c\u5f97\u4e00\u5c1d\uff0c\u8d76\u7d27\u6765\u770b\u770b\u5427\uff01', 'title': u'\u3010\u5cb3\u9633\u3011\u672c\u57ce\u6df1\u85cf\u4e0d\u9732\u7684\u79c1\u623f\u83dc\u9986\uff0c\u503c\u5f97\u4e00\u5c1d'}",青年东路枫树岭社区居委会对面,http://i3.s2.dpfile.com/pc/1ff2347ffac547e1b021ee904aa3ceae(335c221)/thumb.jpg
,,伊伊甜品店,http://www.dianping.com/shop/19296926,汨罗市其他,"113.08637,28.796717",15700814578,"{'url': u'http://www.dianping.com/mylist/2206626', 'intro': u'\u7cd6\u6c34\u662f\u5e7f\u4e1c\u5730\u533a\u6c49\u65cf\u751c\u54c1\u5c0f\u5403\u7684\u603b\u79f0\uff0c\u4e00\u5e74\u56db\u5b63\u90fd\u8d85\u53d7MM\u6b22\u8fce\uff0c\u5cb3\u9633\u8d85\u4eba\u6c14\u7684\u7cd6\u6c34\u94fa\u6709\u54ea\u4e9b...', 'title': u'\u3010\u5cb3\u9633\u3011\u751c\u54c1\u63a7\u5fc5\u6765 \u4eba\u6c14\u7206\u8868\u7684\u7cd6\u6c34\u94fa'}",荣家路200号,http://i2.s2.dpfile.com/pc/0cd8c0fccd2450db15df0ea2de21a27c(335c221)/thumb.jpg
"[{'dish': u'http://www.dianping.com/shop/9742188/dish-%E7%83%AB%E7%B1%B3%E7%B2%89', 'name': u'\u70eb\u7c73\u7c89'}, {'dish': u'http://www.dianping.com/shop/9742188/dish-%E5%A7%9C%E8%BE%A3%E8%9B%87', 'name': u'\u59dc\u8fa3\u86c7'}, {'dish': u'http://www.dianping.com/shop/9742188/dish-%E5%8F%A3%E5%91%B3%E8%99%BE', 'name': u'\u53e3\u5473\u867e'}, {'dish': u'http://www.dianping.com/shop/9742188/dish-%E5%8F%A3%E5%91%B3%E8%99%BE', 'name': u'\u53e3\u5473\u867e'}, {'dish': u'http://www.dianping.com/shop/9742188/dish-%E5%8F%A3%E5%91%B3%E7%94%B0%E9%B8%A1', 'name': u'\u53e3\u5473\u7530\u9e21'}]",,古记特色龙虾馆,http://www.dianping.com/shop/9742188,岳阳楼区,"113.10003199963,29.3668770000051",,"{'url': u'http://www.dianping.com/mylist/1572658', 'intro': u'\u641c\u7f57\u672c\u57ce\u5fc5\u5403\u7684\u5c0f\u5403\uff0c\u65e0\u8bba\u662f\u8857\u8fb9\u7684\u8fd8\u662f\u5927\u9152\u5e97\u91cc\u7684\u3002\u72c2\u7231\u5c0f\u5403\u7684\u5403\u8d27\u4eec\u662f\u65e0\u6240\u754f\u60e7\u7684\uff0c\u6bcf...', 'title': u'\u3010\u5cb3\u9633\u3011\u70ed\u95e8\u5c0f\u5403\u70b9\u5fc3\u5927\u641c\u7f57'}",青年西路67号,http://i3.s2.dpfile.com/pc/c8129b8d0298737a8ed1a3ce5e98f69a(335c221)/thumb.jpg
